{
  "type": "FeatureCollection",
  "generator": "overpass-turbo",
  "copyright": "The data included in this document is from www.openstreetmap.org. The data is made available under ODbL.",
  "timestamp": "2026-08-16T00:16:06Z",
  "features": [
    {
      "type": "Feature",
      "properties": {
        "@id": "way/119446867",
        "amenity": "university",
        "building": "yes",
        "building:levels": "2",
        "building:roof": "tile",
        "building:structure": "reinforced_masonry",
        "building:use": "education",
        "building:walls": "brick",
        "name": "MBA ITB"
      },
      "geometry": {
        "type": "Polygon",
        "coordinates": [
          [
            [107.6095333, -6.8943045],
            [107.6094194, -6.8943077],
            [107.6094254, -6.8944341],
            [107.6092698, -6.8944405],
            [107.6092636, -6.8943086],
            [107.609158, -6.8943126],
            [107.6091661, -6.8945961],
            [107.6095424, -6.894588],
            [107.6095333, -6.8943045]
          ]
        ]
      },
      "id": "way/119446867"
    },
    {
      "type": "Feature",
      "properties": {
        "@id": "way/152783409",
        "amenity": "university",
        "name": "Sekolah Tinggi Pariwisata Bandung"
      },
      "geometry": {
        "type": "Polygon",
        "coordinates": [
          [
            [107.5941013, -6.8679283],
            [107.5940605, -6.8682344],
            [107.5938737, -6.8694479],
            [107.5936585, -6.8694423],
            [107.5936385, -6.8702845],
            [107.5943273, -6.8700629],
            [107.5951298, -6.8698797],
            [107.5951212, -6.8690829],
            [107.5956877, -6.8690814],
            [107.59568, -6.8687228],
            [107.5951749, -6.868561],
            [107.5952693, -6.8679949],
            [107.5941461, -6.8678807],
            [107.5941013, -6.8679283]
          ]
        ]
      },
      "id": "way/152783409"
    },
    {
      "type": "Feature",
      "properties": {
        "@id": "way/152792941",
        "amenity": "university",
        "name": "Universitas Pasundan (UNPAS) Kampus IV"
      },
      "geometry": {
        "type": "Polygon",
        "coordinates": [
          [
            [107.5921099, -6.8657682],
            [107.5920409, -6.8661736],
            [107.5919583, -6.8666584],
            [107.5919596, -6.8668334],
            [107.5924894, -6.8668501],
            [107.5924907, -6.8669026],
            [107.592639, -6.8669025],
            [107.592701, -6.8665822],
            [107.5932334, -6.8666477],
            [107.5935297, -6.8666958],
            [107.5938114, -6.866591],
            [107.5938545, -6.8664541],
            [107.5932362, -6.8663564],
            [107.593201, -6.8663508],
            [107.5932137, -6.8660625],
            [107.5930035, -6.8660432],
            [107.59279, -6.8660237],
            [107.5927952, -6.8658435],
            [107.5923948, -6.8657995],
            [107.5923142, -6.8657906],
            [107.5921099, -6.8657682]
          ]
        ]
      },
      "id": "way/152792941"
    },
    {
      "type": "Feature",
      "properties": {
        "@id": "way/152981734",
        "addr:city": "Bandung",
        "addr:housenumber": "65",
        "addr:street": "Jalan Prof. Drg. Surya Sumantri",
        "amenity": "university",
        "name": "Universitas Kristen Maranatha",
        "wheelchair": "yes"
      },
      "geometry": {
        "type": "Polygon",
        "coordinates": [
          [
            [107.5798698, -6.8846842],
            [107.5798295, -6.8847455],
            [107.5798094, -6.8848027],
            [107.5797893, -6.8849026],
            [107.5797855, -6.8850115],
            [107.5795466, -6.8856615],
            [107.5802989, -6.8859997],
            [107.5800938, -6.8865821],
            [107.5799898, -6.886941],
            [107.5801412, -6.8869711],
            [107.5800894, -6.8871945],
            [107.5803123, -6.8872539],
            [107.5805953, -6.8875961],
            [107.5805611, -6.8885161],
            [107.5809836, -6.8885713],
            [107.5809782, -6.8884014],
            [107.5809775, -6.8883796],
            [107.5812726, -6.8884022],
            [107.5812595, -6.8880035],
            [107.5812571, -6.8879322],
            [107.581126, -6.8879186],
            [107.5809206, -6.8878993],
            [107.5809527, -6.8876127],
            [107.5809695, -6.8875854],
            [107.5810009, -6.8873176],
            [107.580883, -6.8873031],
            [107.5808883, -6.887257],
            [107.5809202, -6.8869989],
            [107.5810146, -6.8870121],
            [107.5810432, -6.8868292],
            [107.5812712, -6.8868598],
            [107.5812772, -6.8867558],
            [107.5813376, -6.8853506],
            [107.5807717, -6.8851332],
            [107.5801857, -6.8848533],
            [107.5800059, -6.8847576],
            [107.5798698, -6.8846842]
          ]
        ]
      },
      "id": "way/152981734"
    },
    {
      "type": "Feature",
      "properties": {
        "@id": "way/152985244",
        "amenity": "university",
        "description": "Telkom Corporate University, Bandung, Indonesia",
        "name": "Telkom Corporate University"
      },
      "geometry": {
        "type": "Polygon",
        "coordinates": [
          [
            [107.5894734, -6.8698186],
            [107.5893688, -6.8701621],
            [107.5888377, -6.870021],
            [107.5886258, -6.8702939],
            [107.5884354, -6.8704364],
            [107.5883777, -6.8704843],
            [107.5883496, -6.8706028],
            [107.5883442, -6.8707066],
            [107.5883509, -6.8707958],
            [107.5883643, -6.8709103],
            [107.5884078, -6.8710438],
            [107.5883657, -6.871399],
            [107.5883362, -6.8716027],
            [107.5883192, -6.8719226],
            [107.5882034, -6.8725693],
            [107.5881832, -6.8728051],
            [107.5881457, -6.8728463],
            [107.5878802, -6.8728197],
            [107.5871439, -6.8727584],
            [107.587112, -6.8727409],
            [107.5870552, -6.8724967],
            [107.5868036, -6.8724754],
            [107.5862626, -6.8728003],
            [107.5864678, -6.8738559],
            [107.5876933, -6.8736724],
            [107.5880473, -6.8733651],
            [107.5883016, -6.8733936],
            [107.5884788, -6.8734018],
            [107.5887899, -6.8734365],
            [107.5898301, -6.8734961],
            [107.5898784, -6.8732485],
            [107.5903215, -6.8731249],
            [107.5901439, -6.8723111],
            [107.5900205, -6.8723031],
            [107.5900286, -6.8719729],
            [107.5895329, -6.8719159],
            [107.5898167, -6.8707985],
            [107.5901788, -6.8709237],
            [107.5902786, -6.8702303],
            [107.5905414, -6.8702835],
            [107.590587, -6.8699879],
            [107.5898382, -6.8699171],
            [107.5894734, -6.8698186]
          ]
        ]
      },
      "id": "way/152985244"
    },
    {
      "type": "Feature",
      "properties": {
        "@id": "way/153882684",
        "addr:housenumber": "194",
        "addr:street": "Jalan Cihampelas",
        "amenity": "university",
        "building": "yes",
        "check_date": "2026-04-17",
        "name": "STBA Yapari Aba"
      },
      "geometry": {
        "type": "Polygon",
        "coordinates": [
          [
            [107.6044035, -6.8918567],
            [107.6043715, -6.8924754],
            [107.6047918, -6.8924931],
            [107.6047846, -6.8923588],
            [107.6048381, -6.8923588],
            [107.6048416, -6.8921572],
            [107.6045567, -6.8921395],
            [107.604546, -6.8918673],
            [107.6044035, -6.8918567]
          ]
        ]
      },
      "id": "way/153882684"
    },
    {
      "type": "Feature",
      "properties": {
        "@id": "way/154080971",
        "amenity": "university",
        "name": "Politeknik Negeri Bandung (POLBAN)"
      },
      "geometry": {
        "type": "Polygon",
        "coordinates": [
          [
            [107.5718913, -6.868911],
            [107.571821, -6.8695496],
            [107.571526, -6.8702206],
            [107.5710915, -6.8729155],
            [107.5718003, -6.8736132],
            [107.5718942, -6.8735014],
            [107.5719774, -6.8734681],
            [107.5723663, -6.8737544],
            [107.5724092, -6.873757],
            [107.5728354, -6.8737679],
            [107.5728462, -6.8736241],
            [107.573223, -6.8737772],
            [107.5741471, -6.8738585],
            [107.5742519, -6.8733096],
            [107.5745747, -6.8733233],
            [107.5748549, -6.8728633],
            [107.5748357, -6.8723792],
            [107.5744517, -6.8722079],
            [107.574496, -6.8695735],
            [107.5740015, -6.8689715],
            [107.5729376, -6.8691155],
            [107.5718913, -6.868911]
          ]
        ]
      },
      "id": "way/154080971"
    },
    {
      "type": "Feature",
      "properties": {
        "@id": "way/177629384",
        "addr:city": "Bandung",
        "addr:full": "Jalan Ganesa No.10, Lb. Siliwangi, Kecamatan Coblong, Kota Bandung, Jawa Barat 40132",
        "addr:housenumber": "10-12",
        "addr:postcode": "40132",
        "addr:street": "Ganesha",
        "alt_name": "ITB",
        "amenity": "university",
        "area": "yes",
        "int_name": "Bandung Technology Institute",
        "name": "Institut Teknologi Bandung",
        "name:en": "Bandung Institute of Technology",
        "name:ja": "バンドゥン工科大学",
        "old_name": "Technische Hogeschool",
        "operator": "Kementerian Riset, Teknologi dan Pendidikan Tinggi",
        "operator:type": "government",
        "source": "S2City_POI_2022",
        "wheelchair": "yes",
        "wikidata": "Q1579397",
        "wikipedia": "en:Bandung Institute of Technology"
      },
      "geometry": {
        "type": "Polygon",
        "coordinates": [
          [
            [107.6085547, -6.8936567],
            [107.6086186, -6.8936319],
            [107.6087531, -6.8935797],
            [107.6090054, -6.8934818],
            [107.6093543, -6.8933439],
            [107.6097943, -6.8932693],
            [107.610043, -6.8932272],
            [107.6101995, -6.8931979],
            [107.6102615, -6.8931354],
            [107.6102904, -6.8930795],
            [107.6102874, -6.8929403],
            [107.6103163, -6.8928813],
            [107.6104139, -6.8928737],
            [107.6105099, -6.8928722],
            [107.6105693, -6.89291],
            [107.6105846, -6.8931181],
            [107.6106231, -6.8931598],
            [107.6107212, -6.8931726],
            [107.610878, -6.8932004],
            [107.6111272, -6.8932589],
            [107.611547, -6.8934006],
            [107.6118264, -6.8935094],
            [107.6118615, -6.8935265],
            [107.6119555, -6.8935512],
            [107.6119573, -6.8934055],
            [107.6119912, -6.8925976],
            [107.6120578, -6.8922957],
            [107.6122531, -6.8919813],
            [107.612414, -6.8909481],
            [107.6124899, -6.8899297],
            [107.6125568, -6.8893049],
            [107.6126358, -6.8886502],
            [107.6127028, -6.8885266],
            [107.6127309, -6.8882201],
            [107.6120407, -6.8881536],
            [107.6120465, -6.8874292],
            [107.6119814, -6.887421],
            [107.6114592, -6.8873266],
            [107.6102684, -6.8877302],
            [107.6097574, -6.8877695],
            [107.6092418, -6.8878148],
            [107.6086262, -6.8878687],
            [107.6084532, -6.887888],
            [107.6083674, -6.8879353],
            [107.6083106, -6.8880141],
            [107.608265, -6.8880887],
            [107.6082221, -6.8882298],
            [107.6081916, -6.8888493],
            [107.6081952, -6.8896385],
            [107.6081791, -6.8900805],
            [107.6081727, -6.890817],
            [107.6081711, -6.8914998],
            [107.6081752, -6.8920734],
            [107.6081765, -6.8923945],
            [107.6081971, -6.8925159],
            [107.6082756, -6.8928143],
            [107.6084654, -6.8933882],
            [107.6085197, -6.8935514],
            [107.6085547, -6.8936567]
          ]
        ]
      },
      "id": "way/177629384"
    },
    {
      "type": "Feature",
      "properties": {
        "@id": "way/233328791",
        "amenity": "university",
        "name": "Politeknik TEDC Bandung"
      },
      "geometry": {
        "type": "Polygon",
        "coordinates": [
          [
            [107.5618238, -6.8734924],
            [107.5618144, -6.8737142],
            [107.56201, -6.8737604],
            [107.562401, -6.8738207],
            [107.562407, -6.8737654],
            [107.5624157, -6.8731999],
            [107.5622744, -6.8731074],
            [107.5618988, -6.8731],
            [107.5618467, -6.8733193],
            [107.5618238, -6.8734924]
          ]
        ]
      },
      "id": "way/233328791"
    },
    {
      "type": "Feature",
      "properties": {
        "@id": "way/299053014",
        "addr:city": "Bandung",
        "addr:full": "Jalan Dipatiukur No.112-116, Lebakgede, Kecamatan Coblong, Kota Bandung, Jawa Barat",
        "addr:housenumber": "12",
        "addr:street": "Jalan Dipatiukur",
        "amenity": "university",
        "name": "Universitas Komputer Indonesia",
        "operator:type": "private",
        "phone": "+62 22 2504119",
        "source": "S2City_POI_2022",
        "website": "https://unikom.ac.id/"
      },
      "geometry": {
        "type": "Polygon",
        "coordinates": [
          [
            [107.6150921, -6.8866552],
            [107.6151052, -6.8866912],
            [107.6154132, -6.8875349],
            [107.6157576, -6.8874],
            [107.6157087, -6.8872653],
            [107.6157654, -6.8872387],
            [107.6157859, -6.8869623],
            [107.6156746, -6.8867366],
            [107.6154216, -6.8865803],
            [107.6153039, -6.8865826],
            [107.6150921, -6.8866552]
          ]
        ]
      },
      "id": "way/299053014"
    },
    {
      "type": "Feature",
      "properties": {
        "@id": "way/299054017",
        "addr:city": "Bandung",
        "addr:full": "Jalan Dipatiukur No.85 B",
        "addr:housenumber": "82",
        "addr:street": "Jalan Dipatiukur",
        "amenity": "university",
        "building": "university",
        "building:condition": "good",
        "building:levels": "5",
        "check_date": "2025-08-09",
        "name": "Institut Teknologi Harapan Bangsa",
        "operator:type": "private",
        "source": "S2City_POI_2022",
        "wheelchair": "yes"
      },
      "geometry": {
        "type": "Polygon",
        "coordinates": [
          [
            [107.6158273, -6.8886632],
            [107.6159557, -6.88895],
            [107.6159172, -6.888967],
            [107.6160427, -6.8892471],
            [107.616151, -6.8891993],
            [107.61622, -6.8888783],
            [107.6161863, -6.888803],
            [107.6160844, -6.8888479],
            [107.6159729, -6.8885989],
            [107.6158273, -6.8886632]
          ]
        ]
      },
      "id": "way/299054017"
    },
    {
      "type": "Feature",
      "properties": {
        "@id": "way/299080058",
        "addr:city": "Bandung",
        "addr:full": "Jalan Dipatiukur No. 23",
        "amenity": "university",
        "building": "university",
        "building:condition": "good",
        "building:levels": "3",
        "name": "Magister Manajemen Universitas Padjadjaran",
        "operator:type": "government",
        "source": "S2City_POI_2022",
        "wheelchair": "yes"
      },
      "geometry": {
        "type": "Polygon",
        "coordinates": [
          [
            [107.6177797, -6.894734],
            [107.6177782, -6.8948937],
            [107.6180759, -6.8948965],
            [107.6180775, -6.8947368],
            [107.6177797, -6.894734]
          ]
        ]
      },
      "id": "way/299080058"
    },
    {
      "type": "Feature",
      "properties": {
        "@id": "way/306789008",
        "addr:city": "Bandung",
        "addr:housenumber": "28",
        "addr:street": "Jl. Jakarta",
        "amenity": "university",
        "description": "Kampus STMIK \"AMIKBANDUNG\"",
        "email": "info@stmik-amikbandung.ac.id",
        "internet_access": "yes",
        "internet_access:fee": "customers",
        "name": "STMIK \"AMIKBANDUNG\"",
        "phone": "+62 22 7271136",
        "website": "https://stmik-amikbandung.ac.id/"
      },
      "geometry": {
        "type": "Polygon",
        "coordinates": [
          [
            [107.6384758, -6.9144896],
            [107.6379179, -6.9145535],
            [107.63817, -6.9154428],
            [107.6382344, -6.9159328],
            [107.6385113, -6.9158821],
            [107.6385024, -6.9158061],
            [107.6386505, -6.9157646],
            [107.6384758, -6.9144896]
          ]
        ]
      },
      "id": "way/306789008"
    },
    {
      "type": "Feature",
      "properties": {
        "@id": "way/381032894",
        "amenity": "university",
        "building": "yes",
        "name": "Fakultas Kedokteran Unisba"
      },
      "geometry": {
        "type": "Polygon",
        "coordinates": [
          [
            [107.6086597, -6.9032421],
            [107.608626, -6.9033554],
            [107.608815, -6.9034107],
            [107.6088487, -6.9032974],
            [107.6086597, -6.9032421]
          ]
        ]
      },
      "id": "way/381032894"
    },
    {
      "type": "Feature",
      "properties": {
        "@id": "way/416542356",
        "addr:city": "Bandung",
        "addr:full": "Jl Tamansari No 1",
        "amenity": "university",
        "name": "Universitas Islam Bandung",
        "operator:type": "private",
        "source": "S2City_POI_2022",
        "wheelchair": "no"
      },
      "geometry": {
        "type": "Polygon",
        "coordinates": [
          [
            [107.6075862, -6.9029329],
            [107.6076576, -6.9029688],
            [107.6077518, -6.9030253],
            [107.6076746, -6.9031181],
            [107.6075874, -6.9032229],
            [107.6074014, -6.9032475],
            [107.6073733, -6.9033893],
            [107.6074144, -6.9034239],
            [107.6074845, -6.9036034],
            [107.6075391, -6.9037566],
            [107.607552, -6.9038073],
            [107.6075595, -6.9038715],
            [107.6075787, -6.9039019],
            [107.6076695, -6.9040096],
            [107.607731, -6.9040553],
            [107.6078082, -6.9040814],
            [107.6080606, -6.9041699],
            [107.6081698, -6.9039031],
            [107.6083092, -6.9035689],
            [107.6083213, -6.9034944],
            [107.6083066, -6.9034038],
            [107.6082583, -6.9032427],
            [107.6081684, -6.9030417],
            [107.6080316, -6.902794],
            [107.6079533, -6.9028425],
            [107.6079028, -6.9027462],
            [107.6076459, -6.9027872],
            [107.6076418, -6.9028138],
            [107.6076101, -6.9028105],
            [107.6075936, -6.9029065],
            [107.6075862, -6.9029329]
          ]
        ]
      },
      "id": "way/416542356"
    },
    {
      "type": "Feature",
      "properties": {
        "@id": "way/455732694",
        "amenity": "university",
        "building": "yes",
        "name": "Politeknik Kesehatan Kemenkes Bandung Jurusan Keperawatan"
      },
      "geometry": {
        "type": "Polygon",
        "coordinates": [
          [
            [107.5987146, -6.9008046],
            [107.5987109, -6.9011781],
            [107.5991924, -6.9011828],
            [107.5991961, -6.9008092],
            [107.5987146, -6.9008046]
          ]
        ]
      },
      "id": "way/455732694"
    },
    {
      "type": "Feature",
      "properties": {
        "@id": "way/512050480",
        "amenity": "university",
        "building": "yes",
        "name": "Kampus 2 Sekolah Tinggi Ilmu Keperawatan PPNI Jawa Barat"
      },
      "geometry": {
        "type": "Polygon",
        "coordinates": [
          [
            [107.5946327, -6.900058],
            [107.5945983, -6.900146],
            [107.5948545, -6.9002446],
            [107.5948888, -6.9001566],
            [107.5946327, -6.900058]
          ]
        ]
      },
      "id": "way/512050480"
    },
    {
      "type": "Feature",
      "properties": {
        "@id": "way/512057479",
        "amenity": "university",
        "building": "yes",
        "name": "Politeknik Kesehatan Kemenkes Bandung Jurusan Promosi Kesehatan"
      },
      "geometry": {
        "type": "Polygon",
        "coordinates": [
          [
            [107.597972, -6.9010206],
            [107.5979733, -6.9011498],
            [107.5980767, -6.9011487],
            [107.5980754, -6.9010196],
            [107.597972, -6.9010206]
          ]
        ]
      },
      "id": "way/512057479"
    },
    {
      "type": "Feature",
      "properties": {
        "@id": "way/514048757",
        "addr:city": "Bandung",
        "addr:street": "Jl. Pajajaran, Pasir Kaliki, Cicendo",
        "amenity": "university",
        "building": "yes",
        "name": "Politeknik Kesehatan Bandung"
      },
      "geometry": {
        "type": "Polygon",
        "coordinates": [
          [
            [107.6004611, -6.9066676],
            [107.6004611, -6.9066685],
            [107.6004904, -6.9066691],
            [107.600551, -6.9066704],
            [107.600573, -6.9066708],
            [107.6005752, -6.9065683],
            [107.6006607, -6.9065701],
            [107.6006659, -6.9063211],
            [107.6004722, -6.906317],
            [107.6004699, -6.9064255],
            [107.6004204, -6.9064245],
            [107.6004208, -6.9064044],
            [107.6001863, -6.9063995],
            [107.6001805, -6.9066711],
            [107.6004142, -6.906676],
            [107.6004144, -6.9066667],
            [107.6004611, -6.9066676]
          ]
        ]
      },
      "id": "way/514048757"
    },
    {
      "type": "Feature",
      "properties": {
        "@id": "way/545994901",
        "addr:city": "Bandung",
        "addr:full": "Jalan Sekeloa Selatan No. 1",
        "amenity": "university",
        "building": "university",
        "building:condition": "good",
        "building:levels": "2",
        "name": "Magister Ilmu Lingkungan Universitas Padjadjaran",
        "operator:type": "government",
        "source": "S2City_POI_2022",
        "wheelchair": "yes"
      },
      "geometry": {
        "type": "Polygon",
        "coordinates": [
          [
            [107.6190739, -6.8896776],
            [107.6190817, -6.8900339],
            [107.6192647, -6.8900299],
            [107.6192569, -6.8896737],
            [107.6190739, -6.8896776]
          ]
        ]
      },
      "id": "way/545994901"
    },
    {
      "type": "Feature",
      "properties": {
        "@id": "way/548474101",
        "addr:city": "Bandung",
        "addr:full": "Jl Tamansari No 64",
        "amenity": "university",
        "name": "Rektorat ITB",
        "operator": "ITB",
        "operator:type": "government",
        "source": "S2City_POI_2022",
        "wheelchair": "no"
      },
      "geometry": {
        "type": "Polygon",
        "coordinates": [
          [
            [107.6094374, -6.899377],
            [107.6094616, -6.8993641],
            [107.6094976, -6.8993557],
            [107.6095346, -6.89936],
            [107.6095677, -6.8993766],
            [107.6095958, -6.8994079],
            [107.6096091, -6.8994561],
            [107.6103514, -6.8993942],
            [107.610161, -6.899333],
            [107.61022, -6.899088],
            [107.6101878, -6.8990694],
            [107.6101824, -6.8990135],
            [107.6104748, -6.8990987],
            [107.6106619, -6.8991362],
            [107.6107782, -6.8986475],
            [107.6096336, -6.8983101],
            [107.609539, -6.8982797],
            [107.6093137, -6.8989104],
            [107.6093117, -6.8990402],
            [107.6093238, -6.8991514],
            [107.6093462, -6.8992552],
            [107.609361, -6.8992922],
            [107.6093798, -6.8993311],
            [107.6094136, -6.8993637],
            [107.6094374, -6.899377]
          ]
        ]
      },
      "id": "way/548474101"
    },
    {
      "type": "Feature",
      "properties": {
        "@id": "way/553793571",
        "amenity": "university"
      },
      "geometry": {
        "type": "Polygon",
        "coordinates": [
          [
            [107.6040411, -6.8772466],
            [107.604474, -6.8773156],
            [107.6045236, -6.8773087],
            [107.6045564, -6.8772762],
            [107.6046845, -6.8770357],
            [107.604756, -6.8769825],
            [107.6048503, -6.8769056],
            [107.6049208, -6.8768267],
            [107.6049655, -6.8767331],
            [107.6050866, -6.8763644],
            [107.6051442, -6.87625],
            [107.6051948, -6.8761761],
            [107.6055721, -6.8759001],
            [107.6056972, -6.8758025],
            [107.6058352, -6.8756803],
            [107.6059454, -6.8756004],
            [107.6060815, -6.8755176],
            [107.6061937, -6.875489],
            [107.6063813, -6.8754989],
            [107.6064806, -6.8755176],
            [107.6066097, -6.8755442],
            [107.6067, -6.8755649],
            [107.6067152, -6.875549],
            [107.6067374, -6.8755217],
            [107.6067879, -6.8754073],
            [107.60682, -6.8753012],
            [107.6069104, -6.8750248],
            [107.6069114, -6.8748927],
            [107.6069497, -6.8747831],
            [107.6070695, -6.874609],
            [107.6068342, -6.8741051],
            [107.6065878, -6.874142],
            [107.6057208, -6.8738879],
            [107.6052289, -6.8737892],
            [107.6051909, -6.8739531],
            [107.6048275, -6.8738638],
            [107.6040411, -6.8772466]
          ]
        ]
      },
      "id": "way/553793571"
    },
    {
      "type": "Feature",
      "properties": {
        "@id": "way/553910797",
        "amenity": "university",
        "name": "Parahyangan University",
        "opening_hours": "Mo-Su 06:00-24:00"
      },
      "geometry": {
        "type": "Polygon",
        "coordinates": [
          [
            [107.6040411, -6.8772466],
            [107.6045172, -6.8773256],
            [107.6045614, -6.8772998],
            [107.6046845, -6.8770357],
            [107.604756, -6.8769825],
            [107.6048503, -6.8769056],
            [107.6049208, -6.8768267],
            [107.6049655, -6.8767331],
            [107.6050866, -6.8763644],
            [107.6051442, -6.87625],
            [107.6051948, -6.8761761],
            [107.6055721, -6.8759001],
            [107.6056416, -6.8758439],
            [107.6056972, -6.8758025],
            [107.6058352, -6.8756803],
            [107.6059454, -6.8756004],
            [107.6060815, -6.8755176],
            [107.6061937, -6.875489],
            [107.6063813, -6.8754989],
            [107.6064806, -6.8755176],
            [107.6066097, -6.8755442],
            [107.6067, -6.8755649],
            [107.6067374, -6.8755217],
            [107.6067879, -6.8754073],
            [107.60682, -6.8753012],
            [107.6069104, -6.8750248],
            [107.6069114, -6.8748927],
            [107.6069497, -6.8747831],
            [107.6070695, -6.874609],
            [107.6068342, -6.8741051],
            [107.6065878, -6.874142],
            [107.6057208, -6.8738879],
            [107.6052289, -6.8737892],
            [107.6051909, -6.8739531],
            [107.6048275, -6.8738638],
            [107.6040411, -6.8772466]
          ]
        ]
      },
      "id": "way/553910797"
    },
    {
      "type": "Feature",
      "properties": {
        "@id": "way/557649490",
        "addr:city": "Bandung",
        "addr:housenumber": "1",
        "addr:postcode": "40257",
        "addr:street": "Jl. Telekomunikasi No. 01",
        "amenity": "university",
        "internet_access": "wlan",
        "internet_access:ssid": "TelkomUniversity",
        "name": "Telkom University",
        "wikidata": "Q15057698",
        "wikipedia": "en:Telkom University"
      },
      "geometry": {
        "type": "Polygon",
        "coordinates": [
          [
            [107.6307312, -6.9697046],
            [107.630347, -6.9696267],
            [107.6286001, -6.9692014],
            [107.628462, -6.9684853],
            [107.6280342, -6.9684786],
            [107.6275742, -6.9685079],
            [107.6277231, -6.9694956],
            [107.6275597, -6.9696164],
            [107.6275329, -6.9696254],
            [107.6267943, -6.9702045],
            [107.6267702, -6.9707124],
            [107.6267521, -6.9712235],
            [107.6268379, -6.9712548],
            [107.6280972, -6.9713512],
            [107.6281416, -6.9713727],
            [107.6284996, -6.9713819],
            [107.6284781, -6.971936],
            [107.6284644, -6.971936],
            [107.6284312, -6.9719344],
            [107.6284074, -6.9719437],
            [107.6283936, -6.9719577],
            [107.6283976, -6.9731484],
            [107.6282461, -6.9732909],
            [107.6277861, -6.973806],
            [107.6282313, -6.9743039],
            [107.6287074, -6.974871],
            [107.6289844, -6.9751658],
            [107.6290434, -6.9752204],
            [107.6290444, -6.9752314],
            [107.6290521, -6.9753076],
            [107.6290561, -6.9756444],
            [107.6290481, -6.9771872],
            [107.6290642, -6.977725],
            [107.6292425, -6.9777157],
            [107.6294491, -6.9776837],
            [107.629732, -6.9776425],
            [107.6298387, -6.9776405],
            [107.62995, -6.9776505],
            [107.6301411, -6.9776897],
            [107.6305917, -6.9777357],
            [107.6307462, -6.9778057],
            [107.6310799, -6.9778155],
            [107.6312086, -6.9778528],
            [107.6317893, -6.9779447],
            [107.6318067, -6.9778075],
            [107.6312891, -6.9777397],
            [107.6315466, -6.9774654],
            [107.6327978, -6.9762394],
            [107.6328865, -6.9761877],
            [107.6329319, -6.9760504],
            [107.6329654, -6.9756371],
            [107.6329688, -6.9755306],
            [107.6329333, -6.975446],
            [107.6326986, -6.9752184],
            [107.6325926, -6.9750573],
            [107.6324698, -6.9748191],
            [107.632434, -6.9747597],
            [107.6325403, -6.9744437],
            [107.632598, -6.9740603],
            [107.6326088, -6.974025],
            [107.6326248, -6.9739511],
            [107.6326382, -6.9739019],
            [107.6333047, -6.9732669],
            [107.6334415, -6.9731498],
            [107.6334992, -6.9730965],
            [107.6335354, -6.9721713],
            [107.6334442, -6.9721221],
            [107.6335066, -6.9720409],
            [107.6326704, -6.9714512],
            [107.6319851, -6.9709586],
            [107.6311774, -6.9704453],
            [107.6310401, -6.9703549],
            [107.6309752, -6.970285],
            [107.6307312, -6.9697046]
          ]
        ]
      },
      "id": "way/557649490"
    },
    {
      "type": "Feature",
      "properties": {
        "@id": "way/579089344",
        "amenity": "university",
        "building": "yes",
        "name": "BJB University Braga"
      },
      "geometry": {
        "type": "Polygon",
        "coordinates": [
          [
            [107.6078533, -6.9206502],
            [107.6078358, -6.9208153],
            [107.6079975, -6.9208321],
            [107.6080149, -6.9206671],
            [107.6078533, -6.9206502]
          ]
        ]
      },
      "id": "way/579089344"
    },
    {
      "type": "Feature",
      "properties": {
        "@id": "way/616936974",
        "addr:city": "Bandung",
        "addr:housenumber": "171",
        "addr:street": "JL Cikutra",
        "amenity": "university",
        "building": "yes",
        "name": "Universitas Bandung Raya (UNBAR)"
      },
      "geometry": {
        "type": "Polygon",
        "coordinates": [
          [
            [107.6430712, -6.9002117],
            [107.6430707, -6.9004264],
            [107.6431785, -6.9004266],
            [107.6432667, -6.9004269],
            [107.6432668, -6.9003884],
            [107.6432669, -6.9003406],
            [107.6432344, -6.9003405],
            [107.6432345, -6.9003106],
            [107.6432346, -6.9002786],
            [107.6432347, -6.9002508],
            [107.6432347, -6.9002121],
            [107.6430712, -6.9002117]
          ]
        ]
      },
      "id": "way/616936974"
    },
    {
      "type": "Feature",
      "properties": {
        "@id": "way/632227110",
        "addr:city": "Bandung",
        "addr:district": "Regol Kota",
        "addr:housenumber": "63",
        "addr:street": "Jalan BKR",
        "addr:subdistrict": "Ancol",
        "amenity": "university",
        "branch": "Bandung",
        "building": "university",
        "name": "Satu University",
        "name:id": "Universitas SATU",
        "operator": "BINUS Higher Education",
        "website": "https://satu.ac.id"
      },
      "geometry": {
        "type": "Polygon",
        "coordinates": [
          [
            [107.6164383, -6.9384181],
            [107.6164394, -6.9381912],
            [107.6164292, -6.9381911],
            [107.6164195, -6.9381911],
            [107.6164196, -6.9381625],
            [107.6163187, -6.938162],
            [107.6163187, -6.9381753],
            [107.6162954, -6.9381752],
            [107.6162819, -6.9381751],
            [107.6162818, -6.9381968],
            [107.6162681, -6.9381967],
            [107.616267, -6.9384173],
            [107.6164383, -6.9384181]
          ]
        ]
      },
      "id": "way/632227110"
    },
    {
      "type": "Feature",
      "properties": {
        "@id": "way/632681583",
        "amenity": "university",
        "building": "yes",
        "name": "Institut Seni Budaya Indonesia Bandung (ISBI)"
      },
      "geometry": {
        "type": "Polygon",
        "coordinates": [
          [
            [107.6280877, -6.9434675],
            [107.6282207, -6.9433576],
            [107.6282601, -6.9433217],
            [107.6282911, -6.9432934],
            [107.6281909, -6.9431945],
            [107.6282354, -6.9431488],
            [107.6281693, -6.9430798],
            [107.6282063, -6.9430458],
            [107.6281324, -6.94297],
            [107.628092, -6.9430041],
            [107.6280264, -6.9429383],
            [107.6279918, -6.9429683],
            [107.6279155, -6.9428973],
            [107.6278453, -6.9429567],
            [107.6278366, -6.9429468],
            [107.6278856, -6.9429002],
            [107.6277975, -6.9428111],
            [107.6277096, -6.9428998],
            [107.627803, -6.9429904],
            [107.6277419, -6.9430566],
            [107.6278189, -6.9431397],
            [107.6279076, -6.943063],
            [107.627916, -6.9430719],
            [107.6279536, -6.9430414],
            [107.6279746, -6.9430664],
            [107.6277709, -6.9432433],
            [107.6279277, -6.9434127],
            [107.6279828, -6.9433484],
            [107.6280877, -6.9434675]
          ]
        ]
      },
      "id": "way/632681583"
    },
    {
      "type": "Feature",
      "properties": {
        "@id": "way/633639650",
        "amenity": "university",
        "building": "university",
        "name": "STT Mandala",
        "source": "POI_WRI_Survey_2023",
        "wheelchair": "no"
      },
      "geometry": {
        "type": "Polygon",
        "coordinates": [
          [
            [107.6440622, -6.9441875],
            [107.6440035, -6.9441736],
            [107.6439476, -6.9444058],
            [107.6442717, -6.9443248],
            [107.644244, -6.9442155],
            [107.6440434, -6.9442657],
            [107.6440622, -6.9441875]
          ]
        ]
      },
      "id": "way/633639650"
    },
    {
      "type": "Feature",
      "properties": {
        "@id": "way/636133833",
        "amenity": "university",
        "building": "yes",
        "name": "Gedung Fakultas Teknik Universitas Nurtanio Bandung"
      },
      "geometry": {
        "type": "Polygon",
        "coordinates": [
          [
            [107.5806226, -6.9049558],
            [107.5805924, -6.9049472],
            [107.5805699, -6.9050258],
            [107.5804956, -6.9050049],
            [107.5803059, -6.9056677],
            [107.5804105, -6.9056972],
            [107.5804583, -6.9055302],
            [107.5804749, -6.9055349],
            [107.5804596, -6.9055882],
            [107.5805313, -6.9056085],
            [107.5805474, -6.9055523],
            [107.5805818, -6.905562],
            [107.5805329, -6.9057329],
            [107.5806331, -6.9057611],
            [107.5807145, -6.9054766],
            [107.5807593, -6.9054893],
            [107.5807643, -6.9054717],
            [107.5807805, -6.9054763],
            [107.580794, -6.9054293],
            [107.5807759, -6.9054242],
            [107.5807821, -6.9054025],
            [107.5807432, -6.9053915],
            [107.5808258, -6.9051027],
            [107.5807253, -6.9050744],
            [107.5806753, -6.9052493],
            [107.5806365, -6.9052383],
            [107.5806496, -6.9051929],
            [107.5805801, -6.9051733],
            [107.5805438, -6.9053004],
            [107.5806179, -6.9053213],
            [107.5806314, -6.9052742],
            [107.5806619, -6.9052828],
            [107.5806441, -6.905345],
            [107.5805212, -6.9053103],
            [107.5805949, -6.9050527],
            [107.5806226, -6.9049558]
          ]
        ]
      },
      "id": "way/636133833"
    },
    {
      "type": "Feature",
      "properties": {
        "@id": "way/636133871",
        "amenity": "university",
        "building": "yes",
        "name": "Gedung Fakultas Ilmu Komputer dan Informatika Univeritas Nurtanio Bandung"
      },
      "geometry": {
        "type": "Polygon",
        "coordinates": [
          [
            [107.5806019, -6.905886],
            [107.580097, -6.9057384],
            [107.5800673, -6.9058384],
            [107.5802613, -6.9058951],
            [107.5802412, -6.9059628],
            [107.580075, -6.9059142],
            [107.580054, -6.905985],
            [107.5801658, -6.9060177],
            [107.5801626, -6.9060283],
            [107.5802203, -6.9060451],
            [107.5802118, -6.9060737],
            [107.5800153, -6.9060163],
            [107.5799846, -6.9061197],
            [107.58049, -6.9062675],
            [107.5805205, -6.9061647],
            [107.5803241, -6.9061073],
            [107.5803489, -6.9060238],
            [107.5804205, -6.9060448],
            [107.5804145, -6.9060649],
            [107.5805338, -6.9060997],
            [107.5805539, -6.9060319],
            [107.5804358, -6.9059974],
            [107.580431, -6.9060134],
            [107.5803588, -6.9059922],
            [107.5803771, -6.9059305],
            [107.5805718, -6.9059874],
            [107.5806019, -6.905886]
          ]
        ]
      },
      "id": "way/636133871"
    },
    {
      "type": "Feature",
      "properties": {
        "@id": "way/636133872",
        "amenity": "university",
        "building": "yes"
      },
      "geometry": {
        "type": "Polygon",
        "coordinates": [
          [
            [107.5798335, -6.905745],
            [107.5797808, -6.9060471],
            [107.5799662, -6.9060989],
            [107.5799846, -6.9060296],
            [107.5798728, -6.9059962],
            [107.5799157, -6.9057646],
            [107.5798335, -6.905745]
          ]
        ]
      },
      "id": "way/636133872"
    },
    {
      "type": "Feature",
      "properties": {
        "@id": "way/636133884",
        "amenity": "university",
        "building": "yes",
        "name": "Gedung Rektorat Universitas Nurtanio Bandung"
      },
      "geometry": {
        "type": "Polygon",
        "coordinates": [
          [
            [107.5806418, -6.9060294],
            [107.5806592, -6.9059696],
            [107.5805954, -6.9059512],
            [107.5804992, -6.9062809],
            [107.5807716, -6.9063592],
            [107.5808672, -6.9060316],
            [107.5808022, -6.9060129],
            [107.580785, -6.9060721],
            [107.580734, -6.9060575],
            [107.5807546, -6.9059871],
            [107.5806986, -6.905971],
            [107.5806785, -6.90604],
            [107.5806418, -6.9060294]
          ]
        ]
      },
      "id": "way/636133884"
    },
    {
      "type": "Feature",
      "properties": {
        "@id": "way/636133887",
        "amenity": "university",
        "building": "yes",
        "name": "Gedung Fakultas Ekonomi Universitas Nurtanio Bandung"
      },
      "geometry": {
        "type": "Polygon",
        "coordinates": [
          [
            [107.5814175, -6.9061221],
            [107.58089, -6.9059707],
            [107.5808613, -6.9060694],
            [107.5810669, -6.9061284],
            [107.581045, -6.9062036],
            [107.5809899, -6.9061877],
            [107.5809985, -6.9061584],
            [107.5809319, -6.9061393],
            [107.580912, -6.9062077],
            [107.5809767, -6.9062262],
            [107.5809803, -6.9062138],
            [107.5810384, -6.9062305],
            [107.5810154, -6.9063095],
            [107.5808081, -6.90625],
            [107.5807803, -6.9063457],
            [107.5813108, -6.906498],
            [107.5813383, -6.9064034],
            [107.5811318, -6.906344],
            [107.581155, -6.9062644],
            [107.5812125, -6.9062809],
            [107.5812092, -6.9062923],
            [107.5812854, -6.9063142],
            [107.5812894, -6.9063003],
            [107.5813048, -6.9063047],
            [107.5813011, -6.9063176],
            [107.5813576, -6.9063338],
            [107.5813724, -6.9062827],
            [107.5813194, -6.9062675],
            [107.5813157, -6.9062805],
            [107.5812974, -6.9062753],
            [107.5813044, -6.9062512],
            [107.5812228, -6.9062278],
            [107.5812159, -6.9062517],
            [107.5811639, -6.9062367],
            [107.5811843, -6.9061666],
            [107.5813875, -6.906225],
            [107.5814175, -6.9061221]
          ]
        ]
      },
      "id": "way/636133887"
    },
    {
      "type": "Feature",
      "properties": {
        "@id": "way/639151866",
        "amenity": "university",
        "building": "university",
        "name": "STMIK STIE Dharma Negara",
        "source": "POI_WRI_Survey_2023",
        "wheelchair": "no"
      },
      "geometry": {
        "type": "Polygon",
        "coordinates": [
          [
            [107.6499312, -6.9223773],
            [107.6499344, -6.922359],
            [107.6498714, -6.9223482],
            [107.6498679, -6.9223684],
            [107.6498595, -6.922367],
            [107.6498406, -6.9224759],
            [107.649871, -6.9224811],
            [107.6498632, -6.9225262],
            [107.6499321, -6.922538],
            [107.6499591, -6.9223821],
            [107.6499312, -6.9223773]
          ]
        ]
      },
      "id": "way/639151866"
    },
    {
      "type": "Feature",
      "properties": {
        "@id": "way/640421864",
        "amenity": "university",
        "building": "yes",
        "name": "Universitas Sangga Buana YPKP Bandung"
      },
      "geometry": {
        "type": "Polygon",
        "coordinates": [
          [
            [107.6402313, -6.8997175],
            [107.6402269, -6.8997312],
            [107.6402131, -6.8997267],
            [107.6402047, -6.8997583],
            [107.6403124, -6.8997834],
            [107.6403186, -6.8997525],
            [107.6404194, -6.899777],
            [107.6404527, -6.8996326],
            [107.6404626, -6.8996351],
            [107.6404779, -6.8995784],
            [107.6404639, -6.8995744],
            [107.6404781, -6.8995035],
            [107.6403539, -6.899471],
            [107.6403562, -6.8994603],
            [107.6403056, -6.8994469],
            [107.6403022, -6.8994598],
            [107.6401724, -6.8994259],
            [107.6401541, -6.899496],
            [107.6401462, -6.8994935],
            [107.6401291, -6.8995579],
            [107.6401409, -6.8995604],
            [107.6401079, -6.8997003],
            [107.6402094, -6.8997262],
            [107.6402666, -6.8995747],
            [107.6403341, -6.8995893],
            [107.6403015, -6.8997349],
            [107.6402313, -6.8997175]
          ]
        ]
      },
      "id": "way/640421864"
    },
    {
      "type": "Feature",
      "properties": {
        "@id": "way/691079932",
        "addr:city": "Bandung",
        "addr:housenumber": "32",
        "addr:postcode": "40116",
        "addr:street": "Jalan Purnawarman",
        "amenity": "university",
        "building": "yes",
        "education": "university",
        "name": "Institut Francais Indonesia",
        "wikidata": "Q61929911"
      },
      "geometry": {
        "type": "Polygon",
        "coordinates": [
          [
            [107.6095657, -6.9079376],
            [107.6095676, -6.9079885],
            [107.6096457, -6.9079858],
            [107.6096442, -6.9079438],
            [107.609709, -6.9079416],
            [107.6097101, -6.9079723],
            [107.6097642, -6.9079704],
            [107.6097595, -6.9078374],
            [107.6098139, -6.9078354],
            [107.6098121, -6.9077834],
            [107.6096939, -6.9077876],
            [107.6096978, -6.9078976],
            [107.6096258, -6.9079001],
            [107.6096232, -6.9078274],
            [107.6095608, -6.9078296],
            [107.6095618, -6.9078561],
            [107.6095374, -6.907857],
            [107.6095404, -6.9079384],
            [107.6095657, -6.9079376]
          ]
        ]
      },
      "id": "way/691079932"
    },
    {
      "type": "Feature",
      "properties": {
        "@id": "way/699680449",
        "addr:city": "Bandung",
        "addr:district": "Sukasari",
        "addr:housenumber": "229",
        "addr:postcode": "40154",
        "addr:province": "Jawa Barat",
        "addr:street": "Setiabudi",
        "addr:subdistrict": "Isola",
        "amenity": "university",
        "internet_access": "yes",
        "internet_access:fee": "yes",
        "name": "Universitas Pendidikan Indonesia",
        "name:en": "Indonesia University of Education",
        "name:id": "UPI",
        "name:su": "UPI Bandung",
        "name:vi": "Đại học Giáo dục Indonesia",
        "operator": "Kementerian Pendidikan dan Kebudayaan Republik Indonesia",
        "website": "http://www.upi.edu/en",
        "wikidata": "Q3213529",
        "wikimedia_commons": "Category:Universitas Pendidikan Indonesia",
        "wikipedia": "en:Indonesia University of Education"
      },
      "geometry": {
        "type": "Polygon",
        "coordinates": [
          [
            [107.5890692, -6.8582468],
            [107.5890192, -6.8582821],
            [107.5889722, -6.8583237],
            [107.5888686, -6.8584401],
            [107.5887102, -6.8585886],
            [107.5885107, -6.858638],
            [107.5883713, -6.858666],
            [107.588218, -6.8587348],
            [107.5881448, -6.8588115],
            [107.5881084, -6.8588246],
            [107.588004, -6.8588351],
            [107.5879509, -6.8588474],
            [107.5878881, -6.8588668],
            [107.5878553, -6.8588931],
            [107.5878341, -6.8589309],
            [107.587835, -6.8589713],
            [107.5878323, -6.8590635],
            [107.5877916, -6.8590978],
            [107.5877315, -6.859161],
            [107.5876943, -6.8592076],
            [107.5876855, -6.859255],
            [107.5876863, -6.8593121],
            [107.5876987, -6.8593411],
            [107.5876961, -6.8593763],
            [107.5876678, -6.8593842],
            [107.5876527, -6.8594949],
            [107.5876279, -6.8595221],
            [107.5876058, -6.8595818],
            [107.5875713, -6.8596293],
            [107.5875554, -6.8597066],
            [107.5875457, -6.8597777],
            [107.5874837, -6.8597856],
            [107.587466, -6.8599069],
            [107.5874545, -6.8600281],
            [107.5874528, -6.8600448],
            [107.5878571, -6.8600764],
            [107.5879429, -6.8600562],
            [107.5880119, -6.8600615],
            [107.5880444, -6.8600627],
            [107.5880736, -6.860072],
            [107.588083, -6.8601821],
            [107.5881145, -6.8602957],
            [107.5881612, -6.860385],
            [107.5882207, -6.8605032],
            [107.5882476, -6.8605739],
            [107.5881997, -6.8606968],
            [107.5881799, -6.8607547],
            [107.588174, -6.860793],
            [107.5882079, -6.8608289],
            [107.5882709, -6.8608417],
            [107.5885593, -6.8608625],
            [107.5886013, -6.8608822],
            [107.5886191, -6.8609343],
            [107.5885134, -6.8613984],
            [107.5892879, -6.8616023],
            [107.5891944, -6.8619958],
            [107.5890907, -6.8624156],
            [107.5891395, -6.862456],
            [107.5893834, -6.8625367],
            [107.5895562, -6.8625791],
            [107.5895257, -6.8626699],
            [107.5899892, -6.8627304],
            [107.5901417, -6.862362],
            [107.5901603, -6.8623203],
            [107.5901927, -6.8622475],
            [107.5903134, -6.8623034],
            [107.5905923, -6.8623806],
            [107.5909544, -6.8624046],
            [107.5909947, -6.8622635],
            [107.591507, -6.8622688],
            [107.5920086, -6.8622901],
            [107.5920419, -6.8622935],
            [107.5920189, -6.8623632],
            [107.5920119, -6.8624425],
            [107.5919813, -6.8628069],
            [107.5919747, -6.8629168],
            [107.5919478, -6.8633742],
            [107.5919424, -6.86347],
            [107.5921775, -6.8634804],
            [107.5921802, -6.8636109],
            [107.5923606, -6.8636397],
            [107.5922768, -6.8639758],
            [107.5922059, -6.8643962],
            [107.5925305, -6.864458],
            [107.5926236, -6.8644766],
            [107.5927779, -6.8645096],
            [107.5929593, -6.864548],
            [107.593126, -6.8645819],
            [107.5931843, -6.8645947],
            [107.5940578, -6.8647737],
            [107.5941305, -6.8644693],
            [107.5941849, -6.8642341],
            [107.5942389, -6.8640541],
            [107.5942765, -6.8638801],
            [107.594364, -6.8636649],
            [107.5944383, -6.8634566],
            [107.594507, -6.8633883],
            [107.5946578, -6.8633491],
            [107.594828, -6.8633414],
            [107.5949142, -6.8633556],
            [107.5952421, -6.8632734],
            [107.5954698, -6.8632108],
            [107.5956222, -6.8631644],
            [107.5957604, -6.8630897],
            [107.5958844, -6.8629343],
            [107.5959414, -6.8628072],
            [107.5960267, -6.8626336],
            [107.5960938, -6.8625025],
            [107.5961446, -6.8624177],
            [107.5961568, -6.8623289],
            [107.5961263, -6.8622522],
            [107.5960511, -6.8621836],
            [107.5959576, -6.8621129],
            [107.5957706, -6.8619697],
            [107.5955551, -6.8618082],
            [107.5954047, -6.8617012],
            [107.5952177, -6.8615701],
            [107.5950835, -6.8614873],
            [107.5949087, -6.8613137],
            [107.5948193, -6.8612007],
            [107.5947502, -6.8611059],
            [107.5946851, -6.8609848],
            [107.5946526, -6.8608536],
            [107.5946386, -6.8607521],
            [107.5946262, -6.8606619],
            [107.5946343, -6.8605347],
            [107.5946526, -6.8603914],
            [107.5946831, -6.8602603],
            [107.5946953, -6.8601856],
            [107.5947116, -6.8600827],
            [107.5947177, -6.8599373],
            [107.594738, -6.8598001],
            [107.5947522, -6.8596387],
            [107.5947624, -6.8595398],
            [107.5947664, -6.8595055],
            [107.5946323, -6.8594954],
            [107.5942318, -6.8594409],
            [107.5942461, -6.8593783],
            [107.5942522, -6.859344],
            [107.5938578, -6.859233],
            [107.5932419, -6.8590231],
            [107.5931423, -6.8591906],
            [107.5930874, -6.8593117],
            [107.5927317, -6.8592572],
            [107.5925833, -6.8592249],
            [107.5925914, -6.8591321],
            [107.5925406, -6.8591099],
            [107.5923292, -6.8590453],
            [107.5922662, -6.8590211],
            [107.5922377, -6.8589989],
            [107.5923251, -6.858787],
            [107.5923283, -6.858759],
            [107.592175, -6.8587252],
            [107.5920929, -6.8587137],
            [107.5920365, -6.8587285],
            [107.5919571, -6.8587415],
            [107.5918253, -6.8586976],
            [107.5914531, -6.8586033],
            [107.5912803, -6.858563],
            [107.5912254, -6.8585872],
            [107.5911868, -6.8586679],
            [107.5910679, -6.8586702],
            [107.5909175, -6.8586339],
            [107.5908362, -6.8586299],
            [107.5907102, -6.8585936],
            [107.5906167, -6.8584926],
            [107.5904256, -6.8584079],
            [107.5902304, -6.8582949],
            [107.5902419, -6.8581853],
            [107.5902778, -6.8580268],
            [107.5901735, -6.857976],
            [107.5902318, -6.8577136],
            [107.5899686, -6.8575754],
            [107.5897785, -6.8574854],
            [107.5896327, -6.8574776],
            [107.5895719, -6.8574847],
            [107.5895315, -6.8575251],
            [107.5894576, -6.8576706],
            [107.5893214, -6.8577973],
            [107.5892114, -6.857934],
            [107.5891242, -6.8581132],
            [107.5890692, -6.8582468]
          ]
        ]
      },
      "id": "way/699680449"
    },
    {
      "type": "Feature",
      "properties": {
        "@id": "way/721497808",
        "amenity": "university",
        "name": "Universitas Islam Nusantara",
        "school:gender": "mixed",
        "short_name": "Uninus"
      },
      "geometry": {
        "type": "Polygon",
        "coordinates": [
          [
            [107.6451889, -6.9445452],
            [107.6438263, -6.9449914],
            [107.6437449, -6.9458135],
            [107.6439219, -6.9458451],
            [107.6438794, -6.9461824],
            [107.645104, -6.9463861],
            [107.6451288, -6.9461964],
            [107.6450969, -6.9460664],
            [107.6451394, -6.9458732],
            [107.6451748, -6.9456132],
            [107.6451712, -6.9451706],
            [107.6451996, -6.9449809],
            [107.6452137, -6.944749],
            [107.6451889, -6.9445452]
          ]
        ]
      },
      "id": "way/721497808"
    },
    {
      "type": "Feature",
      "properties": {
        "@id": "way/722711330",
        "addr:city": "Bandung",
        "addr:housenumber": "116",
        "addr:street": "Jalan Karapitan",
        "amenity": "university",
        "name": "Universitas Langlangbuana",
        "wikidata": "Q19744804"
      },
      "geometry": {
        "type": "Polygon",
        "coordinates": [
          [
            [107.6150535, -6.9307404],
            [107.6149786, -6.9309756],
            [107.6148584, -6.9314057],
            [107.6149935, -6.9317505],
            [107.6152448, -6.9318524],
            [107.6153103, -6.9318789],
            [107.615482, -6.9316979],
            [107.6155866, -6.9315381],
            [107.6156644, -6.9313544],
            [107.6158119, -6.9308592],
            [107.6155999, -6.9307979],
            [107.6155757, -6.9308857],
            [107.6154613, -6.9308576],
            [107.6150872, -6.9307501],
            [107.6150535, -6.9307404]
          ]
        ]
      },
      "id": "way/722711330"
    },
    {
      "type": "Feature",
      "properties": {
        "@id": "way/733432542",
        "addr:city": "Bandung, Jawa Barat",
        "addr:postcode": "40191",
        "addr:province": "Jawa Barat",
        "addr:street": "Jalan Sentra Dago Pakar Raya",
        "amenity": "university",
        "name": "BINUS Bandung - Dago Campus"
      },
      "geometry": {
        "type": "Polygon",
        "coordinates": [
          [
            [107.6340615, -6.8699042],
            [107.6334871, -6.8704902],
            [107.6329869, -6.8708597],
            [107.6333624, -6.8712725],
            [107.6338652, -6.8709067],
            [107.6341858, -6.8712459],
            [107.6348085, -6.8707122],
            [107.6340615, -6.8699042]
          ]
        ]
      },
      "id": "way/733432542"
    },
    {
      "type": "Feature",
      "properties": {
        "@id": "way/780065340",
        "amenity": "university",
        "building": "yes",
        "name": "Asrama/ Mess Mahasiswa Universitas Nurtanio Bandung"
      },
      "geometry": {
        "type": "Polygon",
        "coordinates": [
          [
            [107.5817701, -6.9061698],
            [107.5817567, -6.906215],
            [107.5817111, -6.9061991],
            [107.5816494, -6.9064227],
            [107.5819364, -6.9064973],
            [107.5820035, -6.9062417],
            [107.5817701, -6.9061698]
          ]
        ]
      },
      "id": "way/780065340"
    },
    {
      "type": "Feature",
      "properties": {
        "@id": "way/857949385",
        "amenity": "university",
        "building": "yes",
        "name": "Stikom Bandung"
      },
      "geometry": {
        "type": "Polygon",
        "coordinates": [
          [
            [107.6467322, -6.8903964],
            [107.6466407, -6.8904879],
            [107.6466504, -6.8904976],
            [107.6466095, -6.8905368],
            [107.6467329, -6.8906287],
            [107.6468465, -6.8904979],
            [107.6467322, -6.8903964]
          ]
        ]
      },
      "id": "way/857949385"
    },
    {
      "type": "Feature",
      "properties": {
        "@id": "way/932342036",
        "addr:city": "Bandung",
        "addr:housenumber": "59",
        "addr:street": "Jl. PH.H. Mustofa , Neglasari, Cibeunying Kaler",
        "amenity": "university",
        "name": "Universitas Widyatama Pascasarjana"
      },
      "geometry": {
        "type": "Polygon",
        "coordinates": [
          [
            [107.642085, -6.8995734],
            [107.6424873, -6.8996506],
            [107.6426809, -6.8997],
            [107.6430024, -6.899778],
            [107.6434046, -6.8998464],
            [107.6434375, -6.8991873],
            [107.6430385, -6.8991194],
            [107.6430378, -6.8990935],
            [107.6427173, -6.8990635],
            [107.6427099, -6.8991128],
            [107.642671, -6.8991088],
            [107.6422606, -6.8991054],
            [107.6420917, -6.8991088],
            [107.642085, -6.8995734]
          ]
        ]
      },
      "id": "way/932342036"
    },
    {
      "type": "Feature",
      "properties": {
        "@id": "way/933791756",
        "addr:city": "Bandung",
        "addr:housenumber": "69",
        "addr:street": "Jl. Pahlawan , Sukaluyu, Cibeunying Kaler",
        "amenity": "university",
        "name": "Universitas Winaya Mukti"
      },
      "geometry": {
        "type": "Polygon",
        "coordinates": [
          [
            [107.6340284, -6.8955795],
            [107.6339844, -6.8957531],
            [107.6340045, -6.8957582],
            [107.6343251, -6.8958383],
            [107.6345102, -6.8958845],
            [107.6345543, -6.8957109],
            [107.6343682, -6.8956644],
            [107.6340476, -6.8955843],
            [107.6340284, -6.8955795]
          ]
        ]
      },
      "id": "way/933791756"
    },
    {
      "type": "Feature",
      "properties": {
        "@id": "way/1017773394",
        "addr:city": "Bandung",
        "addr:full": "Jl Tamansari No 6-8",
        "amenity": "university",
        "name": "Universitas Pasundan",
        "operator:type": "private",
        "source": "S2City_POI_2022",
        "wheelchair": "no"
      },
      "geometry": {
        "type": "Polygon",
        "coordinates": [
          [
            [107.6079861, -6.9056126],
            [107.6081818, -6.9057324],
            [107.608389, -6.9053669],
            [107.6084507, -6.9052212],
            [107.6084185, -6.9052045],
            [107.6084608, -6.9051093],
            [107.6085848, -6.9050834],
            [107.6088028, -6.9051126],
            [107.6088645, -6.904658],
            [107.6082623, -6.9044942],
            [107.6081952, -6.9048244],
            [107.6081053, -6.9051826],
            [107.6080745, -6.9052837],
            [107.6080933, -6.9053663],
            [107.6079861, -6.9056126]
          ]
        ]
      },
      "id": "way/1017773394"
    },
    {
      "type": "Feature",
      "properties": {
        "@id": "way/1062314175",
        "addr:city": "Bandung",
        "addr:full": "Jalan Ir. H. Djuanda No. 438",
        "amenity": "university",
        "name": "PUSAT INOVASI PSIKOLOGI UNPAD",
        "operator:type": "government",
        "source": "S2City_POI_2022",
        "wheelchair": "limited"
      },
      "geometry": {
        "type": "Polygon",
        "coordinates": [
          [
            [107.6204731, -6.869742],
            [107.6207191, -6.8698259],
            [107.6206729, -6.869945],
            [107.6206259, -6.8700549],
            [107.6209921, -6.8701807],
            [107.6210672, -6.8701421],
            [107.6212147, -6.8698119],
            [107.6213314, -6.8694207],
            [107.6210802, -6.8693255],
            [107.6206615, -6.8691917],
            [107.6204731, -6.869742]
          ]
        ]
      },
      "id": "way/1062314175"
    },
    {
      "type": "Feature",
      "properties": {
        "@id": "way/1062314176",
        "addr:city": "Bandung",
        "addr:full": "Jalan Bukit Dago Utara No.25, Dago, Kecamatan Coblong, Kota Bandung, Jawa Barat 40135",
        "amenity": "university",
        "name": "FISIP UNPAD PASCARASARJANA",
        "operator:type": "government",
        "source": "S2City_POI_2022",
        "wheelchair": "yes"
      },
      "geometry": {
        "type": "Polygon",
        "coordinates": [
          [
            [107.618275, -6.8684271],
            [107.6178616, -6.8686252],
            [107.617648, -6.868766],
            [107.6175989, -6.8687911],
            [107.617589, -6.8688206],
            [107.6175528, -6.8689171],
            [107.6175186, -6.8691954],
            [107.6175065, -6.8693871],
            [107.6178431, -6.869487],
            [107.617872, -6.8695076],
            [107.6178921, -6.8695516],
            [107.617902, -6.8695735],
            [107.6179107, -6.8695825],
            [107.6180715, -6.8696508],
            [107.6181965, -6.8694231],
            [107.6183367, -6.8692779],
            [107.6185419, -6.8690543],
            [107.618853, -6.8688372],
            [107.6188651, -6.8688026],
            [107.6187859, -6.8686894],
            [107.6189254, -6.8685097],
            [107.6189294, -6.8684032],
            [107.6187363, -6.8683186],
            [107.6186575, -6.8683066],
            [107.6186069, -6.868303],
            [107.6185677, -6.8683083],
            [107.618275, -6.8684271]
          ]
        ]
      },
      "id": "way/1062314176"
    },
    {
      "type": "Feature",
      "properties": {
        "@id": "way/1062314177",
        "addr:city": "Bandung",
        "addr:full": "Jalan Kanayakan No.21, Dago, Kecamatan Coblong, Kota Bandung, Jawa Barat 40135",
        "amenity": "university",
        "name": "Politeknik Manufakturing Bandung (POLMAN)",
        "operator:type": "government",
        "source": "S2City_POI_2022",
        "wheelchair": "limited"
      },
      "geometry": {
        "type": "Polygon",
        "coordinates": [
          [
            [107.61983, -6.8773979],
            [107.6198427, -6.877561],
            [107.6198709, -6.8775876],
            [107.6202384, -6.8775943],
            [107.6208901, -6.8775903],
            [107.6214588, -6.8776209],
            [107.6214346, -6.8772428],
            [107.6214266, -6.8769765],
            [107.6213904, -6.8769698],
            [107.6213005, -6.8769712],
            [107.6213059, -6.8763374],
            [107.6210913, -6.8763241],
            [107.6208586, -6.8763673],
            [107.6206655, -6.8764026],
            [107.6204228, -6.8764093],
            [107.6204001, -6.8764015],
            [107.6203825, -6.8763758],
            [107.6202949, -6.8763983],
            [107.6202568, -6.8763896],
            [107.620235, -6.8763995],
            [107.6202323, -6.87641],
            [107.6202404, -6.8766017],
            [107.6203148, -6.8767075],
            [107.6203343, -6.8768607],
            [107.6203229, -6.8769758],
            [107.6201612, -6.8769772],
            [107.6201669, -6.8771096],
            [107.6201656, -6.8771732],
            [107.6200556, -6.8771762],
            [107.6199245, -6.8771715],
            [107.619888, -6.8771799],
            [107.6198344, -6.8772138],
            [107.6198333, -6.8772368],
            [107.61983, -6.8773979]
          ]
        ]
      },
      "id": "way/1062314177"
    },
    {
      "type": "Feature",
      "properties": {
        "@id": "way/1062365223",
        "addr:city": "Bandung",
        "addr:full": "Jalan Dipatiukur No.35, Lebakgede, Kecamatan Coblong, Kota Bandung, Jawa Barat 40132",
        "amenity": "university",
        "name": "Universitas Padjajaran",
        "operator:type": "government",
        "source": "S2City_POI_2022",
        "wheelchair": "yes"
      },
      "geometry": {
        "type": "Polygon",
        "coordinates": [
          [
            [107.6164746, -6.8922267],
            [107.6164471, -6.8923113],
            [107.6164155, -6.8942661],
            [107.6164169, -6.8946772],
            [107.6165483, -6.8948157],
            [107.6170224, -6.8947617],
            [107.6171686, -6.8947285],
            [107.6173255, -6.8946699],
            [107.6174381, -6.894598],
            [107.6178539, -6.8939083],
            [107.6178163, -6.8924877],
            [107.6170375, -6.8922241],
            [107.6165637, -6.8920403],
            [107.6164746, -6.8922267]
          ]
        ]
      },
      "id": "way/1062365223"
    },
    {
      "type": "Feature",
      "properties": {
        "@id": "way/1062365225",
        "addr:city": "Bandung",
        "addr:full": "Jalan Ir. H. Djuanda No.162",
        "amenity": "university",
        "building": "university",
        "building:condition": "good",
        "building:levels": "2",
        "name": "Unikom Pascasarjana",
        "operator:type": "private",
        "source": "S2City_POI_2022",
        "wheelchair": "yes"
      },
      "geometry": {
        "type": "Polygon",
        "coordinates": [
          [
            [107.6138451, -6.8861088],
            [107.6138709, -6.8861101],
            [107.6138689, -6.8861471],
            [107.6140279, -6.8861555],
            [107.6140331, -6.8860592],
            [107.6141334, -6.8860645],
            [107.6141326, -6.8860792],
            [107.6141318, -6.8860942],
            [107.6141005, -6.8860926],
            [107.6140935, -6.8862227],
            [107.6142219, -6.8862295],
            [107.6142292, -6.8860943],
            [107.6141695, -6.8860911],
            [107.6141701, -6.8860793],
            [107.6141712, -6.8860586],
            [107.6142084, -6.8860606],
            [107.6142125, -6.8859837],
            [107.6138528, -6.8859647],
            [107.6138451, -6.8861088]
          ]
        ]
      },
      "id": "way/1062365225"
    },
    {
      "type": "Feature",
      "properties": {
        "@id": "way/1162175608",
        "amenity": "university",
        "building": "university",
        "name": "UNJANI Fakultas Teknologi Manufaktur",
        "source": "POI_WRI_Survey_2023",
        "wheelchair": "no"
      },
      "geometry": {
        "type": "Polygon",
        "coordinates": [
          [
            [107.6460747, -6.9345838],
            [107.6460506, -6.9346883],
            [107.6461398, -6.9347086],
            [107.6461639, -6.9346041],
            [107.6460747, -6.9345838]
          ]
        ]
      },
      "id": "way/1162175608"
    },
    {
      "type": "Feature",
      "properties": {
        "@id": "way/1162722629",
        "amenity": "university",
        "building": "university",
        "name": "Universitas Informatika Dan Bisnis Indonesia (UNIBI)",
        "source": "POI_WRI_Survey_2023",
        "wheelchair": "no"
      },
      "geometry": {
        "type": "Polygon",
        "coordinates": [
          [
            [107.6502161, -6.9419324],
            [107.6502083, -6.9421164],
            [107.6500439, -6.9421095],
            [107.6500356, -6.9423063],
            [107.6503631, -6.94232],
            [107.6503792, -6.9419392],
            [107.6502161, -6.9419324]
          ]
        ]
      },
      "id": "way/1162722629"
    },
    {
      "type": "Feature",
      "properties": {
        "@id": "way/1162722720",
        "amenity": "university",
        "building": "university",
        "name": "Akademi Keperawatan Kebon Jati",
        "source": "POI_WRI_Survey_2023",
        "wheelchair": "no"
      },
      "geometry": {
        "type": "Polygon",
        "coordinates": [
          [
            [107.6565233, -6.9355343],
            [107.6564991, -6.9357872],
            [107.6566639, -6.9358027],
            [107.6566758, -6.9356779],
            [107.6568563, -6.9356949],
            [107.6568514, -6.9357463],
            [107.6569698, -6.9357575],
            [107.656987, -6.9355779],
            [107.6565233, -6.9355343]
          ]
        ]
      },
      "id": "way/1162722720"
    },
    {
      "type": "Feature",
      "properties": {
        "@id": "way/1302658821",
        "amenity": "university",
        "name": "Institut Teknologi Nasional Itenas Bandung",
        "website": "https://www.itenas.ac.id/",
        "wikidata": "Q12486661",
        "wikipedia": "id:Institut Teknologi Nasional Bandung"
      },
      "geometry": {
        "type": "Polygon",
        "coordinates": [
          [
            [107.6357974, -6.8980927],
            [107.6358691, -6.8981121],
            [107.6363455, -6.8982406],
            [107.636371, -6.8981426],
            [107.6364965, -6.8976611],
            [107.6366292, -6.897698],
            [107.6370957, -6.8978334],
            [107.636956, -6.8983808],
            [107.6373213, -6.8984739],
            [107.6374797, -6.8978017],
            [107.637801, -6.8964782],
            [107.6375016, -6.8963999],
            [107.6354177, -6.8958613],
            [107.6353597, -6.8958549],
            [107.6353798, -6.8960432],
            [107.6351113, -6.8960978],
            [107.6352499, -6.896583],
            [107.6354859, -6.8965094],
            [107.6355202, -6.8965247],
            [107.6355772, -6.8966465],
            [107.6355682, -6.896745],
            [107.6354417, -6.8971728],
            [107.6353658, -6.8971527],
            [107.6352989, -6.897393],
            [107.6355364, -6.8974632],
            [107.6354322, -6.8977262],
            [107.6354218, -6.8977548],
            [107.6354144, -6.8977736],
            [107.6353988, -6.8978133],
            [107.6353899, -6.8978358],
            [107.6353832, -6.8978529],
            [107.6353626, -6.8979055],
            [107.6353393, -6.8979647],
            [107.6353875, -6.8979782],
            [107.6354272, -6.8979893],
            [107.6354583, -6.897998],
            [107.6357788, -6.8980875],
            [107.6357974, -6.8980927]
          ]
        ]
      },
      "id": "way/1302658821"
    },
    {
      "type": "Feature",
      "properties": {
        "@id": "way/1319226823",
        "amenity": "university",
        "name": "Lapangan Sarana Olahraga"
      },
      "geometry": {
        "type": "Polygon",
        "coordinates": [
          [
            [107.5716029, -6.8707492],
            [107.5715972, -6.8709462],
            [107.5715887, -6.8710898],
            [107.5721302, -6.871101],
            [107.5721359, -6.8707802],
            [107.5716029, -6.8707492]
          ]
        ]
      },
      "id": "way/1319226823"
    },
    {
      "type": "Feature",
      "properties": {
        "@id": "way/1319226827",
        "amenity": "university",
        "name": "Taman Polban"
      },
      "geometry": {
        "type": "Polygon",
        "coordinates": [
          [
            [107.5731128, -6.8720597],
            [107.5731162, -6.8723123],
            [107.5734142, -6.8723156],
            [107.5733941, -6.8720364],
            [107.5731128, -6.8720597]
          ]
        ]
      },
      "id": "way/1319226827"
    },
    {
      "type": "Feature",
      "properties": {
        "@id": "way/1370426938",
        "amenity": "university",
        "name": "Universitas Inaba bandung"
      },
      "geometry": {
        "type": "Polygon",
        "coordinates": [
          [
            [107.6224593, -6.9495393],
            [107.6225148, -6.9504263],
            [107.623054, -6.9504125],
            [107.6230201, -6.9495868],
            [107.6224593, -6.9495393]
          ]
        ]
      },
      "id": "way/1370426938"
    },
    {
      "type": "Feature",
      "properties": {
        "@id": "way/1409308344",
        "amenity": "university"
      },
      "geometry": {
        "type": "Polygon",
        "coordinates": [
          [
            [107.6272569, -6.9435606],
            [107.6285846, -6.9438988],
            [107.6286517, -6.9433077],
            [107.6275841, -6.9421814],
            [107.6272569, -6.9435606]
          ]
        ]
      },
      "id": "way/1409308344"
    },
    {
      "type": "Feature",
      "properties": {
        "@id": "way/1414614334",
        "amenity": "university",
        "name": "Fakultas Hukum Universitas Padjadjaran",
        "wikidata": "Q3181122",
        "wikipedia": "en:Padjadjaran University"
      },
      "geometry": {
        "type": "Polygon",
        "coordinates": [
          [
            [107.6167722, -6.9045912],
            [107.6171861, -6.9045972],
            [107.6171837, -6.9042517],
            [107.61739, -6.9042441],
            [107.6174254, -6.904059],
            [107.6175178, -6.9038908],
            [107.617544, -6.9038158],
            [107.6172529, -6.9036094],
            [107.6170203, -6.9039214],
            [107.6168724, -6.9041966],
            [107.6168046, -6.9044062],
            [107.6167722, -6.9045912]
          ]
        ]
      },
      "id": "way/1414614334"
    },
    {
      "type": "Feature",
      "properties": {
        "@id": "way/1465245242",
        "amenity": "university",
        "education": "university",
        "name": "Universitas Aisyiyah"
      },
      "geometry": {
        "type": "Polygon",
        "coordinates": [
          [
            [107.623231, -6.9281089],
            [107.6231223, -6.9285282],
            [107.623412, -6.9286174],
            [107.6235488, -6.9281967],
            [107.623231, -6.9281089]
          ]
        ]
      },
      "id": "way/1465245242"
    },
    {
      "type": "Feature",
      "properties": {
        "@id": "node/32042131",
        "amenity": "university",
        "created_by": "JOSM",
        "name": "Ariyanti"
      },
      "geometry": {
        "type": "Point",
        "coordinates": [107.5973817, -6.9050969]
      },
      "id": "node/32042131"
    },
    {
      "type": "Feature",
      "properties": {
        "@id": "node/1342970055",
        "amenity": "university",
        "name": "Universitas Katolik Parahyangan"
      },
      "geometry": {
        "type": "Point",
        "coordinates": [107.6108713, -6.9116663]
      },
      "id": "node/1342970055"
    },
    {
      "type": "Feature",
      "properties": {
        "@id": "node/4315331597",
        "addr:city": "Bandung",
        "addr:housenumber": "No. 23",
        "addr:street": "Jalan PH.H. Mustofa, Cikutra, Cibeunying Kidul, Neglasari, Cibeunying Kaler,",
        "amenity": "university",
        "name": "Institut Teknologi Nasional"
      },
      "geometry": {
        "type": "Point",
        "coordinates": [107.6396155, -6.898599]
      },
      "id": "node/4315331597"
    },
    {
      "type": "Feature",
      "properties": {
        "@id": "node/4315338668",
        "addr:city": "Bandung",
        "addr:housenumber": "No. 37",
        "addr:street": "Jl Terusan Halimun Burangrang Bandung",
        "amenity": "university",
        "name": "Institut Teknologi Adityawarman"
      },
      "geometry": {
        "type": "Point",
        "coordinates": [107.6266338, -6.9268784]
      },
      "id": "node/4315338668"
    },
    {
      "type": "Feature",
      "properties": {
        "@id": "node/4326873603",
        "addr:city": "Bandung, Jawa Barat",
        "addr:housenumber": "15",
        "addr:street": "Jl. Cikapayang , Tamansari, Bandung Wetan",
        "amenity": "university",
        "name": "Kantor Satuan Penjaminan Mutu & Pengawas Internal Itb"
      },
      "geometry": {
        "type": "Point",
        "coordinates": [107.6107894, -6.8987637]
      },
      "id": "node/4326873603"
    },
    {
      "type": "Feature",
      "properties": {
        "@id": "node/4329452898",
        "addr:city": "Bandung",
        "addr:housenumber": "59",
        "addr:street": "Jl. Pahlawan , Sukaluyu, Cibeunying Kaler",
        "amenity": "university",
        "name": "Politeknik LP3I Bandung"
      },
      "geometry": {
        "type": "Point",
        "coordinates": [107.6342973, -6.8965816]
      },
      "id": "node/4329452898"
    },
    {
      "type": "Feature",
      "properties": {
        "@id": "node/4329467501",
        "addr:city": "Bandung",
        "addr:housenumber": "83",
        "addr:street": "Jl. Pahlawan , Sukaluyu, Cibeunying Kaler",
        "amenity": "university",
        "name": "Politeknik Agp"
      },
      "geometry": {
        "type": "Point",
        "coordinates": [107.6346164, -6.8947444]
      },
      "id": "node/4329467501"
    },
    {
      "type": "Feature",
      "properties": {
        "@id": "node/4329574162",
        "addr:city": "Bandung",
        "addr:housenumber": "171",
        "addr:street": "Jl. Cikutra , Neglasari, Cibeunying Kaler",
        "amenity": "university",
        "name": "Universitas Bandung Raya Fakusltas Pertanian"
      },
      "geometry": {
        "type": "Point",
        "coordinates": [107.6435144, -6.8962936]
      },
      "id": "node/4329574162"
    },
    {
      "type": "Feature",
      "properties": {
        "@id": "node/4329639329",
        "addr:city": "Bandung",
        "addr:housenumber": "8",
        "addr:street": "Jl Cihampelas Pasir Kaliki Bandung",
        "amenity": "university",
        "name": "Sekolah Tinggi Hukum Bandung"
      },
      "geometry": {
        "type": "Point",
        "coordinates": [107.6045553, -6.9065089]
      },
      "id": "node/4329639329"
    },
    {
      "type": "Feature",
      "properties": {
        "@id": "node/4370460566",
        "amenity": "university",
        "building": "school",
        "name": "Universitas Nurtanio Bandung",
        "name:en": "Unnur"
      },
      "geometry": {
        "type": "Point",
        "coordinates": [107.5814027, -6.9055946]
      },
      "id": "node/4370460566"
    },
    {
      "type": "Feature",
      "properties": {
        "@id": "node/4370519683",
        "amenity": "university",
        "name": "STIE Ekuitas",
        "name:en": "Stie Ekuitas"
      },
      "geometry": {
        "type": "Point",
        "coordinates": [107.637906, -6.8983266]
      },
      "id": "node/4370519683"
    },
    {
      "type": "Feature",
      "properties": {
        "@id": "node/9803314549",
        "amenity": "university",
        "name": "Universitas Widyatama"
      },
      "geometry": {
        "type": "Point",
        "coordinates": [107.6448221, -6.8979318]
      },
      "id": "node/9803314549"
    },
    {
      "type": "Feature",
      "properties": {
        "@id": "node/9808548007",
        "amenity": "university",
        "name": "Politeknik Pajajaran Direktorat Ruko Surapati Core"
      },
      "geometry": {
        "type": "Point",
        "coordinates": [107.6523622, -6.9010231]
      },
      "id": "node/9808548007"
    },
    {
      "type": "Feature",
      "properties": {
        "@id": "node/12128022518",
        "amenity": "university",
        "name": "Pascasarjana ISBI",
        "operator": "ISBI",
        "operator:type": "government"
      },
      "geometry": {
        "type": "Point",
        "coordinates": [107.6275856, -6.9429091]
      },
      "id": "node/12128022518"
    },
    {
      "type": "Feature",
      "properties": {
        "@id": "node/12128022520",
        "amenity": "university",
        "name": "Program Studi Televisi Dan Film ISBI",
        "operator": "ISBI"
      },
      "geometry": {
        "type": "Point",
        "coordinates": [107.6275522, -6.9430887]
      },
      "id": "node/12128022520"
    },
    {
      "type": "Feature",
      "properties": {
        "@id": "node/12128022521",
        "amenity": "university",
        "name": "Fakultas Budaya Dan Media ISBI",
        "operator": "ISBI"
      },
      "geometry": {
        "type": "Point",
        "coordinates": [107.6273601, -6.9433139]
      },
      "id": "node/12128022521"
    }
  ]
}
