{
  "type": "FeatureCollection",
  "generator": "overpass-turbo",
  "copyright": "The data included in this document is from www.openstreetmap.org. The data is made available under ODbL.",
  "timestamp": "2026-08-16T00:18:07Z",
  "features": [
    {
      "type": "Feature",
      "properties": {
        "@id": "way/100262052",
        "addr:city": "Bandung",
        "addr:full": "Jalan Pasteur Nomor 38",
        "addr:housenumber": "38",
        "addr:postcode": "40161",
        "addr:street": "Jl. Pasteur",
        "amenity": "hospital",
        "contact:phone": "+62 22 2034953; +62 22 2034955",
        "description": "RSUD Hasan Sadikin merupakan salah satu Rumah Sakit Rujukan COVID-19 yang ada di Kota Bandung",
        "health_amenity:type": "dialysis;emergency_department;imaging_equipment;intensive_care_unit;laboratory;mri;operating_theater;ultrasound;x_ray",
        "healthcare": "hospital",
        "healthcare:speciality": "abortion;allergology;anatomy;applied_kinesiology;ayurveda;biological_haematology;endocrinology;fertility;gastroenterological_surgery;general",
        "insurance:health": "private;public",
        "name": "RSUD Hasan Sadikin",
        "old_name": "Juliana Ziekenhuis",
        "opening_hours": "24/7",
        "operator:type": "government",
        "url": "http://web.rshs.or.id/",
        "wheelchair": "yes"
      },
      "geometry": {
        "type": "Polygon",
        "coordinates": [
          [
            [
              107.5982442,
              -6.8959986
            ],
            [
              107.5980881,
              -6.8961529
            ],
            [
              107.5979722,
              -6.8962679
            ],
            [
              107.5977629,
              -6.8964657
            ],
            [
              107.5976307,
              -6.8965928
            ],
            [
              107.5974885,
              -6.8967724
            ],
            [
              107.5974437,
              -6.8968572
            ],
            [
              107.5974007,
              -6.8969725
            ],
            [
              107.5974112,
              -6.8972991
            ],
            [
              107.5974397,
              -6.8982597
            ],
            [
              107.5974563,
              -6.8986282
            ],
            [
              107.5974585,
              -6.8986493
            ],
            [
              107.5974605,
              -6.8986614
            ],
            [
              107.5975382,
              -6.8990102
            ],
            [
              107.5975804,
              -6.8995821
            ],
            [
              107.5975887,
              -6.8996604
            ],
            [
              107.5975936,
              -6.8996946
            ],
            [
              107.5976441,
              -6.8999156
            ],
            [
              107.5977165,
              -6.8999835
            ],
            [
              107.5978319,
              -6.9000414
            ],
            [
              107.5979445,
              -6.900074
            ],
            [
              107.5981799,
              -6.9000807
            ],
            [
              107.598558,
              -6.9000909
            ],
            [
              107.5988545,
              -6.9000933
            ],
            [
              107.5989718,
              -6.9000947
            ],
            [
              107.5992883,
              -6.900088
            ],
            [
              107.5993238,
              -6.8977081
            ],
            [
              107.5993426,
              -6.8971596
            ],
            [
              107.5993654,
              -6.8964912
            ],
            [
              107.5993694,
              -6.8963474
            ],
            [
              107.5993654,
              -6.8962276
            ],
            [
              107.5992139,
              -6.8961957
            ],
            [
              107.5988665,
              -6.8961184
            ],
            [
              107.5987325,
              -6.8960863
            ],
            [
              107.5982442,
              -6.8959986
            ]
          ]
        ]
      },
      "id": "way/100262052"
    },
    {
      "type": "Feature",
      "properties": {
        "@id": "way/119419634",
        "amenity": "hospital",
        "building": "yes",
        "building:levels": "3",
        "building:roof": "tile",
        "building:structure": "confined_masonry",
        "building:use": "medical",
        "building:walls": "brick",
        "healthcare": "hospital",
        "name": "RSGM Unpad"
      },
      "geometry": {
        "type": "Polygon",
        "coordinates": [
          [
            [
              107.6190699,
              -6.890675
            ],
            [
              107.6192629,
              -6.8906689
            ],
            [
              107.6194095,
              -6.8906643
            ],
            [
              107.6195035,
              -6.8906614
            ],
            [
              107.6195683,
              -6.8906593
            ],
            [
              107.6196274,
              -6.8906575
            ],
            [
              107.619625,
              -6.8905796
            ],
            [
              107.6196225,
              -6.8905028
            ],
            [
              107.6196197,
              -6.890415
            ],
            [
              107.6196171,
              -6.890332
            ],
            [
              107.619491,
              -6.890336
            ],
            [
              107.6194509,
              -6.8903372
            ],
            [
              107.6192479,
              -6.8903436
            ],
            [
              107.6190596,
              -6.8903495
            ],
            [
              107.6190699,
              -6.890675
            ]
          ]
        ]
      },
      "id": "way/119419634"
    },
    {
      "type": "Feature",
      "properties": {
        "@id": "way/120340028",
        "addr:city": "Bandung",
        "addr:housenumber": "161",
        "addr:postcode": "40131",
        "addr:street": "Jalan Cihampelas",
        "amenity": "hospital",
        "emergency": "yes",
        "name": "Rumah Sakit Advent",
        "operator:type": "private"
      },
      "geometry": {
        "type": "Polygon",
        "coordinates": [
          [
            [
              107.6026994,
              -6.8916476
            ],
            [
              107.6026967,
              -6.891814
            ],
            [
              107.6026846,
              -6.8922507
            ],
            [
              107.6033941,
              -6.8922747
            ],
            [
              107.6033847,
              -6.8924371
            ],
            [
              107.6035765,
              -6.8924624
            ],
            [
              107.6035081,
              -6.8928312
            ],
            [
              107.6034947,
              -6.8929284
            ],
            [
              107.603488,
              -6.8931441
            ],
            [
              107.6037776,
              -6.8931574
            ],
            [
              107.6041069,
              -6.893198
            ],
            [
              107.6041639,
              -6.8925464
            ],
            [
              107.6041719,
              -6.8918486
            ],
            [
              107.6041478,
              -6.8917874
            ],
            [
              107.6041009,
              -6.8917301
            ],
            [
              107.604019,
              -6.8916849
            ],
            [
              107.6039346,
              -6.8916629
            ],
            [
              107.6038983,
              -6.8916569
            ],
            [
              107.6026981,
              -6.8915863
            ],
            [
              107.6026994,
              -6.8916476
            ]
          ]
        ]
      },
      "id": "way/120340028"
    },
    {
      "type": "Feature",
      "properties": {
        "@id": "way/154066196",
        "addr:city": "Bandung",
        "addr:full": "Jalan Dr. Djunjunan 107, Pasteur Bandung, West Java, Indonesia",
        "amenity": "hospital",
        "building": "yes",
        "name": "RS Hermina Pasteur",
        "operator:type": "private"
      },
      "geometry": {
        "type": "Polygon",
        "coordinates": [
          [
            [
              107.5887293,
              -6.8955847
            ],
            [
              107.5887044,
              -6.8957899
            ],
            [
              107.5886697,
              -6.8957857
            ],
            [
              107.5886162,
              -6.8962268
            ],
            [
              107.5888514,
              -6.8962549
            ],
            [
              107.5889067,
              -6.8957982
            ],
            [
              107.5888712,
              -6.895794
            ],
            [
              107.5888941,
              -6.8956043
            ],
            [
              107.5887293,
              -6.8955847
            ]
          ]
        ]
      },
      "id": "way/154066196"
    },
    {
      "type": "Feature",
      "properties": {
        "@id": "way/155091969",
        "amenity": "hospital",
        "emergency": "no",
        "name": "Puskesmas Sukasari"
      },
      "geometry": {
        "type": "Polygon",
        "coordinates": [
          [
            [
              107.5822723,
              -6.8679768
            ],
            [
              107.5821544,
              -6.8683477
            ],
            [
              107.5824157,
              -6.8684296
            ],
            [
              107.5825336,
              -6.8680587
            ],
            [
              107.5822723,
              -6.8679768
            ]
          ]
        ]
      },
      "id": "way/155091969"
    },
    {
      "type": "Feature",
      "properties": {
        "@id": "way/174262622",
        "amenity": "hospital",
        "building": "yes",
        "name": "Rumah Sakit Pendidikan Universitas Padjadjaran"
      },
      "geometry": {
        "type": "Polygon",
        "coordinates": [
          [
            [
              107.5986414,
              -6.8952312
            ],
            [
              107.5985268,
              -6.8957891
            ],
            [
              107.5985319,
              -6.89579
            ],
            [
              107.5985797,
              -6.8958004
            ],
            [
              107.5987028,
              -6.8958247
            ],
            [
              107.5987132,
              -6.8957742
            ],
            [
              107.5990839,
              -6.8958492
            ],
            [
              107.5990719,
              -6.8959078
            ],
            [
              107.5992597,
              -6.8959458
            ],
            [
              107.5993746,
              -6.8953864
            ],
            [
              107.5991968,
              -6.8953504
            ],
            [
              107.5991906,
              -6.8953805
            ],
            [
              107.5988112,
              -6.8953037
            ],
            [
              107.5988187,
              -6.8952671
            ],
            [
              107.5986414,
              -6.8952312
            ]
          ]
        ]
      },
      "id": "way/174262622"
    },
    {
      "type": "Feature",
      "properties": {
        "@id": "way/380223312",
        "addr:city": "Bandung",
        "addr:full": "Jalan Ir. H. Juanda Nomor 100",
        "addr:housenumber": "100",
        "addr:street": "Jalan Ir. Haji Juanda",
        "amenity": "hospital",
        "building:floor": "ceramics",
        "building:material": "brick",
        "building:structure": "reinforced_masonry",
        "emergency": "yes",
        "healthcare": "hospital",
        "name": "Rumah Sakit Santo Borromeus",
        "operator:type": "private",
        "website": "https://rsborromeus.com/"
      },
      "geometry": {
        "type": "Polygon",
        "coordinates": [
          [
            [
              107.613208,
              -6.8931029
            ],
            [
              107.6131833,
              -6.8934639
            ],
            [
              107.6131578,
              -6.8937917
            ],
            [
              107.6130833,
              -6.8947323
            ],
            [
              107.6134892,
              -6.8947433
            ],
            [
              107.6142462,
              -6.8947583
            ],
            [
              107.6142476,
              -6.8943037
            ],
            [
              107.6142499,
              -6.8941824
            ],
            [
              107.6142549,
              -6.8933488
            ],
            [
              107.6142545,
              -6.8931481
            ],
            [
              107.613208,
              -6.8931029
            ]
          ]
        ]
      },
      "id": "way/380223312"
    },
    {
      "type": "Feature",
      "properties": {
        "@id": "way/462560032",
        "addr:city": "Cimahi",
        "addr:housenumber": "1",
        "addr:postcode": "40521",
        "addr:street": "Jalan Dustira",
        "amenity": "hospital",
        "email": "info@rsdustira.com",
        "healthcare": "hospital",
        "name": "RS Dustira",
        "phone": "+62 22 6652 207",
        "website": "http://rsdustira.com/",
        "wikidata": "Q12509106",
        "wikipedia": "id:Rumah Sakit Tk. II Dustira"
      },
      "geometry": {
        "type": "Polygon",
        "coordinates": [
          [
            [
              107.5343943,
              -6.8887864
            ],
            [
              107.5360566,
              -6.88735
            ],
            [
              107.5364094,
              -6.8870451
            ],
            [
              107.5355806,
              -6.8861644
            ],
            [
              107.5343192,
              -6.8847228
            ],
            [
              107.5343728,
              -6.8846057
            ],
            [
              107.5341636,
              -6.8843926
            ],
            [
              107.5341931,
              -6.8843394
            ],
            [
              107.5339785,
              -6.884105
            ],
            [
              107.5338149,
              -6.8843128
            ],
            [
              107.533341,
              -6.8846059
            ],
            [
              107.5325436,
              -6.8847867
            ],
            [
              107.5323183,
              -6.8849359
            ],
            [
              107.5316292,
              -6.8855734
            ],
            [
              107.5328318,
              -6.8870256
            ],
            [
              107.5331564,
              -6.8874809
            ],
            [
              107.5343943,
              -6.8887864
            ]
          ]
        ]
      },
      "id": "way/462560032"
    },
    {
      "type": "Feature",
      "properties": {
        "@id": "way/494049772",
        "addr:street": "Kolonel Masturi",
        "amenity": "hospital",
        "name": "Rumah Sakit Jiwa Cisarua"
      },
      "geometry": {
        "type": "Polygon",
        "coordinates": [
          [
            [
              107.5614282,
              -6.8110423
            ],
            [
              107.5662048,
              -6.8104645
            ],
            [
              107.5667525,
              -6.8103834
            ],
            [
              107.566963,
              -6.8092636
            ],
            [
              107.5669934,
              -6.8087889
            ],
            [
              107.5668457,
              -6.8083575
            ],
            [
              107.5667761,
              -6.8075291
            ],
            [
              107.5666545,
              -6.8063684
            ],
            [
              107.5661548,
              -6.8066316
            ],
            [
              107.5658028,
              -6.8067136
            ],
            [
              107.5652771,
              -6.8069121
            ],
            [
              107.564999,
              -6.8069509
            ],
            [
              107.5645289,
              -6.8071106
            ],
            [
              107.5638032,
              -6.8075119
            ],
            [
              107.5631528,
              -6.8080243
            ],
            [
              107.5625054,
              -6.8084687
            ],
            [
              107.5625008,
              -6.808449
            ],
            [
              107.5623272,
              -6.8089575
            ],
            [
              107.5622383,
              -6.8090972
            ],
            [
              107.5621033,
              -6.8092881
            ],
            [
              107.5618582,
              -6.8096671
            ],
            [
              107.5614815,
              -6.8102073
            ],
            [
              107.5614843,
              -6.8103339
            ],
            [
              107.5614282,
              -6.8110423
            ]
          ]
        ]
      },
      "id": "way/494049772"
    },
    {
      "type": "Feature",
      "properties": {
        "@id": "way/513891367",
        "amenity": "hospital",
        "building": "yes",
        "name": "Puskesmas Ibrahim Adjie Bandung"
      },
      "geometry": {
        "type": "Polygon",
        "coordinates": [
          [
            [
              107.6437506,
              -6.918785
            ],
            [
              107.643697,
              -6.9190167
            ],
            [
              107.6439666,
              -6.9190782
            ],
            [
              107.6440203,
              -6.9188466
            ],
            [
              107.6437506,
              -6.918785
            ]
          ]
        ]
      },
      "id": "way/513891367"
    },
    {
      "type": "Feature",
      "properties": {
        "@id": "way/530966011",
        "amenity": "hospital",
        "building": "yes",
        "healthcare": "hospital",
        "name": "Puskesmas Griya Antapani"
      },
      "geometry": {
        "type": "Polygon",
        "coordinates": [
          [
            [
              107.6604366,
              -6.9165537
            ],
            [
              107.6604366,
              -6.9167614
            ],
            [
              107.6605922,
              -6.9167614
            ],
            [
              107.6605922,
              -6.9166948
            ],
            [
              107.6605251,
              -6.9166948
            ],
            [
              107.6605251,
              -6.9166096
            ],
            [
              107.6605922,
              -6.9166096
            ],
            [
              107.6605922,
              -6.9165537
            ],
            [
              107.6604366,
              -6.9165537
            ]
          ]
        ]
      },
      "id": "way/530966011"
    },
    {
      "type": "Feature",
      "properties": {
        "@id": "way/534590916",
        "addr:city": "Cimahi",
        "addr:full": "Jalan Melong Raya No. 170",
        "amenity": "hospital",
        "building": "hospital",
        "name": "RSU Avisena",
        "operator:type": "private"
      },
      "geometry": {
        "type": "Polygon",
        "coordinates": [
          [
            [
              107.5558574,
              -6.9219384
            ],
            [
              107.5557454,
              -6.9219215
            ],
            [
              107.5557235,
              -6.9220647
            ],
            [
              107.5558314,
              -6.922081
            ],
            [
              107.5558369,
              -6.9220453
            ],
            [
              107.5559802,
              -6.9220669
            ],
            [
              107.5560452,
              -6.9216417
            ],
            [
              107.555906,
              -6.9216207
            ],
            [
              107.5558574,
              -6.9219384
            ]
          ]
        ]
      },
      "id": "way/534590916"
    },
    {
      "type": "Feature",
      "properties": {
        "@id": "way/546227456",
        "addr:city": "Cimahi",
        "addr:full": "Jalan Dustira No. 1 Baros, Kec. Cimahi Tengah, Kota Cimahi, Jawa Barat",
        "addr:housenumber": "1",
        "addr:postcode": "40521",
        "addr:street": "Jalan Dustira",
        "amenity": "hospital",
        "email": "info@rsdustira.com",
        "emergency": "yes",
        "healthcare": "hospital",
        "healthcare:speciality": "general",
        "name": "Rumah Sakit Dustira",
        "operator:type": "government",
        "phone": "+62 22 6652 207",
        "website": "http://rsdustira.com/",
        "wikidata": "Q12509106",
        "wikipedia": "id:Rumah Sakit Tk. II Dustira"
      },
      "geometry": {
        "type": "Polygon",
        "coordinates": [
          [
            [
              107.5316292,
              -6.8855734
            ],
            [
              107.5343943,
              -6.8887864
            ],
            [
              107.5360566,
              -6.88735
            ],
            [
              107.5359734,
              -6.8872652
            ],
            [
              107.5360294,
              -6.887205
            ],
            [
              107.5360528,
              -6.8871655
            ],
            [
              107.5360481,
              -6.8870705
            ],
            [
              107.5354037,
              -6.8863333
            ],
            [
              107.5355806,
              -6.8861644
            ],
            [
              107.5343192,
              -6.8847228
            ],
            [
              107.5343728,
              -6.8846057
            ],
            [
              107.5341636,
              -6.8843926
            ],
            [
              107.5341931,
              -6.8843394
            ],
            [
              107.5339785,
              -6.884105
            ],
            [
              107.5338149,
              -6.8843128
            ],
            [
              107.533341,
              -6.8846059
            ],
            [
              107.5325436,
              -6.8847867
            ],
            [
              107.5323183,
              -6.8849359
            ],
            [
              107.5316292,
              -6.8855734
            ]
          ]
        ]
      },
      "id": "way/546227456"
    },
    {
      "type": "Feature",
      "properties": {
        "@id": "way/631868498",
        "amenity": "hospital",
        "healthcare": "hospital"
      },
      "geometry": {
        "type": "Polygon",
        "coordinates": [
          [
            [
              107.5772305,
              -6.9214997
            ],
            [
              107.577225,
              -6.921535
            ],
            [
              107.5771837,
              -6.9215323
            ],
            [
              107.5771758,
              -6.9215748
            ],
            [
              107.5771855,
              -6.9215762
            ],
            [
              107.5771787,
              -6.9216174
            ],
            [
              107.5775586,
              -6.9217007
            ],
            [
              107.5775531,
              -6.9217235
            ],
            [
              107.5775778,
              -6.9217297
            ],
            [
              107.5776081,
              -6.9215849
            ],
            [
              107.5772305,
              -6.9214997
            ]
          ]
        ]
      },
      "id": "way/631868498"
    },
    {
      "type": "Feature",
      "properties": {
        "@id": "way/631868561",
        "addr:city": "Bandung",
        "addr:postcode": "40211",
        "addr:street": "Jl. Nana Rohana No. 37",
        "amenity": "hospital",
        "email": "ku.primecenter@gmail.com",
        "emergency": "yes",
        "healthcare": "hospital",
        "healthcare:speciality": "ophthalmology;neurology;internal;otolaryngology",
        "name": "Klinik Utama Priangan Medical & Eye Center",
        "phone": "+62 22-6046467"
      },
      "geometry": {
        "type": "Polygon",
        "coordinates": [
          [
            [
              107.5775561,
              -6.9217359
            ],
            [
              107.5772235,
              -6.9216552
            ],
            [
              107.5771834,
              -6.9218126
            ],
            [
              107.577511,
              -6.9218902
            ],
            [
              107.5775561,
              -6.9217359
            ]
          ]
        ]
      },
      "id": "way/631868561"
    },
    {
      "type": "Feature",
      "properties": {
        "@id": "way/633533539",
        "amenity": "hospital",
        "building": "yes",
        "name": "Puskesmas Gumuruh"
      },
      "geometry": {
        "type": "Polygon",
        "coordinates": [
          [
            [
              107.6359186,
              -6.9322674
            ],
            [
              107.6357891,
              -6.9322376
            ],
            [
              107.6357766,
              -6.9322834
            ],
            [
              107.6357552,
              -6.9322781
            ],
            [
              107.6357446,
              -6.9323152
            ],
            [
              107.635766,
              -6.9323217
            ],
            [
              107.6357586,
              -6.9323495
            ],
            [
              107.6358683,
              -6.9323773
            ],
            [
              107.6358857,
              -6.9323057
            ],
            [
              107.6359086,
              -6.9323086
            ],
            [
              107.6359186,
              -6.9322674
            ]
          ]
        ]
      },
      "id": "way/633533539"
    },
    {
      "type": "Feature",
      "properties": {
        "@id": "way/635546526",
        "addr:full": "Jl. Jayagiri Rt 03/03",
        "admin_level": "7",
        "amenity": "hospital",
        "building": "yes",
        "emergency": "yes",
        "healthcare": "hospital",
        "healthcare:speciality": "emergency",
        "name": "PUSKESMAS DTP JAYAGIRI"
      },
      "geometry": {
        "type": "Polygon",
        "coordinates": [
          [
            [
              107.6180497,
              -6.8095102
            ],
            [
              107.6178486,
              -6.8098458
            ],
            [
              107.6179766,
              -6.8099215
            ],
            [
              107.6181778,
              -6.8095859
            ],
            [
              107.6180497,
              -6.8095102
            ]
          ]
        ]
      },
      "id": "way/635546526"
    },
    {
      "type": "Feature",
      "properties": {
        "@id": "way/638462640",
        "amenity": "hospital",
        "building": "yes",
        "name": "RS Jiwa Hurip Waluya"
      },
      "geometry": {
        "type": "Polygon",
        "coordinates": [
          [
            [
              107.594821,
              -6.8840347
            ],
            [
              107.5948148,
              -6.8840487
            ],
            [
              107.5947944,
              -6.8840403
            ],
            [
              107.5947569,
              -6.8841288
            ],
            [
              107.5947811,
              -6.8841374
            ],
            [
              107.5947656,
              -6.8841783
            ],
            [
              107.5947415,
              -6.8841685
            ],
            [
              107.5947358,
              -6.884182
            ],
            [
              107.5948844,
              -6.8842425
            ],
            [
              107.5949202,
              -6.8841484
            ],
            [
              107.5949144,
              -6.8841463
            ],
            [
              107.5949375,
              -6.8840892
            ],
            [
              107.5949243,
              -6.8840849
            ],
            [
              107.5949314,
              -6.8840621
            ],
            [
              107.5948648,
              -6.8840408
            ],
            [
              107.5948626,
              -6.8840478
            ],
            [
              107.594821,
              -6.8840347
            ]
          ]
        ]
      },
      "id": "way/638462640"
    },
    {
      "type": "Feature",
      "properties": {
        "@id": "way/639868885",
        "addr:street": "Jalan Awibitung",
        "amenity": "hospital",
        "building": "yes",
        "emergency": "yes",
        "healthcare": "hospital",
        "healthcare:speciality": "maternity",
        "name": "RS Ibu & Anak Al-Islam"
      },
      "geometry": {
        "type": "Polygon",
        "coordinates": [
          [
            [
              107.6389102,
              -6.9092312
            ],
            [
              107.6388734,
              -6.9091693
            ],
            [
              107.6387616,
              -6.9092348
            ],
            [
              107.6387985,
              -6.9092967
            ],
            [
              107.6389102,
              -6.9092312
            ]
          ]
        ]
      },
      "id": "way/639868885"
    },
    {
      "type": "Feature",
      "properties": {
        "@id": "way/782865909",
        "addr:city": "Bandung",
        "addr:full": "Jalan A.H. Nasution Km 7 No.8 Antapani Bandung",
        "amenity": "hospital",
        "building": "hospital",
        "name": "Rumah Sakit Hermina"
      },
      "geometry": {
        "type": "Polygon",
        "coordinates": [
          [
            [
              107.6666003,
              -6.9046367
            ],
            [
              107.6665561,
              -6.9051652
            ],
            [
              107.6668711,
              -6.9051912
            ],
            [
              107.6669153,
              -6.9046627
            ],
            [
              107.6666003,
              -6.9046367
            ]
          ]
        ]
      },
      "id": "way/782865909"
    },
    {
      "type": "Feature",
      "properties": {
        "@id": "way/782895616",
        "addr:city": "Bandung",
        "addr:full": "Jalan L. L. R.E. Martadinata No.9, Citarum, Kec. Bandung Wetan, Kota Bandung, Jawa Barat 40115",
        "amenity": "hospital",
        "healthcare": "hospital",
        "name": "Rumah Sakit Sariningsih",
        "operator:type": "government",
        "website": "http://rssariningsih.com/"
      },
      "geometry": {
        "type": "Polygon",
        "coordinates": [
          [
            [
              107.6114514,
              -6.9062603
            ],
            [
              107.6111966,
              -6.9062144
            ],
            [
              107.6111406,
              -6.9062556
            ],
            [
              107.6107509,
              -6.9062219
            ],
            [
              107.6107232,
              -6.9065392
            ],
            [
              107.6107058,
              -6.9068853
            ],
            [
              107.6115306,
              -6.9069373
            ],
            [
              107.611548,
              -6.9063655
            ],
            [
              107.6115002,
              -6.9063134
            ],
            [
              107.6114514,
              -6.9062603
            ]
          ]
        ]
      },
      "id": "way/782895616"
    },
    {
      "type": "Feature",
      "properties": {
        "@id": "way/782982595",
        "addr:city": "Bandung, Jawa Barat",
        "addr:full": "Jalan Kebon Jati Nomor 38",
        "addr:housenumber": "38",
        "addr:postcode": "40181",
        "addr:street": "Jalan Kebon Jati",
        "amenity": "hospital",
        "capacity:persons": "400",
        "healthcare": "hospital",
        "name": "Rumah Sakit Santosa",
        "name:ja": "サントーサ病院バンドン中央",
        "operator:type": "private",
        "website": "https://shbc.santosa-hospital.com/"
      },
      "geometry": {
        "type": "Polygon",
        "coordinates": [
          [
            [
              107.5999222,
              -6.9148687
            ],
            [
              107.6002068,
              -6.9161337
            ],
            [
              107.6006475,
              -6.9161244
            ],
            [
              107.6006506,
              -6.9159734
            ],
            [
              107.6007765,
              -6.9159621
            ],
            [
              107.6007945,
              -6.9157087
            ],
            [
              107.6016145,
              -6.915662
            ],
            [
              107.601608,
              -6.9155709
            ],
            [
              107.6018349,
              -6.9155359
            ],
            [
              107.6018048,
              -6.9153348
            ],
            [
              107.6015748,
              -6.9153754
            ],
            [
              107.6015449,
              -6.9152369
            ],
            [
              107.6015096,
              -6.9149538
            ],
            [
              107.6012691,
              -6.9149774
            ],
            [
              107.6013194,
              -6.9153077
            ],
            [
              107.6009831,
              -6.9153728
            ],
            [
              107.6009655,
              -6.9152857
            ],
            [
              107.6007003,
              -6.9153243
            ],
            [
              107.600505,
              -6.9148711
            ],
            [
              107.5999222,
              -6.9148687
            ]
          ]
        ]
      },
      "id": "way/782982595"
    },
    {
      "type": "Feature",
      "properties": {
        "@id": "way/782997619",
        "addr:city": "Cimahi",
        "addr:full": "Jalan Mahar Martanegara No.166",
        "amenity": "hospital",
        "building": "hospital",
        "name": "RS Kasih Bunda",
        "operator:type": "private",
        "website": "https://www.kasih-bunda.com/v2/"
      },
      "geometry": {
        "type": "Polygon",
        "coordinates": [
          [
            [
              107.5471079,
              -6.9000421
            ],
            [
              107.5471213,
              -6.9004442
            ],
            [
              107.547284,
              -6.9004388
            ],
            [
              107.5472706,
              -6.9000367
            ],
            [
              107.5471079,
              -6.9000421
            ]
          ]
        ]
      },
      "id": "way/782997619"
    },
    {
      "type": "Feature",
      "properties": {
        "@id": "way/783772649",
        "addr:full": "Jalan KH. Ahmad Dahlan No. 53, Bandung",
        "amenity": "hospital",
        "healthcare": "hospital",
        "name": "RS Muhammadiyah Bandung",
        "operator:type": "private"
      },
      "geometry": {
        "type": "Polygon",
        "coordinates": [
          [
            [
              107.6230768,
              -6.9332998
            ],
            [
              107.6230399,
              -6.933341
            ],
            [
              107.6230077,
              -6.9333883
            ],
            [
              107.6229206,
              -6.9335101
            ],
            [
              107.6234081,
              -6.9338715
            ],
            [
              107.6236461,
              -6.9335427
            ],
            [
              107.6237293,
              -6.9334601
            ],
            [
              107.623854,
              -6.9333363
            ],
            [
              107.6239532,
              -6.9332365
            ],
            [
              107.6240364,
              -6.933118
            ],
            [
              107.6237668,
              -6.9330108
            ],
            [
              107.6237132,
              -6.9329942
            ],
            [
              107.6236816,
              -6.9330241
            ],
            [
              107.6234356,
              -6.9329183
            ],
            [
              107.623402,
              -6.9329636
            ],
            [
              107.6232558,
              -6.9329483
            ],
            [
              107.6231157,
              -6.9332398
            ],
            [
              107.6230768,
              -6.9332998
            ]
          ]
        ]
      },
      "id": "way/783772649"
    },
    {
      "type": "Feature",
      "properties": {
        "@id": "way/783785233",
        "addr:city": "Bandung",
        "addr:full": "Jalan Rajawali Barat No.38, Maleber, Kec. Andir, Kota Bandung, Jawa Barat 40184",
        "amenity": "hospital",
        "healthcare": "hospital",
        "name": "RS Rajawali",
        "operator:type": "private"
      },
      "geometry": {
        "type": "Polygon",
        "coordinates": [
          [
            [
              107.572519,
              -6.9129086
            ],
            [
              107.5733748,
              -6.9132613
            ],
            [
              107.5736873,
              -6.9123413
            ],
            [
              107.5728692,
              -6.9120212
            ],
            [
              107.572519,
              -6.9129086
            ]
          ]
        ]
      },
      "id": "way/783785233"
    },
    {
      "type": "Feature",
      "properties": {
        "@id": "way/783806886",
        "addr:city": "Bandung",
        "addr:full": "Jalan Cicendo Nomor 4",
        "addr:housenumber": "#4",
        "addr:street": "Jalan Cicendo , Sumurbandung",
        "amenity": "hospital",
        "healthcare": "hospital",
        "name": "Rumah Sakit Mata Cicendo",
        "name:en": "Cicendo Eye Hospital",
        "name:it": "Cicendo Eye",
        "operator:type": "government"
      },
      "geometry": {
        "type": "Polygon",
        "coordinates": [
          [
            [
              107.6041478,
              -6.9104827
            ],
            [
              107.6041578,
              -6.9104967
            ],
            [
              107.6055238,
              -6.9105806
            ],
            [
              107.6055137,
              -6.9104595
            ],
            [
              107.6052408,
              -6.9099528
            ],
            [
              107.6051898,
              -6.909869
            ],
            [
              107.6050986,
              -6.9097851
            ],
            [
              107.6050745,
              -6.9097452
            ],
            [
              107.6050584,
              -6.9097039
            ],
            [
              107.6050544,
              -6.9095947
            ],
            [
              107.6050463,
              -6.9095667
            ],
            [
              107.6050128,
              -6.9095388
            ],
            [
              107.604813,
              -6.9095255
            ],
            [
              107.6048183,
              -6.9093284
            ],
            [
              107.6044737,
              -6.9093138
            ],
            [
              107.6044415,
              -6.9093311
            ],
            [
              107.6044066,
              -6.909379
            ],
            [
              107.6042564,
              -6.9097545
            ],
            [
              107.6042363,
              -6.9098157
            ],
            [
              107.6042055,
              -6.9099635
            ],
            [
              107.6041652,
              -6.9102657
            ],
            [
              107.6041572,
              -6.9103376
            ],
            [
              107.6041464,
              -6.9104587
            ],
            [
              107.6041478,
              -6.9104827
            ]
          ]
        ]
      },
      "id": "way/783806886"
    },
    {
      "type": "Feature",
      "properties": {
        "@id": "way/783813886",
        "addr:full": "Jalan Ciumbuleuit No.203, Ciumbuleuit, Kec. Cidadap, Kota Bandung",
        "amenity": "hospital",
        "healthcare": "hospital",
        "healthcare:speciality": "general;emergency",
        "name": "RSAU Dr. M. Salamun",
        "operator:type": "private"
      },
      "geometry": {
        "type": "Polygon",
        "coordinates": [
          [
            [
              107.6051831,
              -6.8641544
            ],
            [
              107.6050517,
              -6.8637496
            ],
            [
              107.604931,
              -6.8635339
            ],
            [
              107.6048666,
              -6.8634607
            ],
            [
              107.6042041,
              -6.8632144
            ],
            [
              107.6041625,
              -6.8632303
            ],
            [
              107.6041116,
              -6.8634274
            ],
            [
              107.6040982,
              -6.8635033
            ],
            [
              107.6040164,
              -6.8636218
            ],
            [
              107.6039332,
              -6.8636737
            ],
            [
              107.6039426,
              -6.8638575
            ],
            [
              107.6039828,
              -6.864225
            ],
            [
              107.6039815,
              -6.8644992
            ],
            [
              107.6039989,
              -6.8646577
            ],
            [
              107.6039909,
              -6.8647442
            ],
            [
              107.6038863,
              -6.8650332
            ],
            [
              107.6041156,
              -6.8651037
            ],
            [
              107.6041988,
              -6.8651277
            ],
            [
              107.6042041,
              -6.8652382
            ],
            [
              107.6042242,
              -6.8653887
            ],
            [
              107.6044348,
              -6.8654313
            ],
            [
              107.6046588,
              -6.8655045
            ],
            [
              107.604766,
              -6.8655764
            ],
            [
              107.6048774,
              -6.8655778
            ],
            [
              107.6050973,
              -6.8655431
            ],
            [
              107.6055358,
              -6.8656909
            ],
            [
              107.6055975,
              -6.8655711
            ],
            [
              107.6055694,
              -6.8653434
            ],
            [
              107.6054983,
              -6.8649227
            ],
            [
              107.6054232,
              -6.8647429
            ],
            [
              107.6052976,
              -6.8644349
            ],
            [
              107.6051831,
              -6.8641544
            ]
          ]
        ]
      },
      "id": "way/783813886"
    },
    {
      "type": "Feature",
      "properties": {
        "@id": "way/783834479",
        "addr:city": "Bandung",
        "addr:district": "Cibeunying Kidul",
        "addr:full": "Jalan Cikutra No. 7, Kota Bandung - Jawa Barat 40124",
        "addr:housenumber": "7",
        "addr:postcode": "40124",
        "addr:province": "Jawa Barat",
        "addr:street": "Cikutra",
        "addr:subdistrict": "Cikutra",
        "amenity": "hospital",
        "healthcare": "hospital",
        "name": "RS Santo Yusup",
        "operator:type": "private",
        "website": "https://www.rssantoyusup.com/24-jam/instalasi-gawat-darurat/"
      },
      "geometry": {
        "type": "Polygon",
        "coordinates": [
          [
            [
              107.6427555,
              -6.9062184
            ],
            [
              107.6425597,
              -6.9060479
            ],
            [
              107.642148,
              -6.9065525
            ],
            [
              107.6420347,
              -6.9067016
            ],
            [
              107.642148,
              -6.9068448
            ],
            [
              107.6423887,
              -6.9071337
            ],
            [
              107.6424994,
              -6.9072695
            ],
            [
              107.6427837,
              -6.9070265
            ],
            [
              107.6430874,
              -6.907119
            ],
            [
              107.6433349,
              -6.9071889
            ],
            [
              107.64376,
              -6.9066817
            ],
            [
              107.6433952,
              -6.9063888
            ],
            [
              107.6430921,
              -6.9061558
            ],
            [
              107.642958,
              -6.9062863
            ],
            [
              107.6427917,
              -6.9061824
            ],
            [
              107.6427555,
              -6.9062184
            ]
          ]
        ]
      },
      "id": "way/783834479"
    },
    {
      "type": "Feature",
      "properties": {
        "@id": "way/784129737",
        "addr:full": "Jalan Jend. H. Amir Machmud No.140, Cibabat, Kec. Cimahi Utara, Kota Cimahi, Jawa Barat",
        "amenity": "hospital",
        "emergency": "yes",
        "healthcare": "hospital",
        "name": "Rumah Sakit Umum Daerah Cibabat",
        "operator:type": "government"
      },
      "geometry": {
        "type": "Polygon",
        "coordinates": [
          [
            [
              107.5504124,
              -6.8792053
            ],
            [
              107.5507611,
              -6.8796421
            ],
            [
              107.5510856,
              -6.8793278
            ],
            [
              107.5514317,
              -6.8788272
            ],
            [
              107.5518675,
              -6.8788059
            ],
            [
              107.5521424,
              -6.8783492
            ],
            [
              107.5520164,
              -6.8782147
            ],
            [
              107.552068,
              -6.8781062
            ],
            [
              107.5515765,
              -6.8777461
            ],
            [
              107.551024,
              -6.8785955
            ],
            [
              107.5504124,
              -6.8792053
            ]
          ]
        ]
      },
      "id": "way/784129737"
    },
    {
      "type": "Feature",
      "properties": {
        "@id": "way/784661444",
        "addr:full": "Jalan Dr. Cipto no 1, Bandung",
        "amenity": "hospital",
        "building": "yes",
        "healthcare": "hospital",
        "name": "RS Melinda 2",
        "operator:type": "private"
      },
      "geometry": {
        "type": "Polygon",
        "coordinates": [
          [
            [
              107.5984408,
              -6.9063854
            ],
            [
              107.5984554,
              -6.9063853
            ],
            [
              107.5984523,
              -6.905922
            ],
            [
              107.598184,
              -6.9059237
            ],
            [
              107.5981841,
              -6.9059432
            ],
            [
              107.5981169,
              -6.9059437
            ],
            [
              107.5981242,
              -6.9064177
            ],
            [
              107.5982019,
              -6.9064307
            ],
            [
              107.5982566,
              -6.9064442
            ],
            [
              107.5982748,
              -6.9064573
            ],
            [
              107.5982915,
              -6.9064661
            ],
            [
              107.5984414,
              -6.90647
            ],
            [
              107.5984408,
              -6.9063854
            ]
          ]
        ]
      },
      "id": "way/784661444"
    },
    {
      "type": "Feature",
      "properties": {
        "@id": "way/784773788",
        "addr:city": "Bandung",
        "addr:full": "Jalan Terusan Jakarta No.15 - 17, Babakan Surabaya, Kec. Kiaracondong, Kota Bandung, Jawa Barat 40281",
        "amenity": "hospital",
        "building": "hospital",
        "name": "RSIA Graha Bunda",
        "operator:type": "private",
        "website": "https://rsia-grhabunda.com/"
      },
      "geometry": {
        "type": "Polygon",
        "coordinates": [
          [
            [
              107.6455438,
              -6.9130252
            ],
            [
              107.645631,
              -6.9130715
            ],
            [
              107.6456224,
              -6.9132231
            ],
            [
              107.6457113,
              -6.913228
            ],
            [
              107.6457267,
              -6.913021
            ],
            [
              107.6456889,
              -6.9130046
            ],
            [
              107.6455349,
              -6.9129378
            ],
            [
              107.6455242,
              -6.9128705
            ],
            [
              107.6453613,
              -6.9128286
            ],
            [
              107.6453532,
              -6.9128925
            ],
            [
              107.6454042,
              -6.9129058
            ],
            [
              107.6453878,
              -6.9131528
            ],
            [
              107.6453425,
              -6.913159
            ],
            [
              107.6453537,
              -6.9132916
            ],
            [
              107.6456122,
              -6.9132585
            ],
            [
              107.6456104,
              -6.9131359
            ],
            [
              107.645548,
              -6.9131434
            ],
            [
              107.6455438,
              -6.9130252
            ]
          ]
        ]
      },
      "id": "way/784773788"
    },
    {
      "type": "Feature",
      "properties": {
        "@id": "way/787588317",
        "addr:city": "Cimahi",
        "addr:housenumber": "148",
        "addr:postcode": "40511",
        "addr:street": "Jalan Bobojong",
        "amenity": "hospital",
        "building": "residential",
        "healthcare": "hospital",
        "healthcare:speciality": "general",
        "name": "Puskesmas Cipageran",
        "phone": "+62 22 6627 698"
      },
      "geometry": {
        "type": "Polygon",
        "coordinates": [
          [
            [
              107.5387732,
              -6.8549928
            ],
            [
              107.5387458,
              -6.8550714
            ],
            [
              107.5387083,
              -6.8550586
            ],
            [
              107.5386656,
              -6.8551812
            ],
            [
              107.5386769,
              -6.8551851
            ],
            [
              107.5386304,
              -6.8553186
            ],
            [
              107.5387445,
              -6.8553578
            ],
            [
              107.5387954,
              -6.8552116
            ],
            [
              107.5388288,
              -6.855223
            ],
            [
              107.5388521,
              -6.8551561
            ],
            [
              107.5388186,
              -6.8551446
            ],
            [
              107.5388609,
              -6.8550229
            ],
            [
              107.5387732,
              -6.8549928
            ]
          ]
        ]
      },
      "id": "way/787588317"
    },
    {
      "type": "Feature",
      "properties": {
        "@id": "way/933245907",
        "addr:city": "Cimahi",
        "addr:full": "Jalan Jenderal H. Amir Machmud Nomor 341",
        "alt_name": "RS Mitra Kasih",
        "amenity": "hospital",
        "healthcare": "hospital",
        "name": "Rumah Sakit Mitra Kasih",
        "operator:type": "private",
        "website": "http://rsmitrakasih.com/"
      },
      "geometry": {
        "type": "Polygon",
        "coordinates": [
          [
            [
              107.5526433,
              -6.8840292
            ],
            [
              107.5522926,
              -6.8844978
            ],
            [
              107.5525689,
              -6.8847381
            ],
            [
              107.5526393,
              -6.8846656
            ],
            [
              107.5527057,
              -6.8847195
            ],
            [
              107.553096,
              -6.8842948
            ],
            [
              107.553043,
              -6.8842076
            ],
            [
              107.5529375,
              -6.8840227
            ],
            [
              107.5528469,
              -6.8838641
            ],
            [
              107.5528264,
              -6.8838281
            ],
            [
              107.5526433,
              -6.8840292
            ]
          ]
        ]
      },
      "id": "way/933245907"
    },
    {
      "type": "Feature",
      "properties": {
        "@id": "way/1382354192",
        "addr:city": "Bandung",
        "addr:street": "Jalan Naripan",
        "amenity": "hospital",
        "healthcare": "hospital",
        "name": "Rumah Sakit Murni Teguh"
      },
      "geometry": {
        "type": "Polygon",
        "coordinates": [
          [
            [
              107.6157855,
              -6.920103
            ],
            [
              107.6156946,
              -6.920485
            ],
            [
              107.6156199,
              -6.9204665
            ],
            [
              107.6155605,
              -6.9206644
            ],
            [
              107.6163376,
              -6.9208259
            ],
            [
              107.6164583,
              -6.9202301
            ],
            [
              107.6157855,
              -6.920103
            ]
          ]
        ]
      },
      "id": "way/1382354192"
    },
    {
      "type": "Feature",
      "properties": {
        "@id": "way/1409709849",
        "amenity": "hospital",
        "healthcare": "hospital",
        "name": "RS Melinda 1"
      },
      "geometry": {
        "type": "Polygon",
        "coordinates": [
          [
            [
              107.603159,
              -6.9064354
            ],
            [
              107.6031112,
              -6.9069772
            ],
            [
              107.6034385,
              -6.9069943
            ],
            [
              107.6034595,
              -6.9064535
            ],
            [
              107.603159,
              -6.9064354
            ]
          ]
        ]
      },
      "id": "way/1409709849"
    },
    {
      "type": "Feature",
      "properties": {
        "@id": "way/1473273814",
        "amenity": "hospital",
        "healthcare": "hospital",
        "name": "Rumah Sakit Kebon Jati",
        "operator:type": "private",
        "short_name": "RS Kebon Jati",
        "website": "https://www.rskebonjati.com/"
      },
      "geometry": {
        "type": "Polygon",
        "coordinates": [
          [
            [
              107.5959202,
              -6.9162916
            ],
            [
              107.5968483,
              -6.9162674
            ],
            [
              107.5968483,
              -6.9160915
            ],
            [
              107.5969476,
              -6.9160556
            ],
            [
              107.5969538,
              -6.9155597
            ],
            [
              107.5957346,
              -6.9155719
            ],
            [
              107.5957474,
              -6.9158292
            ],
            [
              107.5959202,
              -6.9162916
            ]
          ]
        ]
      },
      "id": "way/1473273814"
    },
    {
      "type": "Feature",
      "properties": {
        "@id": "way/1515284247",
        "amenity": "hospital",
        "healthcare": "hospital",
        "name": "Rumah Sakit Bungsu"
      },
      "geometry": {
        "type": "Polygon",
        "coordinates": [
          [
            [
              107.6131321,
              -6.91831
            ],
            [
              107.6129752,
              -6.9187574
            ],
            [
              107.6133923,
              -6.9188692
            ],
            [
              107.6134902,
              -6.9186921
            ],
            [
              107.6135881,
              -6.918748
            ],
            [
              107.6136646,
              -6.9185843
            ],
            [
              107.6131321,
              -6.91831
            ]
          ]
        ]
      },
      "id": "way/1515284247"
    },
    {
      "type": "Feature",
      "properties": {
        "@id": "way/1532483940",
        "amenity": "hospital",
        "healthcare": "hospital",
        "name": "Rumah Sakit Ibu Anak Limijati",
        "operator:type": "private"
      },
      "geometry": {
        "type": "Polygon",
        "coordinates": [
          [
            [
              107.6133636,
              -6.9061324
            ],
            [
              107.6134615,
              -6.9065771
            ],
            [
              107.6138428,
              -6.9064146
            ],
            [
              107.6137979,
              -6.9057487
            ],
            [
              107.6135607,
              -6.9057636
            ],
            [
              107.6135581,
              -6.9058368
            ],
            [
              107.6133636,
              -6.9061324
            ]
          ]
        ]
      },
      "id": "way/1532483940"
    },
    {
      "type": "Feature",
      "properties": {
        "@id": "way/1532483941",
        "amenity": "hospital",
        "healthcare": "hospital",
        "healthcare:speciality": "dental_oral_maxillo_facial_surgery",
        "name": "RSGM Kota Bandung"
      },
      "geometry": {
        "type": "Polygon",
        "coordinates": [
          [
            [
              107.6139461,
              -6.905786
            ],
            [
              107.6139784,
              -6.9064039
            ],
            [
              107.6142056,
              -6.9063925
            ],
            [
              107.614167,
              -6.9057737
            ],
            [
              107.6139461,
              -6.905786
            ]
          ]
        ]
      },
      "id": "way/1532483941"
    },
    {
      "type": "Feature",
      "properties": {
        "@id": "way/1532483962",
        "amenity": "hospital",
        "healthcare": "hospital",
        "name": "RSKB Halmahera Siaga",
        "operator:type": "government"
      },
      "geometry": {
        "type": "Polygon",
        "coordinates": [
          [
            [
              107.6154362,
              -6.9064821
            ],
            [
              107.6154336,
              -6.9064954
            ],
            [
              107.615447,
              -6.9065407
            ],
            [
              107.6156227,
              -6.9069807
            ],
            [
              107.6159891,
              -6.9068516
            ],
            [
              107.6161524,
              -6.9068309
            ],
            [
              107.6161521,
              -6.9067636
            ],
            [
              107.6158565,
              -6.9068014
            ],
            [
              107.6157643,
              -6.9064208
            ],
            [
              107.6154362,
              -6.9064821
            ]
          ]
        ]
      },
      "id": "way/1532483962"
    },
    {
      "type": "Feature",
      "properties": {
        "@id": "node/319706077",
        "amenity": "hospital",
        "created_by": "Potlatch 0.10f",
        "name": "RSAU Dr Salamun"
      },
      "geometry": {
        "type": "Point",
        "coordinates": [
          107.6048127,
          -6.8643151
        ]
      },
      "id": "node/319706077"
    },
    {
      "type": "Feature",
      "properties": {
        "@id": "node/479732486",
        "addr:city": "Hegarmanah, Kec. Cidadap, Kota Bandung, Jawa Barat",
        "addr:postcode": "40141",
        "addr:street": "Jalan Bukit Jarian",
        "amenity": "hospital",
        "name": "RS Paru dr Rotinsulu"
      },
      "geometry": {
        "type": "Point",
        "coordinates": [
          107.6064864,
          -6.8777867
        ]
      },
      "id": "node/479732486"
    },
    {
      "type": "Feature",
      "properties": {
        "@id": "node/1381753529",
        "amenity": "hospital",
        "name": "Rumah Sakit Ginjal Nyonya Ra Habibie"
      },
      "geometry": {
        "type": "Point",
        "coordinates": [
          107.6203433,
          -6.8853403
        ]
      },
      "id": "node/1381753529"
    },
    {
      "type": "Feature",
      "properties": {
        "@id": "node/1381753576",
        "amenity": "hospital",
        "name": "Puskesmas Dago",
        "name:en": "Puskesmas"
      },
      "geometry": {
        "type": "Point",
        "coordinates": [
          107.6185752,
          -6.8759742
        ]
      },
      "id": "node/1381753576"
    },
    {
      "type": "Feature",
      "properties": {
        "@id": "node/1388222204",
        "amenity": "hospital",
        "check_date": "2026-04-25",
        "name": "Puskesmas Cikutra Lama"
      },
      "geometry": {
        "type": "Point",
        "coordinates": [
          107.6272402,
          -6.8913271
        ]
      },
      "id": "node/1388222204"
    },
    {
      "type": "Feature",
      "properties": {
        "@id": "node/1919646276",
        "addr:city": "Bandung",
        "addr:housenumber": "99",
        "addr:postcode": "40251",
        "addr:street": "Jalan Pasundan",
        "amenity": "hospital",
        "emergency": "no",
        "healthcare": "hospital",
        "name": "Puskesmas Pasundan"
      },
      "geometry": {
        "type": "Point",
        "coordinates": [
          107.6089534,
          -6.9273603
        ]
      },
      "id": "node/1919646276"
    },
    {
      "type": "Feature",
      "properties": {
        "@id": "node/1930140081",
        "amenity": "hospital"
      },
      "geometry": {
        "type": "Point",
        "coordinates": [
          107.5961352,
          -6.9004583
        ]
      },
      "id": "node/1930140081"
    },
    {
      "type": "Feature",
      "properties": {
        "@id": "node/2133710945",
        "amenity": "hospital",
        "name": "Rumah Sakit Jiwa Hurip Waluya"
      },
      "geometry": {
        "type": "Point",
        "coordinates": [
          107.5941316,
          -6.8835946
        ]
      },
      "id": "node/2133710945"
    },
    {
      "type": "Feature",
      "properties": {
        "@id": "node/2133741445",
        "amenity": "hospital",
        "name": "Rumah Sakit Ginjal"
      },
      "geometry": {
        "type": "Point",
        "coordinates": [
          107.6200766,
          -6.8852642
        ]
      },
      "id": "node/2133741445"
    },
    {
      "type": "Feature",
      "properties": {
        "@id": "node/3062139312",
        "amenity": "hospital",
        "name": "Puskesmas"
      },
      "geometry": {
        "type": "Point",
        "coordinates": [
          107.6072151,
          -6.8970637
        ]
      },
      "id": "node/3062139312"
    },
    {
      "type": "Feature",
      "properties": {
        "@id": "node/4327896045",
        "addr:city": "Bandung, Jawa Barat",
        "addr:housenumber": "81",
        "addr:street": "Jalan Dadali , Garuda, Andir",
        "amenity": "hospital",
        "healthcare": "hospital",
        "name": "Puskesmas Garuda"
      },
      "geometry": {
        "type": "Point",
        "coordinates": [
          107.5773781,
          -6.9113899
        ]
      },
      "id": "node/4327896045"
    },
    {
      "type": "Feature",
      "properties": {
        "@id": "node/4328207174",
        "addr:city": "Bandung",
        "addr:housenumber": "65",
        "addr:street": "Jl. Surya Sumantri",
        "amenity": "hospital",
        "name": "Rumah Sakit Gigi dan Mulut Maranatha"
      },
      "geometry": {
        "type": "Point",
        "coordinates": [
          107.5812491,
          -6.886821
        ]
      },
      "id": "node/4328207174"
    },
    {
      "type": "Feature",
      "properties": {
        "@id": "node/4369219426",
        "amenity": "hospital",
        "check_date": "2024-03-27",
        "name": "ERHA Clinic"
      },
      "geometry": {
        "type": "Point",
        "coordinates": [
          107.6209995,
          -6.9038215
        ]
      },
      "id": "node/4369219426"
    },
    {
      "type": "Feature",
      "properties": {
        "@id": "node/4370197110",
        "amenity": "hospital",
        "healthcare": "hospital",
        "name": "AIRIN BEAUTY CARE",
        "name:en": "Airin Beauty Care"
      },
      "geometry": {
        "type": "Point",
        "coordinates": [
          107.6585757,
          -6.9213387
        ]
      },
      "id": "node/4370197110"
    },
    {
      "type": "Feature",
      "properties": {
        "@id": "node/4991465023",
        "addr:postcode": "40151",
        "amenity": "hospital",
        "name": "Rumah Bersalin Muhammadiyah"
      },
      "geometry": {
        "type": "Point",
        "coordinates": [
          107.5766801,
          -6.8775282
        ]
      },
      "id": "node/4991465023"
    },
    {
      "type": "Feature",
      "properties": {
        "@id": "node/5332573977",
        "amenity": "hospital",
        "name": "Puskesmas Sukajadi"
      },
      "geometry": {
        "type": "Point",
        "coordinates": [
          107.5943825,
          -6.8922267
        ]
      },
      "id": "node/5332573977"
    },
    {
      "type": "Feature",
      "properties": {
        "@id": "node/5455661339",
        "amenity": "hospital",
        "name": "Puskesmas Karang Setra"
      },
      "geometry": {
        "type": "Point",
        "coordinates": [
          107.5911581,
          -6.8773932
        ]
      },
      "id": "node/5455661339"
    },
    {
      "type": "Feature",
      "properties": {
        "@id": "node/6087147386",
        "amenity": "hospital",
        "healthcare": "hospital"
      },
      "geometry": {
        "type": "Point",
        "coordinates": [
          107.6140117,
          -6.9201977
        ]
      },
      "id": "node/6087147386"
    },
    {
      "type": "Feature",
      "properties": {
        "@id": "node/6087156117",
        "amenity": "hospital",
        "healthcare": "hospital",
        "name": "Puskesmas Cimahi Tengah"
      },
      "geometry": {
        "type": "Point",
        "coordinates": [
          107.5420574,
          -6.8723378
        ]
      },
      "id": "node/6087156117"
    },
    {
      "type": "Feature",
      "properties": {
        "@id": "node/9285341418",
        "amenity": "hospital",
        "name": "Rumah Sakit Kartini Bandung"
      },
      "geometry": {
        "type": "Point",
        "coordinates": [
          107.6345985,
          -6.8972374
        ]
      },
      "id": "node/9285341418"
    },
    {
      "type": "Feature",
      "properties": {
        "@id": "node/9676725113",
        "amenity": "hospital",
        "healthcare": "hospital",
        "name": "Rumah Sakit Rizky Bersalin"
      },
      "geometry": {
        "type": "Point",
        "coordinates": [
          107.6196519,
          -6.8886552
        ]
      },
      "id": "node/9676725113"
    },
    {
      "type": "Feature",
      "properties": {
        "@id": "node/9803438166",
        "amenity": "hospital",
        "healthcare": "hospital",
        "name": "RS Mitra Anugrah Lestari Cimahi"
      },
      "geometry": {
        "type": "Point",
        "coordinates": [
          107.5556959,
          -6.9007783
        ]
      },
      "id": "node/9803438166"
    },
    {
      "type": "Feature",
      "properties": {
        "@id": "node/9806006228",
        "amenity": "hospital",
        "healthcare": "hospital",
        "name": "Rumah Sakit Gigi dan Mulut Pendidikan Unjani"
      },
      "geometry": {
        "type": "Point",
        "coordinates": [
          107.544739,
          -6.8686093
        ]
      },
      "id": "node/9806006228"
    },
    {
      "type": "Feature",
      "properties": {
        "@id": "node/10153772895",
        "addr:city": "Bandung",
        "addr:housenumber": "57",
        "addr:postcode": "40114",
        "addr:street": "Jalan WR. Supratman",
        "amenity": "hospital",
        "email": "bprc@bebasnyeri.id",
        "emergency": "yes",
        "healthcare": "hospital",
        "healthcare:speciality": "general;physiotherapy;acupuncture;pain_management;physiatry",
        "name": "Klinik Utama Bandung Pain Rehab Center",
        "operator": "PT Indonesia Bebas Nyeri",
        "operator:type": "private",
        "phone": "+62811384300",
        "website": "https://bandungpainrehab.center"
      },
      "geometry": {
        "type": "Point",
        "coordinates": [
          107.6271296,
          -6.9029104
        ]
      },
      "id": "node/10153772895"
    },
    {
      "type": "Feature",
      "properties": {
        "@id": "node/10765147001",
        "addr:city": "Bandung",
        "addr:postcode": "40211",
        "addr:street": "Jl. Nana Rohana No.37",
        "amenity": "hospital",
        "email": "ku.primecenter@gmail.com",
        "emergency": "yes",
        "healthcare": "hospital",
        "healthcare:speciality": "internal;ophthalmology;neurology;otolaryngology",
        "name": "Klinik Utama Priangan Medical & Eye Center",
        "phone": "+62 22-6046467"
      },
      "geometry": {
        "type": "Point",
        "coordinates": [
          107.5773663,
          -6.9217294
        ]
      },
      "id": "node/10765147001"
    },
    {
      "type": "Feature",
      "properties": {
        "@id": "node/13152580570",
        "amenity": "hospital",
        "healthcare": "hospital",
        "healthcare:speciality": "psychiatry",
        "name": "Klinik Masagi"
      },
      "geometry": {
        "type": "Point",
        "coordinates": [
          107.6011784,
          -6.9269276
        ]
      },
      "id": "node/13152580570"
    },
    {
      "type": "Feature",
      "properties": {
        "@id": "node/13808603921",
        "amenity": "hospital",
        "healthcare": "hospital",
        "name": "Rumah Sakit Baros"
      },
      "geometry": {
        "type": "Point",
        "coordinates": [
          107.5368994,
          -6.8914457
        ]
      },
      "id": "node/13808603921"
    },
    {
      "type": "Feature",
      "properties": {
        "@id": "node/14070635605",
        "addr:city": "Bandung",
        "addr:district": "Cibeunying Kidul",
        "addr:housenumber": "7",
        "addr:postcode": "40124",
        "addr:province": "Jawa Barat",
        "addr:street": "Jalan Cikutra",
        "addr:subdistrict": "Cikutra",
        "amenity": "hospital",
        "healthcare": "hospital",
        "name": "RS Santo Yusup"
      },
      "geometry": {
        "type": "Point",
        "coordinates": [
          107.6430319,
          -6.9066037
        ]
      },
      "id": "node/14070635605"
    }
  ]
}