{
  "type": "FeatureCollection",
  "generator": "overpass-turbo",
  "copyright": "The data included in this document is from www.openstreetmap.org. The data is made available under ODbL.",
  "timestamp": "2026-08-16T00:19:06Z",
  "features": [
    {
      "type": "Feature",
      "properties": {
        "@id": "way/152948636",
        "amenity": "clinic",
        "building": "yes",
        "building:colour": "grey",
        "building:levels": "2",
        "building:part": "yes",
        "emergency": "no",
        "healthcare": "clinic",
        "name": "Poliklinik",
        "opening_hours": "Mo-Th 07:30-15:30; Fr 07:30-16:00",
        "roof:colour": "grey"
      },
      "geometry": {
        "type": "Polygon",
        "coordinates": [
          [
            [
              107.5928708,
              -6.8618943
            ],
            [
              107.592871,
              -6.8619785
            ],
            [
              107.5928712,
              -6.8620626
            ],
            [
              107.5931804,
              -6.862062
            ],
            [
              107.5931801,
              -6.8618937
            ],
            [
              107.5928708,
              -6.8618943
            ]
          ]
        ]
      },
      "id": "way/152948636"
    },
    {
      "type": "Feature",
      "properties": {
        "@id": "way/304178727",
        "addr:full": "Jl. Majalaya 2",
        "amenity": "clinic",
        "building": "yes",
        "healthcare": "clinic",
        "name": "Puskesmas",
        "operator": "Ministry of Health",
        "operator:en": "Ministry of Health",
        "operator:id": "Kementerian Kesehatan",
        "operator:type": "government",
        "operator:wikidata": "Q12490745"
      },
      "geometry": {
        "type": "Polygon",
        "coordinates": [
          [
            [
              107.6633859,
              -6.9134654
            ],
            [
              107.6634776,
              -6.9134818
            ],
            [
              107.6635583,
              -6.9134962
            ],
            [
              107.6635859,
              -6.9133437
            ],
            [
              107.6634134,
              -6.913313
            ],
            [
              107.6633973,
              -6.9134021
            ],
            [
              107.6633859,
              -6.9134654
            ]
          ]
        ]
      },
      "id": "way/304178727"
    },
    {
      "type": "Feature",
      "properties": {
        "@id": "way/376352126",
        "amenity": "clinic",
        "building": "yes",
        "name": "Jaya Sentosa"
      },
      "geometry": {
        "type": "Polygon",
        "coordinates": [
          [
            [
              107.6179187,
              -6.9181752
            ],
            [
              107.6179317,
              -6.918025
            ],
            [
              107.6176653,
              -6.9180025
            ],
            [
              107.6176524,
              -6.9181527
            ],
            [
              107.6179187,
              -6.9181752
            ]
          ]
        ]
      },
      "id": "way/376352126"
    },
    {
      "type": "Feature",
      "properties": {
        "@id": "way/381031831",
        "amenity": "clinic",
        "building": "yes",
        "healthcare": "clinic",
        "name": "Puskesmas Cigugur Tengah",
        "operator": "Ministry of Health",
        "operator:en": "Ministry of Health",
        "operator:id": "Kementerian Kesehatan",
        "operator:wikidata": "Q12490745"
      },
      "geometry": {
        "type": "Polygon",
        "coordinates": [
          [
            [
              107.5482222,
              -6.8873499
            ],
            [
              107.5482471,
              -6.8873647
            ],
            [
              107.5482396,
              -6.8873772
            ],
            [
              107.5482813,
              -6.887402
            ],
            [
              107.5482885,
              -6.8873902
            ],
            [
              107.5483149,
              -6.8874059
            ],
            [
              107.5483929,
              -6.8872768
            ],
            [
              107.5482999,
              -6.8872214
            ],
            [
              107.5482222,
              -6.8873499
            ]
          ]
        ]
      },
      "id": "way/381031831"
    },
    {
      "type": "Feature",
      "properties": {
        "@id": "way/381032768",
        "amenity": "clinic",
        "building": "yes",
        "healthcare": "clinic",
        "name": "Klinik Pratama Advent Taman Sari"
      },
      "geometry": {
        "type": "Polygon",
        "coordinates": [
          [
            [
              107.6085161,
              -6.901721
            ],
            [
              107.6084889,
              -6.9017587
            ],
            [
              107.608693,
              -6.901904
            ],
            [
              107.6088654,
              -6.9016653
            ],
            [
              107.6086663,
              -6.9015236
            ],
            [
              107.6086544,
              -6.9015401
            ],
            [
              107.6086212,
              -6.9015165
            ],
            [
              107.6085913,
              -6.9015579
            ],
            [
              107.6085697,
              -6.9015425
            ],
            [
              107.6085479,
              -6.9015727
            ],
            [
              107.6085371,
              -6.901565
            ],
            [
              107.608501,
              -6.9016149
            ],
            [
              107.608523,
              -6.9016305
            ],
            [
              107.6084775,
              -6.9016935
            ],
            [
              107.6085161,
              -6.901721
            ]
          ]
        ]
      },
      "id": "way/381032768"
    },
    {
      "type": "Feature",
      "properties": {
        "@id": "way/381613128",
        "amenity": "clinic",
        "building": "yes",
        "building:roof": "tile",
        "building:structure": "reinforced_masonry",
        "building:walls": "brick",
        "capacity": "50 orang",
        "name": "PUSTU PADAASIH",
        "operator:type": "government"
      },
      "geometry": {
        "type": "Polygon",
        "coordinates": [
          [
            [
              107.5637719,
              -6.8296392
            ],
            [
              107.5637685,
              -6.829713
            ],
            [
              107.563898,
              -6.8297189
            ],
            [
              107.5639015,
              -6.8296452
            ],
            [
              107.5637719,
              -6.8296392
            ]
          ]
        ]
      },
      "id": "way/381613128"
    },
    {
      "type": "Feature",
      "properties": {
        "@id": "way/381639202",
        "amenity": "clinic",
        "building": "yes",
        "healthcare": "clinic",
        "name": "Laboratorium Klinik Prodia Cimahi"
      },
      "geometry": {
        "type": "Polygon",
        "coordinates": [
          [
            [
              107.5442664,
              -6.8751311
            ],
            [
              107.5442077,
              -6.8752448
            ],
            [
              107.5442665,
              -6.8752747
            ],
            [
              107.5443251,
              -6.875161
            ],
            [
              107.5442664,
              -6.8751311
            ]
          ]
        ]
      },
      "id": "way/381639202"
    },
    {
      "type": "Feature",
      "properties": {
        "@id": "way/381655153",
        "amenity": "clinic",
        "building": "yes",
        "healthcare": "clinic",
        "name": "Pramita Lab Pajajaran"
      },
      "geometry": {
        "type": "Polygon",
        "coordinates": [
          [
            [
              107.5935196,
              -6.9065758
            ],
            [
              107.5935393,
              -6.9067241
            ],
            [
              107.5936032,
              -6.9067157
            ],
            [
              107.5936083,
              -6.9067541
            ],
            [
              107.5937179,
              -6.9067398
            ],
            [
              107.5936931,
              -6.9065531
            ],
            [
              107.5935196,
              -6.9065758
            ]
          ]
        ]
      },
      "id": "way/381655153"
    },
    {
      "type": "Feature",
      "properties": {
        "@id": "way/383052810",
        "addr:city": "Bandung",
        "addr:housenumber": "15",
        "addr:postcode": "40286",
        "addr:street": "Tata Surya",
        "amenity": "clinic",
        "building": "yes",
        "name": "Tata Sehat",
        "opening_hours": "24/7",
        "phone": "+62 22 7562818"
      },
      "geometry": {
        "type": "Polygon",
        "coordinates": [
          [
            [
              107.6670948,
              -6.9438195
            ],
            [
              107.6670867,
              -6.9438553
            ],
            [
              107.6670744,
              -6.9439756
            ],
            [
              107.6671992,
              -6.9439994
            ],
            [
              107.6672244,
              -6.943835
            ],
            [
              107.6671713,
              -6.9438286
            ],
            [
              107.6670948,
              -6.9438195
            ]
          ]
        ]
      },
      "id": "way/383052810"
    },
    {
      "type": "Feature",
      "properties": {
        "@id": "way/408545692",
        "amenity": "clinic",
        "building": "yes",
        "healthcare": "clinic",
        "name": "Klinik Zona Sehat"
      },
      "geometry": {
        "type": "Polygon",
        "coordinates": [
          [
            [
              107.5924485,
              -6.9732284
            ],
            [
              107.5925156,
              -6.9732364
            ],
            [
              107.5925295,
              -6.9731207
            ],
            [
              107.5924625,
              -6.9731127
            ],
            [
              107.5924485,
              -6.9732284
            ]
          ]
        ]
      },
      "id": "way/408545692"
    },
    {
      "type": "Feature",
      "properties": {
        "@id": "way/409384280",
        "amenity": "clinic",
        "building": "yes",
        "name": "Yusuf Balai Pengobatan"
      },
      "geometry": {
        "type": "Polygon",
        "coordinates": [
          [
            [
              107.6208428,
              -6.9206935
            ],
            [
              107.6207959,
              -6.9207168
            ],
            [
              107.6208883,
              -6.9209036
            ],
            [
              107.6209359,
              -6.9208777
            ],
            [
              107.6208428,
              -6.9206935
            ]
          ]
        ]
      },
      "id": "way/409384280"
    },
    {
      "type": "Feature",
      "properties": {
        "@id": "way/413356352",
        "amenity": "clinic",
        "building": "yes",
        "healthcare": "clinic",
        "name": "Werisa Klinik Cilember"
      },
      "geometry": {
        "type": "Polygon",
        "coordinates": [
          [
            [
              107.5572407,
              -6.8892404
            ],
            [
              107.5568341,
              -6.8894179
            ],
            [
              107.5568605,
              -6.8895088
            ],
            [
              107.5570272,
              -6.8894502
            ],
            [
              107.5570435,
              -6.8895088
            ],
            [
              107.5568565,
              -6.8895875
            ],
            [
              107.5569053,
              -6.8896783
            ],
            [
              107.5573382,
              -6.8894946
            ],
            [
              107.5572407,
              -6.8892404
            ]
          ]
        ]
      },
      "id": "way/413356352"
    },
    {
      "type": "Feature",
      "properties": {
        "@id": "way/512276729",
        "amenity": "clinic",
        "building": "yes",
        "healthcare": "clinic",
        "name": "Tivaza Klinik Utama Kulit Bandung"
      },
      "geometry": {
        "type": "Polygon",
        "coordinates": [
          [
            [
              107.6022072,
              -6.904176
            ],
            [
              107.6022059,
              -6.9043291
            ],
            [
              107.6023294,
              -6.9043302
            ],
            [
              107.6023307,
              -6.9041771
            ],
            [
              107.6022072,
              -6.904176
            ]
          ]
        ]
      },
      "id": "way/512276729"
    },
    {
      "type": "Feature",
      "properties": {
        "@id": "way/512353823",
        "amenity": "clinic",
        "building": "yes",
        "healthcare": "clinic",
        "name": "Klinik Tanaya"
      },
      "geometry": {
        "type": "Polygon",
        "coordinates": [
          [
            [
              107.6112221,
              -6.9002298
            ],
            [
              107.6112476,
              -6.9000993
            ],
            [
              107.6112151,
              -6.9000931
            ],
            [
              107.6112459,
              -6.8999789
            ],
            [
              107.6111229,
              -6.8999462
            ],
            [
              107.6110826,
              -6.9000953
            ],
            [
              107.6111832,
              -6.9001221
            ],
            [
              107.6111643,
              -6.9002187
            ],
            [
              107.6112221,
              -6.9002298
            ]
          ]
        ]
      },
      "id": "way/512353823"
    },
    {
      "type": "Feature",
      "properties": {
        "@id": "way/512891584",
        "amenity": "clinic",
        "building": "yes",
        "healthcare": "clinic",
        "name": "ZAP Clinic Bandung"
      },
      "geometry": {
        "type": "Polygon",
        "coordinates": [
          [
            [
              107.6273489,
              -6.9138218
            ],
            [
              107.6272434,
              -6.9138846
            ],
            [
              107.6273037,
              -6.9139845
            ],
            [
              107.6274092,
              -6.9139216
            ],
            [
              107.6273489,
              -6.9138218
            ]
          ]
        ]
      },
      "id": "way/512891584"
    },
    {
      "type": "Feature",
      "properties": {
        "@id": "way/513259644",
        "amenity": "clinic",
        "building": "yes",
        "healthcare": "optometrist",
        "name": "Klinik Utama Bandung Eye Center"
      },
      "geometry": {
        "type": "Polygon",
        "coordinates": [
          [
            [
              107.6137783,
              -6.9169345
            ],
            [
              107.6140559,
              -6.9169784
            ],
            [
              107.6140697,
              -6.9168922
            ],
            [
              107.6137921,
              -6.9168483
            ],
            [
              107.6137783,
              -6.9169345
            ]
          ]
        ]
      },
      "id": "way/513259644"
    },
    {
      "type": "Feature",
      "properties": {
        "@id": "way/513330162",
        "amenity": "clinic",
        "building": "yes",
        "healthcare": "clinic",
        "name": "Klinik Utama Mediska Kantor Pusat",
        "operator": "Kereta Api Indonesia"
      },
      "geometry": {
        "type": "Polygon",
        "coordinates": [
          [
            [
              107.6037924,
              -6.9148549
            ],
            [
              107.6037833,
              -6.9149738
            ],
            [
              107.6041025,
              -6.9149978
            ],
            [
              107.6041116,
              -6.9148789
            ],
            [
              107.6037924,
              -6.9148549
            ]
          ]
        ]
      },
      "id": "way/513330162"
    },
    {
      "type": "Feature",
      "properties": {
        "@id": "way/513433286",
        "amenity": "clinic",
        "building": "yes",
        "healthcare": "clinic",
        "name": "Brawijaya Clinic"
      },
      "geometry": {
        "type": "Polygon",
        "coordinates": [
          [
            [
              107.6203269,
              -6.9318067
            ],
            [
              107.6202545,
              -6.9319438
            ],
            [
              107.6203446,
              -6.9319907
            ],
            [
              107.620417,
              -6.9318536
            ],
            [
              107.6203269,
              -6.9318067
            ]
          ]
        ]
      },
      "id": "way/513433286"
    },
    {
      "type": "Feature",
      "properties": {
        "@id": "way/513439028",
        "amenity": "clinic",
        "building": "yes",
        "healthcare": "clinic",
        "name": "Puskesmas Talaga Bodas",
        "operator": "Ministry of Health",
        "operator:en": "Ministry of Health",
        "operator:id": "Kementerian Kesehatan",
        "operator:type": "government",
        "operator:wikidata": "Q12490745"
      },
      "geometry": {
        "type": "Polygon",
        "coordinates": [
          [
            [
              107.6225343,
              -6.9281309
            ],
            [
              107.6224861,
              -6.928304
            ],
            [
              107.6225867,
              -6.9283317
            ],
            [
              107.6226349,
              -6.9281586
            ],
            [
              107.6225343,
              -6.9281309
            ]
          ]
        ]
      },
      "id": "way/513439028"
    },
    {
      "type": "Feature",
      "properties": {
        "@id": "way/514986899",
        "amenity": "clinic",
        "building": "yes",
        "healthcare": "clinic",
        "name": "Laboratorium Klinik Pramita Mochammad Toha"
      },
      "geometry": {
        "type": "Polygon",
        "coordinates": [
          [
            [
              107.6078068,
              -6.943114
            ],
            [
              107.6078394,
              -6.9432128
            ],
            [
              107.6079832,
              -6.943166
            ],
            [
              107.6079507,
              -6.9430672
            ],
            [
              107.6078068,
              -6.943114
            ]
          ]
        ]
      },
      "id": "way/514986899"
    },
    {
      "type": "Feature",
      "properties": {
        "@id": "way/515890184",
        "amenity": "clinic",
        "building": "yes",
        "healthcare": "clinic",
        "name": "UPTD Puskesmas Ledeng",
        "operator": "Ministry of Health",
        "operator:en": "Ministry of Health",
        "operator:id": "Kementerian Kesehatan",
        "operator:wikidata": "Q12490745"
      },
      "geometry": {
        "type": "Polygon",
        "coordinates": [
          [
            [
              107.5945964,
              -6.8580575
            ],
            [
              107.5945354,
              -6.8581234
            ],
            [
              107.5946583,
              -6.8582355
            ],
            [
              107.5947194,
              -6.8581696
            ],
            [
              107.5945964,
              -6.8580575
            ]
          ]
        ]
      },
      "id": "way/515890184"
    },
    {
      "type": "Feature",
      "properties": {
        "@id": "way/518520738",
        "amenity": "clinic",
        "building": "yes",
        "healthcare": "clinic",
        "name": "Posyandu Cidadap Girang Baru"
      },
      "geometry": {
        "type": "Polygon",
        "coordinates": [
          [
            [
              107.5972693,
              -6.8548392
            ],
            [
              107.5972746,
              -6.8549084
            ],
            [
              107.5973157,
              -6.8549053
            ],
            [
              107.5973103,
              -6.8548361
            ],
            [
              107.5972693,
              -6.8548392
            ]
          ]
        ]
      },
      "id": "way/518520738"
    },
    {
      "type": "Feature",
      "properties": {
        "@id": "way/520029160",
        "amenity": "clinic",
        "building": "yes",
        "healthcare": "clinic",
        "healthcare:speciality": "general",
        "name": "Puskesmas Cipaku",
        "operator": "Ministry of Health",
        "operator:en": "Ministry of Health",
        "operator:id": "Kementerian Kesehatan",
        "operator:type": "public",
        "operator:wikidata": "Q12490745"
      },
      "geometry": {
        "type": "Polygon",
        "coordinates": [
          [
            [
              107.6005268,
              -6.8622557
            ],
            [
              107.6004499,
              -6.8622718
            ],
            [
              107.6004848,
              -6.8624356
            ],
            [
              107.6005617,
              -6.8624195
            ],
            [
              107.6005268,
              -6.8622557
            ]
          ]
        ]
      },
      "id": "way/520029160"
    },
    {
      "type": "Feature",
      "properties": {
        "@id": "way/520444909",
        "amenity": "clinic",
        "building": "yes",
        "name": "Klinik Utama Nur Khodijah"
      },
      "geometry": {
        "type": "Polygon",
        "coordinates": [
          [
            [
              107.5742379,
              -6.8307315
            ],
            [
              107.5742398,
              -6.8307841
            ],
            [
              107.5743692,
              -6.8307794
            ],
            [
              107.5743673,
              -6.8307268
            ],
            [
              107.5742379,
              -6.8307315
            ]
          ]
        ]
      },
      "id": "way/520444909"
    },
    {
      "type": "Feature",
      "properties": {
        "@id": "way/520457199",
        "amenity": "clinic",
        "building": "yes",
        "name": "Klinik Katumbiri"
      },
      "geometry": {
        "type": "Polygon",
        "coordinates": [
          [
            [
              107.5739729,
              -6.8349799
            ],
            [
              107.5739538,
              -6.8350401
            ],
            [
              107.5741456,
              -6.8351
            ],
            [
              107.5741647,
              -6.8350398
            ],
            [
              107.5739729,
              -6.8349799
            ]
          ]
        ]
      },
      "id": "way/520457199"
    },
    {
      "type": "Feature",
      "properties": {
        "@id": "way/521278268",
        "amenity": "clinic",
        "building": "yes",
        "name": "Klinik Bidan Indarwati"
      },
      "geometry": {
        "type": "Polygon",
        "coordinates": [
          [
            [
              107.5874001,
              -6.8626139
            ],
            [
              107.5873425,
              -6.8625948
            ],
            [
              107.5873157,
              -6.8626747
            ],
            [
              107.5873733,
              -6.8626937
            ],
            [
              107.5874001,
              -6.8626139
            ]
          ]
        ]
      },
      "id": "way/521278268"
    },
    {
      "type": "Feature",
      "properties": {
        "@id": "way/536382468",
        "amenity": "clinic",
        "building": "yes",
        "name": "Klinik Pratama Widya Bhakti Inti"
      },
      "geometry": {
        "type": "Polygon",
        "coordinates": [
          [
            [
              107.6074891,
              -6.9379686
            ],
            [
              107.6074977,
              -6.9379689
            ],
            [
              107.6074961,
              -6.9380154
            ],
            [
              107.6078177,
              -6.9380265
            ],
            [
              107.6078194,
              -6.9379798
            ],
            [
              107.6078322,
              -6.9379803
            ],
            [
              107.6078365,
              -6.9378581
            ],
            [
              107.6074934,
              -6.9378463
            ],
            [
              107.6074891,
              -6.9379686
            ]
          ]
        ]
      },
      "id": "way/536382468"
    },
    {
      "type": "Feature",
      "properties": {
        "@id": "way/546483829",
        "amenity": "clinic",
        "building": "yes",
        "healthcare": "clinic",
        "name": "Klinik Pratama An Nur"
      },
      "geometry": {
        "type": "Polygon",
        "coordinates": [
          [
            [
              107.5972459,
              -6.8773899
            ],
            [
              107.5972459,
              -6.8775383
            ],
            [
              107.5973384,
              -6.8775383
            ],
            [
              107.5973384,
              -6.8773899
            ],
            [
              107.5972459,
              -6.8773899
            ]
          ]
        ]
      },
      "id": "way/546483829"
    },
    {
      "type": "Feature",
      "properties": {
        "@id": "way/547922933",
        "amenity": "clinic",
        "building": "yes",
        "healthcare": "clinic",
        "name": "Klinik Pratama Yakes Telkom Bandung"
      },
      "geometry": {
        "type": "Polygon",
        "coordinates": [
          [
            [
              107.6195932,
              -6.8999293
            ],
            [
              107.6196002,
              -6.900164
            ],
            [
              107.6197296,
              -6.9001579
            ],
            [
              107.6197249,
              -6.9000432
            ],
            [
              107.6203804,
              -6.9000111
            ],
            [
              107.6203758,
              -6.8998949
            ],
            [
              107.6195932,
              -6.8999293
            ]
          ]
        ]
      },
      "id": "way/547922933"
    },
    {
      "type": "Feature",
      "properties": {
        "@id": "way/548097124",
        "amenity": "clinic",
        "building": "yes",
        "healthcare": "clinic",
        "name": "Bio Fit Laboratorium Klinik Utama"
      },
      "geometry": {
        "type": "Polygon",
        "coordinates": [
          [
            [
              107.6263581,
              -6.9017775
            ],
            [
              107.6263288,
              -6.9017974
            ],
            [
              107.6264043,
              -6.9019189
            ],
            [
              107.6263119,
              -6.9019839
            ],
            [
              107.6263812,
              -6.9020849
            ],
            [
              107.6264428,
              -6.9020405
            ],
            [
              107.6264274,
              -6.9020122
            ],
            [
              107.6265799,
              -6.9019075
            ],
            [
              107.6264366,
              -6.901685
            ],
            [
              107.6263766,
              -6.9017247
            ],
            [
              107.6264289,
              -6.9018104
            ],
            [
              107.6263958,
              -6.9018325
            ],
            [
              107.6263581,
              -6.9017775
            ]
          ]
        ]
      },
      "id": "way/548097124"
    },
    {
      "type": "Feature",
      "properties": {
        "@id": "way/551629721",
        "addr:city": "Cihapit, Bandung Wetan, Bandung, Jawa Barat",
        "addr:postcode": "40114",
        "addr:street": "Jalan Salam",
        "addr:unit": "27",
        "amenity": "clinic",
        "building": "yes",
        "description": "Puskesmas (Pusat Kesehatan Masyarakat) Salam Dinas Kesehatan Kota Bandung",
        "healthcare": "clinic",
        "healthcare:speciality": "general",
        "name": "Puskesmas Salam",
        "opening_hours": "Mo-Fr 08:00-17:00",
        "operator": "Local Government (Dinas Kesehatan Pemerintah Kota Bandung)"
      },
      "geometry": {
        "type": "Polygon",
        "coordinates": [
          [
            [
              107.6298826,
              -6.9098962
            ],
            [
              107.6299535,
              -6.9100003
            ],
            [
              107.6300804,
              -6.9099247
            ],
            [
              107.6300059,
              -6.9098153
            ],
            [
              107.6298826,
              -6.9098962
            ]
          ]
        ]
      },
      "id": "way/551629721"
    },
    {
      "type": "Feature",
      "properties": {
        "@id": "way/570516124",
        "amenity": "clinic",
        "building": "yes",
        "healthcare": "clinic",
        "name": "Seno Medika Klinik"
      },
      "geometry": {
        "type": "Polygon",
        "coordinates": [
          [
            [
              107.6456901,
              -6.9067862
            ],
            [
              107.64576,
              -6.9069567
            ],
            [
              107.6458975,
              -6.9069011
            ],
            [
              107.6458276,
              -6.9067307
            ],
            [
              107.6456901,
              -6.9067862
            ]
          ]
        ]
      },
      "id": "way/570516124"
    },
    {
      "type": "Feature",
      "properties": {
        "@id": "way/632219902",
        "amenity": "clinic",
        "building": "yes",
        "name": "Pengobatan Tradisional Ny Djamilah Najmuddin"
      },
      "geometry": {
        "type": "Polygon",
        "coordinates": [
          [
            [
              107.5854866,
              -6.9234128
            ],
            [
              107.5854908,
              -6.9233985
            ],
            [
              107.5854875,
              -6.9233818
            ],
            [
              107.5854801,
              -6.9233687
            ],
            [
              107.5854812,
              -6.923361
            ],
            [
              107.585289,
              -6.9233777
            ],
            [
              107.5852965,
              -6.9234677
            ],
            [
              107.5853409,
              -6.9234638
            ],
            [
              107.5853427,
              -6.9234566
            ],
            [
              107.5854753,
              -6.923438
            ],
            [
              107.5854779,
              -6.9234436
            ],
            [
              107.5854904,
              -6.9234431
            ],
            [
              107.5854866,
              -6.9234128
            ]
          ]
        ]
      },
      "id": "way/632219902"
    },
    {
      "type": "Feature",
      "properties": {
        "@id": "way/632246851",
        "amenity": "clinic",
        "building": "yes",
        "healthcare": "clinic",
        "name": "Laboratorium Prodia"
      },
      "geometry": {
        "type": "Polygon",
        "coordinates": [
          [
            [
              107.6068158,
              -6.9410419
            ],
            [
              107.606809,
              -6.9409835
            ],
            [
              107.6067082,
              -6.941
            ],
            [
              107.606714,
              -6.9410583
            ],
            [
              107.6068158,
              -6.9410419
            ]
          ]
        ]
      },
      "id": "way/632246851"
    },
    {
      "type": "Feature",
      "properties": {
        "@id": "way/632545353",
        "amenity": "clinic",
        "building": "yes",
        "name": "Klinik Pratama Sahabat Ibu Dan Anak"
      },
      "geometry": {
        "type": "Polygon",
        "coordinates": [
          [
            [
              107.6029544,
              -6.9293602
            ],
            [
              107.6028807,
              -6.9293478
            ],
            [
              107.6028664,
              -6.9293564
            ],
            [
              107.6028625,
              -6.9293726
            ],
            [
              107.6028777,
              -6.9293977
            ],
            [
              107.6029471,
              -6.9294101
            ],
            [
              107.6029544,
              -6.9293602
            ]
          ]
        ]
      },
      "id": "way/632545353"
    },
    {
      "type": "Feature",
      "properties": {
        "@id": "way/632659771",
        "addr:city": "Bandung",
        "addr:housenumber": "147",
        "addr:postcode": "40265",
        "addr:street": "Jalan Buah Batu",
        "amenity": "clinic",
        "building": "yes",
        "healthcare": "clinic",
        "healthcare:speciality": "ophthalmology",
        "name": "Bandung Eye Center",
        "opening_hours": "24/7"
      },
      "geometry": {
        "type": "Polygon",
        "coordinates": [
          [
            [
              107.6242151,
              -6.9374975
            ],
            [
              107.624148,
              -6.9374293
            ],
            [
              107.6241637,
              -6.937414
            ],
            [
              107.6241108,
              -6.9373602
            ],
            [
              107.6240036,
              -6.9374641
            ],
            [
              107.6239388,
              -6.9375269
            ],
            [
              107.6238838,
              -6.9375802
            ],
            [
              107.6238457,
              -6.9376171
            ],
            [
              107.6238666,
              -6.9376383
            ],
            [
              107.6238294,
              -6.9376744
            ],
            [
              107.6238409,
              -6.937686
            ],
            [
              107.6238605,
              -6.937706
            ],
            [
              107.6238533,
              -6.937713
            ],
            [
              107.6238388,
              -6.937727
            ],
            [
              107.6239069,
              -6.9377963
            ],
            [
              107.6239224,
              -6.9377812
            ],
            [
              107.623965,
              -6.9377399
            ],
            [
              107.6240457,
              -6.9376617
            ],
            [
              107.6242151,
              -6.9374975
            ]
          ]
        ]
      },
      "id": "way/632659771"
    },
    {
      "type": "Feature",
      "properties": {
        "@id": "way/632674584",
        "alt_name": "Bandung Heart Clinic",
        "amenity": "clinic",
        "building": "yes",
        "healthcare": "clinic",
        "healthcare:speciality": "cardiology",
        "name": "Klinik Khusus Jantung"
      },
      "geometry": {
        "type": "Polygon",
        "coordinates": [
          [
            [
              107.628452,
              -6.9426884
            ],
            [
              107.6284171,
              -6.9426551
            ],
            [
              107.6284269,
              -6.9426406
            ],
            [
              107.6283696,
              -6.9425849
            ],
            [
              107.6283079,
              -6.9426793
            ],
            [
              107.6284056,
              -6.942779
            ],
            [
              107.628452,
              -6.9426884
            ]
          ]
        ]
      },
      "id": "way/632674584"
    },
    {
      "type": "Feature",
      "properties": {
        "@id": "way/633172710",
        "amenity": "clinic",
        "building": "yes",
        "name": "Puskesmas Kopo"
      },
      "geometry": {
        "type": "Polygon",
        "coordinates": [
          [
            [
              107.5892862,
              -6.9465182
            ],
            [
              107.5892306,
              -6.9464706
            ],
            [
              107.5892111,
              -6.9464932
            ],
            [
              107.5892676,
              -6.9465404
            ],
            [
              107.5892862,
              -6.9465182
            ]
          ]
        ]
      },
      "id": "way/633172710"
    },
    {
      "type": "Feature",
      "properties": {
        "@id": "way/633173165",
        "amenity": "clinic",
        "building": "yes",
        "healthcare": "clinic",
        "name": "Parahita Diagnostic Center"
      },
      "geometry": {
        "type": "Polygon",
        "coordinates": [
          [
            [
              107.5888908,
              -6.9474284
            ],
            [
              107.5888564,
              -6.9474157
            ],
            [
              107.5888902,
              -6.94732
            ],
            [
              107.588725,
              -6.9472489
            ],
            [
              107.5886579,
              -6.9473749
            ],
            [
              107.58864,
              -6.947393
            ],
            [
              107.5886373,
              -6.9474063
            ],
            [
              107.5886474,
              -6.9474252
            ],
            [
              107.5887555,
              -6.947476
            ],
            [
              107.5887474,
              -6.9474978
            ],
            [
              107.5888159,
              -6.9475231
            ],
            [
              107.5888285,
              -6.9474882
            ],
            [
              107.588865,
              -6.9475006
            ],
            [
              107.5888908,
              -6.9474284
            ]
          ]
        ]
      },
      "id": "way/633173165"
    },
    {
      "type": "Feature",
      "properties": {
        "@id": "way/633176605",
        "amenity": "clinic",
        "building": "yes",
        "name": "Bekam Ruqyah Center BRC"
      },
      "geometry": {
        "type": "Polygon",
        "coordinates": [
          [
            [
              107.5954084,
              -6.9480024
            ],
            [
              107.5952729,
              -6.9479859
            ],
            [
              107.5952676,
              -6.9480387
            ],
            [
              107.5952399,
              -6.9480361
            ],
            [
              107.5952367,
              -6.9480641
            ],
            [
              107.5953374,
              -6.948074
            ],
            [
              107.5953388,
              -6.9480611
            ],
            [
              107.5953803,
              -6.9480652
            ],
            [
              107.5953832,
              -6.9480407
            ],
            [
              107.5954045,
              -6.9480425
            ],
            [
              107.5954084,
              -6.9480024
            ]
          ]
        ]
      },
      "id": "way/633176605"
    },
    {
      "type": "Feature",
      "properties": {
        "@id": "way/633176682",
        "amenity": "clinic",
        "building": "yes",
        "name": "Klinik Holistik Estetika"
      },
      "geometry": {
        "type": "Polygon",
        "coordinates": [
          [
            [
              107.6060929,
              -6.9519438
            ],
            [
              107.6060955,
              -6.9519059
            ],
            [
              107.6060156,
              -6.9518991
            ],
            [
              107.606019,
              -6.9518322
            ],
            [
              107.605968,
              -6.9518283
            ],
            [
              107.6059695,
              -6.9518054
            ],
            [
              107.605915,
              -6.951802
            ],
            [
              107.6059131,
              -6.9518249
            ],
            [
              107.6058676,
              -6.9518214
            ],
            [
              107.6058605,
              -6.9519064
            ],
            [
              107.6058877,
              -6.9519091
            ],
            [
              107.6058861,
              -6.9519272
            ],
            [
              107.6060929,
              -6.9519438
            ]
          ]
        ]
      },
      "id": "way/633176682"
    },
    {
      "type": "Feature",
      "properties": {
        "@id": "way/633491798",
        "amenity": "clinic",
        "building": "yes",
        "healthcare": "clinic",
        "name": "Klinik Utama Barokah"
      },
      "geometry": {
        "type": "Polygon",
        "coordinates": [
          [
            [
              107.6384361,
              -6.9514994
            ],
            [
              107.6383869,
              -6.9514871
            ],
            [
              107.638365,
              -6.9515761
            ],
            [
              107.6383308,
              -6.9515684
            ],
            [
              107.6383163,
              -6.9516243
            ],
            [
              107.6384006,
              -6.9516438
            ],
            [
              107.6384361,
              -6.9514994
            ]
          ]
        ]
      },
      "id": "way/633491798"
    },
    {
      "type": "Feature",
      "properties": {
        "@id": "way/633737623",
        "amenity": "clinic",
        "building": "yes",
        "name": "Klinik Khitanan Paramedika"
      },
      "geometry": {
        "type": "Polygon",
        "coordinates": [
          [
            [
              107.5775524,
              -6.9332909
            ],
            [
              107.5772839,
              -6.9332432
            ],
            [
              107.5772436,
              -6.9332544
            ],
            [
              107.5772412,
              -6.9332795
            ],
            [
              107.5772604,
              -6.9332882
            ],
            [
              107.5772583,
              -6.9333127
            ],
            [
              107.5773471,
              -6.9334567
            ],
            [
              107.5773358,
              -6.9335036
            ],
            [
              107.5774723,
              -6.9335386
            ],
            [
              107.5775524,
              -6.9332909
            ]
          ]
        ]
      },
      "id": "way/633737623"
    },
    {
      "type": "Feature",
      "properties": {
        "@id": "way/634313204",
        "amenity": "clinic",
        "building": "yes",
        "name": "Klinik Pratama Gempol"
      },
      "geometry": {
        "type": "Polygon",
        "coordinates": [
          [
            [
              107.5632699,
              -6.932431
            ],
            [
              107.563189,
              -6.9323918
            ],
            [
              107.5631312,
              -6.9325358
            ],
            [
              107.5632057,
              -6.9325689
            ],
            [
              107.5632699,
              -6.932431
            ]
          ]
        ]
      },
      "id": "way/634313204"
    },
    {
      "type": "Feature",
      "properties": {
        "@id": "way/634501013",
        "amenity": "clinic",
        "building": "yes",
        "healthcare": "clinic",
        "layer": "1",
        "name": "Puskesmas Cijerah",
        "operator": "Ministry of Health",
        "operator:en": "Ministry of Health",
        "operator:id": "Kementerian Kesehatan",
        "operator:wikidata": "Q12490745"
      },
      "geometry": {
        "type": "Polygon",
        "coordinates": [
          [
            [
              107.5667527,
              -6.92151
            ],
            [
              107.5667623,
              -6.9214712
            ],
            [
              107.5667292,
              -6.921464
            ],
            [
              107.5667204,
              -6.9215119
            ],
            [
              107.5666816,
              -6.9215043
            ],
            [
              107.5666829,
              -6.9214926
            ],
            [
              107.5666544,
              -6.9214888
            ],
            [
              107.5666534,
              -6.9214957
            ],
            [
              107.5666222,
              -6.9214917
            ],
            [
              107.5666037,
              -6.9216101
            ],
            [
              107.5667162,
              -6.9216378
            ],
            [
              107.5667527,
              -6.92151
            ]
          ]
        ]
      },
      "id": "way/634501013"
    },
    {
      "type": "Feature",
      "properties": {
        "@id": "way/635545010",
        "access:roof": "no",
        "amenity": "clinic",
        "building": "yes",
        "building:levels": "1",
        "building:roof": "tile",
        "building:structure": "plastered",
        "building:walls": "brick",
        "capacity": "10",
        "name": "Pustu Jayagiri",
        "operator:type": "government"
      },
      "geometry": {
        "type": "Polygon",
        "coordinates": [
          [
            [
              107.5989309,
              -6.8371422
            ],
            [
              107.598892,
              -6.8372102
            ],
            [
              107.5989479,
              -6.8372417
            ],
            [
              107.5989868,
              -6.8371738
            ],
            [
              107.5989309,
              -6.8371422
            ]
          ]
        ]
      },
      "id": "way/635545010"
    },
    {
      "type": "Feature",
      "properties": {
        "@id": "way/635849940",
        "access:roof": "no",
        "addr:full": "Jl Kol Masturi",
        "amenity": "clinic",
        "building": "yes",
        "building:levels": "1",
        "building:roof": "tile",
        "building:structure": "plastered",
        "building:walls": "brick",
        "capacity": "20",
        "name": "Posyandu RW 17",
        "operator:type": "government"
      },
      "geometry": {
        "type": "Polygon",
        "coordinates": [
          [
            [
              107.5535506,
              -6.8308207
            ],
            [
              107.5535199,
              -6.8309189
            ],
            [
              107.5536152,
              -6.8309482
            ],
            [
              107.5536458,
              -6.83085
            ],
            [
              107.5535506,
              -6.8308207
            ]
          ]
        ]
      },
      "id": "way/635849940"
    },
    {
      "type": "Feature",
      "properties": {
        "@id": "way/635914300",
        "amenity": "clinic",
        "building": "yes",
        "healthcare": "clinic",
        "name": "Puskesmas Citarip",
        "operator": "Ministry of Health",
        "operator:en": "Ministry of Health",
        "operator:id": "Kementerian Kesehatan",
        "operator:wikidata": "Q12490745"
      },
      "geometry": {
        "type": "Polygon",
        "coordinates": [
          [
            [
              107.5884485,
              -6.9383214
            ],
            [
              107.5884435,
              -6.9383042
            ],
            [
              107.5884764,
              -6.9382932
            ],
            [
              107.5884656,
              -6.9382544
            ],
            [
              107.5884262,
              -6.9382548
            ],
            [
              107.5882977,
              -6.9382905
            ],
            [
              107.5883169,
              -6.9383579
            ],
            [
              107.5883425,
              -6.9383513
            ],
            [
              107.5883554,
              -6.9383992
            ],
            [
              107.5883729,
              -6.9383944
            ],
            [
              107.5884286,
              -6.9383784
            ],
            [
              107.5884161,
              -6.9383311
            ],
            [
              107.5884485,
              -6.9383214
            ]
          ]
        ]
      },
      "id": "way/635914300"
    },
    {
      "type": "Feature",
      "properties": {
        "@id": "way/636423360",
        "amenity": "clinic",
        "building": "yes",
        "name": "London Beauty Center"
      },
      "geometry": {
        "type": "Polygon",
        "coordinates": [
          [
            [
              107.6271353,
              -6.924548
            ],
            [
              107.6270313,
              -6.9245207
            ],
            [
              107.6270003,
              -6.9246497
            ],
            [
              107.6270133,
              -6.9246531
            ],
            [
              107.6270031,
              -6.9246887
            ],
            [
              107.6270651,
              -6.9246994
            ],
            [
              107.6270821,
              -6.9246388
            ],
            [
              107.6271071,
              -6.9246432
            ],
            [
              107.6271353,
              -6.924548
            ]
          ]
        ]
      },
      "id": "way/636423360"
    },
    {
      "type": "Feature",
      "properties": {
        "@id": "way/638394868",
        "amenity": "clinic",
        "building": "yes",
        "healthcare": "clinic",
        "name": "Puskesmas Sukawarna",
        "operator": "Ministry of Health",
        "operator:en": "Ministry of Health",
        "operator:id": "Kementerian Kesehatan",
        "operator:wikidata": "Q12490745"
      },
      "geometry": {
        "type": "Polygon",
        "coordinates": [
          [
            [
              107.5793878,
              -6.8857212
            ],
            [
              107.5793265,
              -6.8856953
            ],
            [
              107.5792766,
              -6.8858044
            ],
            [
              107.5793352,
              -6.8858294
            ],
            [
              107.5793878,
              -6.8857212
            ]
          ]
        ]
      },
      "id": "way/638394868"
    },
    {
      "type": "Feature",
      "properties": {
        "@id": "way/638469075",
        "amenity": "clinic",
        "building": "yes",
        "name": "Bidan Tini Hartini"
      },
      "geometry": {
        "type": "Polygon",
        "coordinates": [
          [
            [
              107.592266,
              -6.8883327
            ],
            [
              107.5921855,
              -6.8883417
            ],
            [
              107.5921883,
              -6.8883724
            ],
            [
              107.5921636,
              -6.8883752
            ],
            [
              107.5921719,
              -6.8884482
            ],
            [
              107.5922233,
              -6.8884453
            ],
            [
              107.5922241,
              -6.8884582
            ],
            [
              107.5922805,
              -6.8884519
            ],
            [
              107.592266,
              -6.8883327
            ]
          ]
        ]
      },
      "id": "way/638469075"
    },
    {
      "type": "Feature",
      "properties": {
        "@id": "way/639146425",
        "amenity": "clinic",
        "building": "yes",
        "healthcare": "clinic",
        "name": "Klinik Famili Sehat"
      },
      "geometry": {
        "type": "Polygon",
        "coordinates": [
          [
            [
              107.6472256,
              -6.9220876
            ],
            [
              107.6471146,
              -6.9220658
            ],
            [
              107.647105,
              -6.9221092
            ],
            [
              107.6472168,
              -6.9221331
            ],
            [
              107.6472256,
              -6.9220876
            ]
          ]
        ]
      },
      "id": "way/639146425"
    },
    {
      "type": "Feature",
      "properties": {
        "@id": "way/639216551",
        "amenity": "clinic",
        "building": "yes",
        "name": "Klinik Yaska Medika"
      },
      "geometry": {
        "type": "Polygon",
        "coordinates": [
          [
            [
              107.6507409,
              -6.9290816
            ],
            [
              107.6506792,
              -6.9290787
            ],
            [
              107.6506734,
              -6.9291587
            ],
            [
              107.6507372,
              -6.9291633
            ],
            [
              107.6507409,
              -6.9290816
            ]
          ]
        ]
      },
      "id": "way/639216551"
    },
    {
      "type": "Feature",
      "properties": {
        "@id": "way/640438521",
        "amenity": "clinic",
        "building": "yes",
        "healthcare": "clinic",
        "name": "Puskesmas Padasuka",
        "operator": "Ministry of Health",
        "operator:en": "Ministry of Health",
        "operator:id": "Kementerian Kesehatan",
        "operator:wikidata": "Q12490745"
      },
      "geometry": {
        "type": "Polygon",
        "coordinates": [
          [
            [
              107.6533076,
              -6.9030582
            ],
            [
              107.65327,
              -6.9030467
            ],
            [
              107.6532775,
              -6.9030224
            ],
            [
              107.6531643,
              -6.9029878
            ],
            [
              107.6531235,
              -6.9031211
            ],
            [
              107.6532391,
              -6.9031565
            ],
            [
              107.6532607,
              -6.9030861
            ],
            [
              107.6532958,
              -6.9030969
            ],
            [
              107.6533076,
              -6.9030582
            ]
          ]
        ]
      },
      "id": "way/640438521"
    },
    {
      "type": "Feature",
      "properties": {
        "@id": "way/640450030",
        "amenity": "clinic",
        "building": "yes",
        "healthcare": "clinic",
        "name": "Klinik Utama Medika Antapani"
      },
      "geometry": {
        "type": "Polygon",
        "coordinates": [
          [
            [
              107.6520242,
              -6.9137236
            ],
            [
              107.6519954,
              -6.9136524
            ],
            [
              107.651906,
              -6.9136939
            ],
            [
              107.6519094,
              -6.9137019
            ],
            [
              107.6518948,
              -6.9137071
            ],
            [
              107.6519084,
              -6.9137485
            ],
            [
              107.6520242,
              -6.9137236
            ]
          ]
        ]
      },
      "id": "way/640450030"
    },
    {
      "type": "Feature",
      "properties": {
        "@id": "way/782977309",
        "addr:city": "Kota Bandung",
        "addr:full": "Jalan Halmahera No.2, Citarum, Kec. Bandung Wetan, Kota Bandung, Jawa Barat 40115",
        "amenity": "clinic",
        "healthcare": "clinic",
        "name": "Poliklinik Halmahera",
        "operator:type": "private"
      },
      "geometry": {
        "type": "Polygon",
        "coordinates": [
          [
            [
              107.6157949,
              -6.907379
            ],
            [
              107.6158997,
              -6.9076663
            ],
            [
              107.6161878,
              -6.9075628
            ],
            [
              107.616083,
              -6.9072755
            ],
            [
              107.6157949,
              -6.907379
            ]
          ]
        ]
      },
      "id": "way/782977309"
    },
    {
      "type": "Feature",
      "properties": {
        "@id": "way/782977315",
        "addr:city": "Kota Bandung",
        "addr:full": "Jalan Halmahera No.8, Citarum, Kec. Bandung Wetan, Kota Bandung, Jawa Barat 40115",
        "amenity": "clinic",
        "healthcare": "clinic",
        "name": "Klinik Utama Perisai Husada",
        "operator:type": "private"
      },
      "geometry": {
        "type": "Polygon",
        "coordinates": [
          [
            [
              107.6156227,
              -6.9069807
            ],
            [
              107.6157642,
              -6.9073733
            ],
            [
              107.6161187,
              -6.9072335
            ],
            [
              107.6160824,
              -6.9071427
            ],
            [
              107.6161491,
              -6.9071164
            ],
            [
              107.6160855,
              -6.9069576
            ],
            [
              107.6160389,
              -6.906976
            ],
            [
              107.6159891,
              -6.9068516
            ],
            [
              107.6156227,
              -6.9069807
            ]
          ]
        ]
      },
      "id": "way/782977315"
    },
    {
      "type": "Feature",
      "properties": {
        "@id": "way/856605945",
        "amenity": "clinic",
        "building": "yes",
        "healthcare": "clinic",
        "name": "Puskesmas Cangkuang"
      },
      "geometry": {
        "type": "Polygon",
        "coordinates": [
          [
            [
              107.5904484,
              -6.9729348
            ],
            [
              107.5905235,
              -6.9729414
            ],
            [
              107.5905271,
              -6.9729016
            ],
            [
              107.590452,
              -6.9728949
            ],
            [
              107.5904484,
              -6.9729348
            ]
          ]
        ]
      },
      "id": "way/856605945"
    },
    {
      "type": "Feature",
      "properties": {
        "@id": "way/859081134",
        "amenity": "clinic",
        "building": "yes",
        "healthcare": "clinic",
        "name": "Klinik Pratama Sehat Sejahtera"
      },
      "geometry": {
        "type": "Polygon",
        "coordinates": [
          [
            [
              107.5629866,
              -6.9637123
            ],
            [
              107.5630497,
              -6.9636038
            ],
            [
              107.5629753,
              -6.9635612
            ],
            [
              107.5629122,
              -6.9636697
            ],
            [
              107.5629866,
              -6.9637123
            ]
          ]
        ]
      },
      "id": "way/859081134"
    },
    {
      "type": "Feature",
      "properties": {
        "@id": "way/1052970145",
        "amenity": "clinic",
        "building": "yes",
        "healthcare": "clinic",
        "name": "Klinik Utama CMI"
      },
      "geometry": {
        "type": "Polygon",
        "coordinates": [
          [
            [
              107.6189853,
              -6.8826777
            ],
            [
              107.6189842,
              -6.882755
            ],
            [
              107.6191934,
              -6.8827528
            ],
            [
              107.6191875,
              -6.8826788
            ],
            [
              107.6189853,
              -6.8826777
            ]
          ]
        ]
      },
      "id": "way/1052970145"
    },
    {
      "type": "Feature",
      "properties": {
        "@id": "way/1052970146",
        "amenity": "clinic",
        "building": "yes",
        "healthcare": "clinic"
      },
      "geometry": {
        "type": "Polygon",
        "coordinates": [
          [
            [
              107.6189853,
              -6.8826777
            ],
            [
              107.6189617,
              -6.8826767
            ],
            [
              107.6189607,
              -6.8827458
            ],
            [
              107.618959,
              -6.8827976
            ],
            [
              107.6189826,
              -6.8828002
            ],
            [
              107.6189842,
              -6.882755
            ],
            [
              107.6189853,
              -6.8826777
            ]
          ]
        ]
      },
      "id": "way/1052970146"
    },
    {
      "type": "Feature",
      "properties": {
        "@id": "way/1081666064",
        "amenity": "clinic",
        "building": "hospital",
        "healthcare": "clinic",
        "healthcare:speciality": "general",
        "name": "Puskesmas Cimahi Utara",
        "official_name": "Pusat Kesehatan Masyarakat Cimahi Utara"
      },
      "geometry": {
        "type": "Polygon",
        "coordinates": [
          [
            [
              107.5565312,
              -6.8740832
            ],
            [
              107.5564828,
              -6.8741789
            ],
            [
              107.5565533,
              -6.8742141
            ],
            [
              107.5565256,
              -6.8742687
            ],
            [
              107.5565751,
              -6.8742934
            ],
            [
              107.5566512,
              -6.8741431
            ],
            [
              107.5565312,
              -6.8740832
            ]
          ]
        ]
      },
      "id": "way/1081666064"
    },
    {
      "type": "Feature",
      "properties": {
        "@id": "way/1293330082",
        "addr:street": "Jalan Karapitan",
        "amenity": "clinic",
        "building": "yes",
        "name": "N-Lab Klinik Keluarga",
        "opening_hours": "24/7"
      },
      "geometry": {
        "type": "Polygon",
        "coordinates": [
          [
            [
              107.6159032,
              -6.9302903
            ],
            [
              107.6159353,
              -6.9301726
            ],
            [
              107.6157912,
              -6.9301339
            ],
            [
              107.6157886,
              -6.9301332
            ],
            [
              107.6157565,
              -6.930251
            ],
            [
              107.6157618,
              -6.9302524
            ],
            [
              107.6159032,
              -6.9302903
            ]
          ]
        ]
      },
      "id": "way/1293330082"
    },
    {
      "type": "Feature",
      "properties": {
        "@id": "way/1293422276",
        "amenity": "clinic",
        "building": "yes",
        "name": "Klinik Utama Oratio Fide"
      },
      "geometry": {
        "type": "Polygon",
        "coordinates": [
          [
            [
              107.5990392,
              -6.9063358
            ],
            [
              107.5989632,
              -6.9063392
            ],
            [
              107.5989505,
              -6.9060573
            ],
            [
              107.5988303,
              -6.9060626
            ],
            [
              107.5988477,
              -6.9064513
            ],
            [
              107.5989008,
              -6.906449
            ],
            [
              107.5989009,
              -6.9064503
            ],
            [
              107.599057,
              -6.9064434
            ],
            [
              107.5992125,
              -6.9063142
            ],
            [
              107.5991519,
              -6.9062423
            ],
            [
              107.5990392,
              -6.9063358
            ]
          ]
        ]
      },
      "id": "way/1293422276"
    },
    {
      "type": "Feature",
      "properties": {
        "@id": "way/1414425498",
        "amenity": "clinic",
        "building": "yes",
        "healthcare": "clinic",
        "name": "Netra Klinik Spesialis Mata"
      },
      "geometry": {
        "type": "Polygon",
        "coordinates": [
          [
            [
              107.6307439,
              -6.9082876
            ],
            [
              107.6305363,
              -6.9084267
            ],
            [
              107.6306268,
              -6.90856
            ],
            [
              107.6308345,
              -6.908421
            ],
            [
              107.6307439,
              -6.9082876
            ]
          ]
        ]
      },
      "id": "way/1414425498"
    },
    {
      "type": "Feature",
      "properties": {
        "@id": "way/1436914493",
        "amenity": "clinic",
        "building": "yes",
        "healthcare": "clinic",
        "name": "Posyandu Merak",
        "operator": "Posyandu",
        "operator:wikidata": "Q12506263"
      },
      "geometry": {
        "type": "Polygon",
        "coordinates": [
          [
            [
              107.6701697,
              -6.9251207
            ],
            [
              107.6701387,
              -6.9251091
            ],
            [
              107.6701363,
              -6.9251156
            ],
            [
              107.6701162,
              -6.9251081
            ],
            [
              107.6700929,
              -6.9251697
            ],
            [
              107.6701129,
              -6.9251772
            ],
            [
              107.670109,
              -6.9251874
            ],
            [
              107.67014,
              -6.925199
            ],
            [
              107.6701697,
              -6.9251207
            ]
          ]
        ]
      },
      "id": "way/1436914493"
    },
    {
      "type": "Feature",
      "properties": {
        "@id": "way/1467745409",
        "amenity": "clinic",
        "building": "yes",
        "healthcare": "clinic",
        "name": "Puskesmas Balai Kota Bandung",
        "operator": "Ministry of Health",
        "operator:en": "Ministry of Health",
        "operator:id": "Kementerian Kesehatan",
        "operator:type": "government",
        "operator:wikidata": "Q12490745"
      },
      "geometry": {
        "type": "Polygon",
        "coordinates": [
          [
            [
              107.6102349,
              -6.9121684
            ],
            [
              107.6102218,
              -6.9124059
            ],
            [
              107.6102935,
              -6.9124098
            ],
            [
              107.6103065,
              -6.9121723
            ],
            [
              107.6102349,
              -6.9121684
            ]
          ]
        ]
      },
      "id": "way/1467745409"
    },
    {
      "type": "Feature",
      "properties": {
        "@id": "way/1547319918",
        "amenity": "clinic",
        "healthcare": "clinic",
        "landuse": "healthcare",
        "name": "Puskesmas Ahmad Yani",
        "operator": "Ministry of Health",
        "operator:en": "Ministry of Health",
        "operator:id": "Kementerian Kesehatan",
        "operator:type": "government",
        "operator:wikidata": "Q12490745"
      },
      "geometry": {
        "type": "Polygon",
        "coordinates": [
          [
            [
              107.6343092,
              -6.9143852
            ],
            [
              107.6342491,
              -6.9146812
            ],
            [
              107.6345665,
              -6.9147446
            ],
            [
              107.6346265,
              -6.9144487
            ],
            [
              107.6343092,
              -6.9143852
            ]
          ]
        ]
      },
      "id": "way/1547319918"
    },
    {
      "type": "Feature",
      "properties": {
        "@id": "node/2134510103",
        "amenity": "clinic",
        "healthcare": "clinic",
        "name": "Puskesmas Astana Anyar",
        "operator": "Ministry of Health",
        "operator:en": "Ministry of Health",
        "operator:id": "Kementerian Kesehatan",
        "operator:type": "government",
        "operator:wikidata": "Q12490745"
      },
      "geometry": {
        "type": "Point",
        "coordinates": [
          107.6004821,
          -6.9293073
        ]
      },
      "id": "node/2134510103"
    },
    {
      "type": "Feature",
      "properties": {
        "@id": "node/3807746629",
        "amenity": "clinic",
        "name": "Klinik Abinaya",
        "name:en": "Abinaya"
      },
      "geometry": {
        "type": "Point",
        "coordinates": [
          107.6207149,
          -6.8684168
        ]
      },
      "id": "node/3807746629"
    },
    {
      "type": "Feature",
      "properties": {
        "@id": "node/3834119157",
        "amenity": "clinic",
        "emergency": "no",
        "healthcare": "clinic",
        "name": "Puskesmas Bojongsoang",
        "phone": "+62 22 154443",
        "toilets:wheelchair": "no",
        "wheelchair": "yes"
      },
      "geometry": {
        "type": "Point",
        "coordinates": [
          107.6354167,
          -6.9694356
        ]
      },
      "id": "node/3834119157"
    },
    {
      "type": "Feature",
      "properties": {
        "@id": "node/4143009216",
        "addr:street": "Jalan Terusan Jakarta",
        "amenity": "clinic",
        "name": "BRATACO"
      },
      "geometry": {
        "type": "Point",
        "coordinates": [
          107.6442248,
          -6.9138207
        ]
      },
      "id": "node/4143009216"
    },
    {
      "type": "Feature",
      "properties": {
        "@id": "node/4183062790",
        "addr:housenumber": "135",
        "addr:street": "Jalan R.E. Martadinata",
        "amenity": "clinic",
        "healthcare": "clinic",
        "name": "Laboratorium Klinik PRAMITA",
        "opening_hours": "Mo-Su 06:00-21:00"
      },
      "geometry": {
        "type": "Point",
        "coordinates": [
          107.6245418,
          -6.9083321
        ]
      },
      "id": "node/4183062790"
    },
    {
      "type": "Feature",
      "properties": {
        "@id": "node/4327148989",
        "addr:city": "Bandung",
        "addr:housenumber": "1",
        "addr:street": "Jl. Terusan Perintis, Sarijadi, Sukasari",
        "amenity": "clinic",
        "name": "Klinik Global medika"
      },
      "geometry": {
        "type": "Point",
        "coordinates": [
          107.5748257,
          -6.8818506
        ]
      },
      "id": "node/4327148989"
    },
    {
      "type": "Feature",
      "properties": {
        "@id": "node/4368910171",
        "amenity": "clinic",
        "name": "Natasha Skin Care"
      },
      "geometry": {
        "type": "Point",
        "coordinates": [
          107.6278431,
          -6.9031498
        ]
      },
      "id": "node/4368910171"
    },
    {
      "type": "Feature",
      "properties": {
        "@id": "node/4447676790",
        "amenity": "clinic",
        "name": "Poliklinik Telkom University"
      },
      "geometry": {
        "type": "Point",
        "coordinates": [
          107.6293418,
          -6.9734055
        ]
      },
      "id": "node/4447676790"
    },
    {
      "type": "Feature",
      "properties": {
        "@id": "node/5141381724",
        "amenity": "clinic",
        "name": "klinik sukagalih"
      },
      "geometry": {
        "type": "Point",
        "coordinates": [
          107.5910247,
          -6.8922383
        ]
      },
      "id": "node/5141381724"
    },
    {
      "type": "Feature",
      "properties": {
        "@id": "node/5269471536",
        "addr:city": "Bandung",
        "addr:housenumber": "245",
        "addr:postcode": "40264",
        "addr:street": "Jalan Buah Batu",
        "amenity": "clinic",
        "healthcare": "clinic",
        "name": "Jaya Abadi",
        "phone": "+62 22 7311012"
      },
      "geometry": {
        "type": "Point",
        "coordinates": [
          107.6306917,
          -6.9450171
        ]
      },
      "id": "node/5269471536"
    },
    {
      "type": "Feature",
      "properties": {
        "@id": "node/6141666686",
        "amenity": "clinic",
        "healthcare": "clinic",
        "name": "Puskesmas Sekeloa",
        "operator": "Ministry of Health",
        "operator:en": "Ministry of Health",
        "operator:id": "Kementerian Kesehatan",
        "operator:type": "government",
        "operator:wikidata": "Q12490745"
      },
      "geometry": {
        "type": "Point",
        "coordinates": [
          107.6168415,
          -6.8896755
        ]
      },
      "id": "node/6141666686"
    },
    {
      "type": "Feature",
      "properties": {
        "@id": "node/6602504766",
        "amenity": "clinic",
        "name": "Biotest"
      },
      "geometry": {
        "type": "Point",
        "coordinates": [
          107.6123773,
          -6.9200484
        ]
      },
      "id": "node/6602504766"
    },
    {
      "type": "Feature",
      "properties": {
        "@id": "node/9499882442",
        "amenity": "clinic",
        "branch": "Merpati",
        "healthcare": "clinic",
        "name": "Posyandu",
        "operator": "Posyandu",
        "operator:type": "private",
        "operator:wikidata": "Q12506263",
        "operator:wikipedia": "id:Pos Pelayanan Terpadu"
      },
      "geometry": {
        "type": "Point",
        "coordinates": [
          107.5789097,
          -6.8774598
        ]
      },
      "id": "node/9499882442"
    },
    {
      "type": "Feature",
      "properties": {
        "@id": "node/9803296366",
        "amenity": "clinic",
        "healthcare": "clinic",
        "name": "UPT Puskesmas Cipamokolan",
        "operator": "Ministry of Health",
        "operator:en": "Ministry of Health",
        "operator:id": "Kementerian Kesehatan",
        "operator:wikidata": "Q12490745"
      },
      "geometry": {
        "type": "Point",
        "coordinates": [
          107.6763636,
          -6.9470279
        ]
      },
      "id": "node/9803296366"
    },
    {
      "type": "Feature",
      "properties": {
        "@id": "node/9803571420",
        "amenity": "clinic",
        "name": "Klinik Kasih Bunda Cimahi"
      },
      "geometry": {
        "type": "Point",
        "coordinates": [
          107.543727,
          -6.9017676
        ]
      },
      "id": "node/9803571420"
    },
    {
      "type": "Feature",
      "properties": {
        "@id": "node/9805709718",
        "amenity": "clinic",
        "name": "Klinik Luhur Medika"
      },
      "geometry": {
        "type": "Point",
        "coordinates": [
          107.5497647,
          -6.8777933
        ]
      },
      "id": "node/9805709718"
    },
    {
      "type": "Feature",
      "properties": {
        "@id": "node/9805977362",
        "amenity": "clinic",
        "healthcare": "clinic",
        "name": "Klinik Cijambe 24",
        "opening_hours": "24/7",
        "operator": "Dr Adib Gunawan",
        "operator:type": "private"
      },
      "geometry": {
        "type": "Point",
        "coordinates": [
          107.6907945,
          -6.9089943
        ]
      },
      "id": "node/9805977362"
    },
    {
      "type": "Feature",
      "properties": {
        "@id": "node/9807650791",
        "amenity": "clinic",
        "healthcare": "clinic",
        "name": "Klinik Utama Elim"
      },
      "geometry": {
        "type": "Point",
        "coordinates": [
          107.5971803,
          -6.9198677
        ]
      },
      "id": "node/9807650791"
    },
    {
      "type": "Feature",
      "properties": {
        "@id": "node/9807996981",
        "amenity": "clinic",
        "healthcare": "clinic",
        "name": "Puskesmas Pagarsih",
        "operator": "Ministry of Health",
        "operator:en": "Ministry of Health",
        "operator:id": "Kementerian Kesehatan",
        "operator:wikidata": "Q12490745"
      },
      "geometry": {
        "type": "Point",
        "coordinates": [
          107.5930739,
          -6.9227492
        ]
      },
      "id": "node/9807996981"
    },
    {
      "type": "Feature",
      "properties": {
        "@id": "node/9813577059",
        "amenity": "clinic",
        "healthcare": "clinic",
        "name": "Klinik Jasmine MQ Medika"
      },
      "geometry": {
        "type": "Point",
        "coordinates": [
          107.6117787,
          -6.8867752
        ]
      },
      "id": "node/9813577059"
    },
    {
      "type": "Feature",
      "properties": {
        "@id": "node/9816118322",
        "amenity": "clinic",
        "healthcare": "clinic",
        "name": "Klinik Pratama Amanah"
      },
      "geometry": {
        "type": "Point",
        "coordinates": [
          107.6775519,
          -6.9048642
        ]
      },
      "id": "node/9816118322"
    },
    {
      "type": "Feature",
      "properties": {
        "@id": "node/9816147357",
        "amenity": "clinic",
        "healthcare": "clinic",
        "name": "Klinik Mutiara Cikutra"
      },
      "geometry": {
        "type": "Point",
        "coordinates": [
          107.643322,
          -6.9003623
        ]
      },
      "id": "node/9816147357"
    },
    {
      "type": "Feature",
      "properties": {
        "@id": "node/9816158890",
        "amenity": "clinic",
        "healthcare": "birthing_centre",
        "name": "Klinik Bidan Oon R. Herawan, M.Keb"
      },
      "geometry": {
        "type": "Point",
        "coordinates": [
          107.639416,
          -6.9032552
        ]
      },
      "id": "node/9816158890"
    },
    {
      "type": "Feature",
      "properties": {
        "@id": "node/9816252382",
        "amenity": "clinic",
        "healthcare": "clinic",
        "name": "Revital Clinic Progo"
      },
      "geometry": {
        "type": "Point",
        "coordinates": [
          107.618761,
          -6.9044846
        ]
      },
      "id": "node/9816252382"
    },
    {
      "type": "Feature",
      "properties": {
        "@id": "node/9817166577",
        "amenity": "clinic",
        "healthcare": "clinic",
        "name": "Puskesmas Arcamanik"
      },
      "geometry": {
        "type": "Point",
        "coordinates": [
          107.6786845,
          -6.9145472
        ]
      },
      "id": "node/9817166577"
    },
    {
      "type": "Feature",
      "properties": {
        "@id": "node/9817170890",
        "amenity": "clinic",
        "healthcare": "clinic",
        "name": "Puskesmas Cibeureum"
      },
      "geometry": {
        "type": "Point",
        "coordinates": [
          107.5625614,
          -6.9005828
        ]
      },
      "id": "node/9817170890"
    },
    {
      "type": "Feature",
      "properties": {
        "@id": "node/10006417945",
        "amenity": "clinic",
        "name": "Puskesmas Melong Asih"
      },
      "geometry": {
        "type": "Point",
        "coordinates": [
          107.563141,
          -6.9239086
        ]
      },
      "id": "node/10006417945"
    },
    {
      "type": "Feature",
      "properties": {
        "@id": "node/11989416151",
        "amenity": "clinic",
        "name": "Clafidsya Aesthetic Clinic"
      },
      "geometry": {
        "type": "Point",
        "coordinates": [
          107.6160722,
          -6.9296213
        ]
      },
      "id": "node/11989416151"
    },
    {
      "type": "Feature",
      "properties": {
        "@id": "node/11990122200",
        "amenity": "clinic",
        "name": "Klinik Kimia Farma"
      },
      "geometry": {
        "type": "Point",
        "coordinates": [
          107.6032083,
          -6.9072528
        ]
      },
      "id": "node/11990122200"
    },
    {
      "type": "Feature",
      "properties": {
        "@id": "node/13049492463",
        "amenity": "clinic",
        "healthcare": "clinic",
        "name": "Puskesmas Pasirkaliki"
      },
      "geometry": {
        "type": "Point",
        "coordinates": [
          107.5976838,
          -6.9005782
        ]
      },
      "id": "node/13049492463"
    },
    {
      "type": "Feature",
      "properties": {
        "@id": "node/13234055442",
        "addr:city": "Kabupaten Bandung",
        "addr:district": "Margahayu",
        "addr:housename": "Klinik Medika Pratama",
        "addr:housenumber": "76",
        "addr:neighbourhood": "RT.08/RW.10",
        "addr:postcode": "40226",
        "addr:province": "Jawa Barat",
        "addr:street": "Jalan Manglid",
        "addr:subdistrict": "Margahayu Selatan",
        "amenity": "clinic",
        "check_date": "2025-10-28",
        "contact:instagram": "klinik.medikapratama.manglid",
        "contact:whatsapp": "+628112320927",
        "healthcare": "clinic",
        "healthcare:speciality": "general",
        "name": "Klinik Medika Pratama Manglid",
        "name:id": "Klinik Medika Pratama Manglid",
        "opening_hours": "Mo-Su 07:00-13:00,15:30-21:00",
        "payment:cash": "yes",
        "payment:credit_cards": "yes",
        "payment:debit_cards": "yes",
        "toilets": "yes",
        "wheelchair": "designated"
      },
      "geometry": {
        "type": "Point",
        "coordinates": [
          107.5691746,
          -6.9696733
        ]
      },
      "id": "node/13234055442"
    },
    {
      "type": "Feature",
      "properties": {
        "@id": "node/13251153526",
        "addr:country": "ID",
        "addr:county": "Kabupaten Bandung",
        "addr:district": "Margaasih",
        "addr:housename": "Allive Clinic | Klinik Pratama Allive",
        "addr:housenumber": "17",
        "addr:postcode": "40218",
        "addr:province": "Jawa Barat",
        "addr:street": "Jalan Pinewood Soho 17 Taman Kopo Indah V",
        "addr:unit": "Soho, Taman Kopo Indah V",
        "addr:village": "Rahayu",
        "air_conditioning": "yes",
        "amenity": "clinic",
        "check_date": "2026-04-29",
        "contact:facebook": "people/Allive-Clinic/61550783168001",
        "contact:instagram": "allive.clinic",
        "contact:threads": "allive.clinic",
        "contact:tiktok": "allive.clinic",
        "contact:whatsapp": "+6285195888885",
        "contact:youtube": "alliveclinic",
        "description": "Allive Clinic merupakan klinik yang menghadirkan layanan terpadu untuk kesehatan kulit dan keluarga. Kami menyediakan perawatan wajah & tubuh, konsultasi dokter umum, serta vaksinasi, dengan pendekatan medis yang aman dan terarah.",
        "email": "allive.clinic@gmail.com",
        "healthcare": "vaccination_centre",
        "healthcare:speciality": "general;dermatology;dermatovenereology;vaccination",
        "name": "Allive Clinic | Skin Health & Family Care",
        "opening_hours": "Tu-Su 10:00-18:00",
        "operator": "Allive Clinic;Immunicare by Biofarma",
        "payment:bank_transfer": "yes",
        "payment:cash": "no",
        "payment:credit_cards": "yes",
        "payment:debit_cards": "yes",
        "reservation": "yes",
        "smoking": "no",
        "surveillance:type": "guard;camera",
        "toilets": "yes",
        "vaccination": "influenza;varicella;hepatitis;typhoid;dengue;measles;mumps;rubella;poliomyelitis;pneumonia;HPV;meningococcal;Tdap;rabies;japaneseencephalitis;yellowfever"
      },
      "geometry": {
        "type": "Point",
        "coordinates": [
          107.553343,
          -6.9623685
        ]
      },
      "id": "node/13251153526"
    },
    {
      "type": "Feature",
      "properties": {
        "@id": "node/13270215620",
        "addr:block_number": "Blok 55A",
        "addr:country": "ID",
        "addr:county": "Bandung",
        "addr:district": "Margahayu",
        "addr:housenumber": "No.6",
        "addr:postcode": "40227",
        "addr:province": "Jawa Barat",
        "addr:street": "Jalan Kopo Permai I",
        "addr:village": "Sukamenak",
        "air_conditioning": "yes",
        "amenity": "clinic",
        "baby_feeding": "room",
        "branch": "Kopo",
        "brand": "Prodia",
        "brand:wikidata": "Q96100576",
        "check_date": "2025-11-11",
        "contact:facebook": "prodia.id",
        "contact:instagram": "prodia_lab",
        "contact:linkedin": "pt-prodia-widyahusada-tbk",
        "contact:threads": "prodia_lab",
        "contact:tiktok": "prodia_lab",
        "contact:twitter": "prodia_lab",
        "contact:whatsapp": "+628551500830",
        "contact:youtube": "prodia_lab",
        "email": "info@prodia.co.id",
        "healthcare": "laboratory",
        "healthcare:speciality": "clinical_pathology;blood_check",
        "image": "https://lh3.googleusercontent.com/p/AF1QipO_pk11ABuE8CmXY3AODhRQ-PNIw9Wn_PR2psmD=w532-h240-k-no",
        "level": "0",
        "mapillary": "1134468981655226",
        "name": "Laboratorium Prodia Bandung Kopo",
        "opening_hours": "Mo-Fr 06:00-19:00; Sa 06:00-15:00; Su off",
        "operator": "PT Prodia Widyahusada Tbk",
        "operator:type": "private",
        "payment:cash": "yes",
        "payment:contactless": "yes",
        "payment:credit_cards": "yes",
        "payment:debit_cards": "yes",
        "payment:gpn_qris": "yes",
        "payment:nfc": "yes",
        "phone": "+62 21 1500830",
        "room": "toilets",
        "toilets:access": "customers",
        "toilets:wheelchair": "yes",
        "website": "https://www.prodia.co.id",
        "wheelchair": "yes"
      },
      "geometry": {
        "type": "Point",
        "coordinates": [
          107.5823251,
          -6.9632828
        ]
      },
      "id": "node/13270215620"
    },
    {
      "type": "Feature",
      "properties": {
        "@id": "node/13563699957",
        "amenity": "clinic",
        "healthcare": "clinic",
        "name": "Klinik Ambalat"
      },
      "geometry": {
        "type": "Point",
        "coordinates": [
          107.6312163,
          -6.9337892
        ]
      },
      "id": "node/13563699957"
    },
    {
      "type": "Feature",
      "properties": {
        "@id": "node/13647775076",
        "amenity": "clinic",
        "healthcare": "clinic",
        "name": "theclinic"
      },
      "geometry": {
        "type": "Point",
        "coordinates": [
          107.6105095,
          -6.9045425
        ]
      },
      "id": "node/13647775076"
    },
    {
      "type": "Feature",
      "properties": {
        "@id": "node/13734882007",
        "amenity": "clinic",
        "healthcare": "clinic",
        "name": "Klinik Pratama Silih Asih"
      },
      "geometry": {
        "type": "Point",
        "coordinates": [
          107.6253387,
          -6.941173
        ]
      },
      "id": "node/13734882007"
    },
    {
      "type": "Feature",
      "properties": {
        "@id": "node/13742350732",
        "amenity": "clinic",
        "healthcare": "clinic",
        "name": "Klinik Pratama Medika Antapani"
      },
      "geometry": {
        "type": "Point",
        "coordinates": [
          107.6517597,
          -6.9129094
        ]
      },
      "id": "node/13742350732"
    },
    {
      "type": "Feature",
      "properties": {
        "@id": "node/13760592628",
        "amenity": "clinic",
        "healthcare": "clinic"
      },
      "geometry": {
        "type": "Point",
        "coordinates": [
          107.6248068,
          -6.8878695
        ]
      },
      "id": "node/13760592628"
    },
    {
      "type": "Feature",
      "properties": {
        "@id": "node/13772948536",
        "amenity": "clinic",
        "healthcare": "clinic",
        "name": "UPT Layanan Kesehatan ITB",
        "official_name": "Klinik Pratama UPT Layanan Kesehatan ITB"
      },
      "geometry": {
        "type": "Point",
        "coordinates": [
          107.609677,
          -6.8936758
        ]
      },
      "id": "node/13772948536"
    }
  ]
}