{
  "type": "FeatureCollection",
  "generator": "overpass-turbo",
  "copyright": "The data included in this document is from www.openstreetmap.org. The data is made available under ODbL.",
  "timestamp": "2026-08-16T00:20:04Z",
  "features": [
    {
      "type": "Feature",
      "properties": {
        "@id": "way/119454248",
        "building": "apartments",
        "building:levels": "12",
        "building:roof": "concrete",
        "building:structure": "reinforced_masonry",
        "building:use": "commercial",
        "building:walls": "brick",
        "name": "Dago Butik"
      },
      "geometry": {
        "type": "Polygon",
        "coordinates": [
          [
            [107.6133246, -6.8846305],
            [107.6132404, -6.8846157],
            [107.6132423, -6.8846024],
            [107.6131899, -6.8845943],
            [107.6131887, -6.8846023],
            [107.6131488, -6.8845952],
            [107.613085, -6.8849507],
            [107.6133155, -6.8849915],
            [107.6133392, -6.8848594],
            [107.6132853, -6.8848499],
            [107.6133246, -6.8846305]
          ]
        ]
      },
      "id": "way/119454248"
    },
    {
      "type": "Feature",
      "properties": {
        "@id": "way/183518434",
        "building": "apartments",
        "name": "ASPI STKS"
      },
      "geometry": {
        "type": "Polygon",
        "coordinates": [
          [
            [107.6186023, -6.8718179],
            [107.6185797, -6.8718715],
            [107.6185925, -6.8718769],
            [107.6185622, -6.8719486],
            [107.6185418, -6.8719401],
            [107.6185161, -6.872001],
            [107.6185399, -6.8720109],
            [107.6185083, -6.8720855],
            [107.618496, -6.8720804],
            [107.6184757, -6.8721282],
            [107.6186215, -6.872189],
            [107.6186483, -6.8721257],
            [107.6186277, -6.8721171],
            [107.6186541, -6.8720549],
            [107.6186708, -6.8720619],
            [107.6186969, -6.8720003],
            [107.618671, -6.8719895],
            [107.6187043, -6.8719108],
            [107.6187153, -6.8719154],
            [107.6187334, -6.8718725],
            [107.6186023, -6.8718179]
          ]
        ]
      },
      "id": "way/183518434"
    },
    {
      "type": "Feature",
      "properties": {
        "@id": "way/320613250",
        "addr:city": "Bandung",
        "addr:housenumber": "669",
        "addr:street": "Jalan Jenderal Ahmad Yani",
        "building": "apartments",
        "building:levels": "16",
        "name": "Apartemen Gateway"
      },
      "geometry": {
        "type": "Polygon",
        "coordinates": [
          [
            [107.6444252, -6.9068905],
            [107.6446491, -6.9073232],
            [107.6455342, -6.9068013],
            [107.6452855, -6.906407],
            [107.6444252, -6.9068905]
          ]
        ]
      },
      "id": "way/320613250"
    },
    {
      "type": "Feature",
      "properties": {
        "@id": "way/363380469",
        "addr:street": "Emerald Towers",
        "building": "apartments",
        "name": "Emerald Towers Apartment"
      },
      "geometry": {
        "type": "Polygon",
        "coordinates": [
          [
            [107.6644758, -6.9328892],
            [107.6646659, -6.9320334],
            [107.6641889, -6.931929],
            [107.6639988, -6.9327848],
            [107.6644758, -6.9328892]
          ]
        ]
      },
      "id": "way/363380469"
    },
    {
      "type": "Feature",
      "properties": {
        "@id": "way/380763392",
        "building": "apartments"
      },
      "geometry": {
        "type": "Polygon",
        "coordinates": [
          [
            [107.5551215, -6.8923799],
            [107.5551124, -6.8924259],
            [107.5551953, -6.892442],
            [107.5551858, -6.8924905],
            [107.5552446, -6.8925019],
            [107.5552632, -6.8924074],
            [107.5551215, -6.8923799]
          ]
        ]
      },
      "id": "way/380763392"
    },
    {
      "type": "Feature",
      "properties": {
        "@id": "way/381589014",
        "building": "apartments"
      },
      "geometry": {
        "type": "Polygon",
        "coordinates": [
          [
            [107.6187354, -6.8533921],
            [107.6187703, -6.8533735],
            [107.6187435, -6.8533016],
            [107.6186764, -6.8533282],
            [107.6186871, -6.8533575],
            [107.6186603, -6.8533708],
            [107.6186496, -6.8533468],
            [107.6186147, -6.8533628],
            [107.618714, -6.8534986],
            [107.6188078, -6.853448],
            [107.6187756, -6.8534054],
            [107.6187354, -6.8534187],
            [107.6187354, -6.8533921]
          ]
        ]
      },
      "id": "way/381589014"
    },
    {
      "type": "Feature",
      "properties": {
        "@id": "way/381641405",
        "building": "apartments",
        "building:levels": "4",
        "name": "Flat Sarijadi Blok D"
      },
      "geometry": {
        "type": "Polygon",
        "coordinates": [
          [
            [107.5775406, -6.8812787],
            [107.5774635, -6.8813012],
            [107.5774713, -6.8813275],
            [107.5774819, -6.881363],
            [107.577589, -6.8817245],
            [107.5776661, -6.8817019],
            [107.5775406, -6.8812787]
          ]
        ]
      },
      "id": "way/381641405"
    },
    {
      "type": "Feature",
      "properties": {
        "@id": "way/381641406",
        "building": "apartments",
        "building:levels": "4",
        "name": "Flat Sarijadi Blok D"
      },
      "geometry": {
        "type": "Polygon",
        "coordinates": [
          [
            [107.5774017, -6.8813139],
            [107.5773246, -6.8813364],
            [107.57745, -6.8817597],
            [107.5775271, -6.8817371],
            [107.5774193, -6.8813733],
            [107.5774089, -6.8813382],
            [107.5774017, -6.8813139]
          ]
        ]
      },
      "id": "way/381641406"
    },
    {
      "type": "Feature",
      "properties": {
        "@id": "way/381641416",
        "building": "apartments",
        "building:levels": "4",
        "name": "Flat Sarijadi Blok E"
      },
      "geometry": {
        "type": "Polygon",
        "coordinates": [
          [
            [107.5771599, -6.8814633],
            [107.5770828, -6.8814858],
            [107.5772083, -6.8819091],
            [107.5772854, -6.8818866],
            [107.5771776, -6.8815228],
            [107.5771672, -6.8814877],
            [107.5771599, -6.8814633]
          ]
        ]
      },
      "id": "way/381641416"
    },
    {
      "type": "Feature",
      "properties": {
        "@id": "way/381641417",
        "building": "apartments",
        "building:levels": "4",
        "name": "Flat Sarijadi Blok E"
      },
      "geometry": {
        "type": "Polygon",
        "coordinates": [
          [
            [107.5772962, -6.8814281],
            [107.5772191, -6.8814506],
            [107.5772269, -6.881477],
            [107.5772374, -6.8815124],
            [107.5773446, -6.8818739],
            [107.5774217, -6.8818514],
            [107.5772962, -6.8814281]
          ]
        ]
      },
      "id": "way/381641417"
    },
    {
      "type": "Feature",
      "properties": {
        "@id": "way/381641422",
        "building": "apartments",
        "building:levels": "4",
        "name": "Flat Sarijadi Blok G"
      },
      "geometry": {
        "type": "Polygon",
        "coordinates": [
          [
            [107.5765242, -6.881659],
            [107.5764471, -6.8816815],
            [107.5765725, -6.8821048],
            [107.5766497, -6.8820823],
            [107.5765418, -6.8817185],
            [107.5765314, -6.8816834],
            [107.5765242, -6.881659]
          ]
        ]
      },
      "id": "way/381641422"
    },
    {
      "type": "Feature",
      "properties": {
        "@id": "way/381641423",
        "building": "apartments",
        "building:levels": "4",
        "name": "Flat Sarijadi Blok G"
      },
      "geometry": {
        "type": "Polygon",
        "coordinates": [
          [
            [107.5766619, -6.8816238],
            [107.5765847, -6.8816463],
            [107.5765926, -6.8816727],
            [107.5766031, -6.8817081],
            [107.5767102, -6.8820696],
            [107.5767873, -6.8820471],
            [107.5766619, -6.8816238]
          ]
        ]
      },
      "id": "way/381641423"
    },
    {
      "type": "Feature",
      "properties": {
        "@id": "way/381641428",
        "building": "apartments",
        "building:levels": "4",
        "name": "Flat Sarijadi Blok F"
      },
      "geometry": {
        "type": "Polygon",
        "coordinates": [
          [
            [107.5767764, -6.8815205],
            [107.5766993, -6.8815431],
            [107.5768247, -6.8819663],
            [107.5769019, -6.8819438],
            [107.576794, -6.88158],
            [107.5767836, -6.8815449],
            [107.5767764, -6.8815205]
          ]
        ]
      },
      "id": "way/381641428"
    },
    {
      "type": "Feature",
      "properties": {
        "@id": "way/381641429",
        "building": "apartments",
        "building:levels": "4",
        "name": "Flat Sarijadi Blok F"
      },
      "geometry": {
        "type": "Polygon",
        "coordinates": [
          [
            [107.57691, -6.881484],
            [107.5768328, -6.8815066],
            [107.5768407, -6.8815329],
            [107.5768512, -6.8815684],
            [107.5769583, -6.8819298],
            [107.5770354, -6.8819073],
            [107.57691, -6.881484]
          ]
        ]
      },
      "id": "way/381641429"
    },
    {
      "type": "Feature",
      "properties": {
        "@id": "way/381641434",
        "building": "apartments",
        "building:levels": "4",
        "name": "Flat Sarijadi Blok I"
      },
      "geometry": {
        "type": "Polygon",
        "coordinates": [
          [
            [107.5758443, -6.8818001],
            [107.5757672, -6.8818226],
            [107.5758926, -6.8822459],
            [107.5759697, -6.8822234],
            [107.5758619, -6.8818596],
            [107.5758515, -6.8818245],
            [107.5758443, -6.8818001]
          ]
        ]
      },
      "id": "way/381641434"
    },
    {
      "type": "Feature",
      "properties": {
        "@id": "way/381641435",
        "building": "apartments",
        "building:levels": "4",
        "name": "Flat Sarijadi Blok I"
      },
      "geometry": {
        "type": "Polygon",
        "coordinates": [
          [
            [107.5759725, -6.8817636],
            [107.5758954, -6.8817861],
            [107.5759032, -6.8818125],
            [107.5759137, -6.8818479],
            [107.5760208, -6.8822094],
            [107.5760979, -6.8821869],
            [107.5759725, -6.8817636]
          ]
        ]
      },
      "id": "way/381641435"
    },
    {
      "type": "Feature",
      "properties": {
        "@id": "way/381641440",
        "building": "apartments",
        "building:levels": "4",
        "name": "Flat Sarijadi Blok H"
      },
      "geometry": {
        "type": "Polygon",
        "coordinates": [
          [
            [107.5761313, -6.8817908],
            [107.5760542, -6.8818133],
            [107.5761797, -6.8822366],
            [107.5762568, -6.8822141],
            [107.576149, -6.8818503],
            [107.5761385, -6.8818152],
            [107.5761313, -6.8817908]
          ]
        ]
      },
      "id": "way/381641440"
    },
    {
      "type": "Feature",
      "properties": {
        "@id": "way/381641441",
        "building": "apartments",
        "building:levels": "4",
        "name": "Flat Sarijadi Blok H"
      },
      "geometry": {
        "type": "Polygon",
        "coordinates": [
          [
            [107.5762635, -6.881749],
            [107.5761864, -6.8817715],
            [107.5761942, -6.8817979],
            [107.5762047, -6.8818333],
            [107.5763118, -6.8821948],
            [107.576389, -6.8821723],
            [107.5762635, -6.881749]
          ]
        ]
      },
      "id": "way/381641441"
    },
    {
      "type": "Feature",
      "properties": {
        "@id": "way/381641446",
        "building": "apartments",
        "building:levels": "4",
        "name": "Flat Sarijadi Blok J"
      },
      "geometry": {
        "type": "Polygon",
        "coordinates": [
          [
            [107.575511, -6.8819759],
            [107.5754342, -6.881998],
            [107.5755577, -6.8824218],
            [107.5756345, -6.8823998],
            [107.575529, -6.8820377],
            [107.5755188, -6.8820024],
            [107.575511, -6.8819759]
          ]
        ]
      },
      "id": "way/381641446"
    },
    {
      "type": "Feature",
      "properties": {
        "@id": "way/381641447",
        "building": "apartments",
        "building:levels": "4",
        "name": "Flat Sarijadi Blok J"
      },
      "geometry": {
        "type": "Polygon",
        "coordinates": [
          [
            [107.5756423, -6.8819406],
            [107.5755647, -6.8819629],
            [107.5755718, -6.8819872],
            [107.5755821, -6.8820225],
            [107.5756882, -6.8823867],
            [107.5757658, -6.8823644],
            [107.5756423, -6.8819406]
          ]
        ]
      },
      "id": "way/381641447"
    },
    {
      "type": "Feature",
      "properties": {
        "@id": "way/381641452",
        "building": "apartments",
        "building:levels": "4",
        "name": "Flat Sarijadi Blok K"
      },
      "geometry": {
        "type": "Polygon",
        "coordinates": [
          [
            [107.5752267, -6.8819852],
            [107.57515, -6.8820072],
            [107.5752733, -6.8824311],
            [107.5753501, -6.8824091],
            [107.5752448, -6.8820472],
            [107.5752345, -6.8820119],
            [107.5752267, -6.8819852]
          ]
        ]
      },
      "id": "way/381641452"
    },
    {
      "type": "Feature",
      "properties": {
        "@id": "way/381641453",
        "building": "apartments",
        "building:levels": "4",
        "name": "Flat Sarijadi Blok K"
      },
      "geometry": {
        "type": "Polygon",
        "coordinates": [
          [
            [107.5753593, -6.8819499],
            [107.5752817, -6.8819721],
            [107.5752887, -6.8819963],
            [107.575299, -6.8820316],
            [107.5754051, -6.882396],
            [107.5754827, -6.8823738],
            [107.5753593, -6.8819499]
          ]
        ]
      },
      "id": "way/381641453"
    },
    {
      "type": "Feature",
      "properties": {
        "@id": "way/381641458",
        "building": "apartments",
        "building:levels": "4",
        "name": "Flat Sarijadi Blok L"
      },
      "geometry": {
        "type": "Polygon",
        "coordinates": [
          [
            [107.5749686, -6.882133],
            [107.5748915, -6.8821555],
            [107.5750169, -6.8825788],
            [107.575094, -6.8825563],
            [107.5749862, -6.8821925],
            [107.5749758, -6.8821574],
            [107.5749686, -6.882133]
          ]
        ]
      },
      "id": "way/381641458"
    },
    {
      "type": "Feature",
      "properties": {
        "@id": "way/381641459",
        "building": "apartments",
        "building:levels": "4",
        "name": "Flat Sarijadi Blok L"
      },
      "geometry": {
        "type": "Polygon",
        "coordinates": [
          [
            [107.5751075, -6.8820965],
            [107.5750304, -6.882119],
            [107.5750382, -6.8821454],
            [107.5750487, -6.8821808],
            [107.5751559, -6.8825423],
            [107.575233, -6.8825198],
            [107.5751075, -6.8820965]
          ]
        ]
      },
      "id": "way/381641459"
    },
    {
      "type": "Feature",
      "properties": {
        "@id": "way/381641464",
        "building": "apartments",
        "building:levels": "4",
        "name": "Flat Sarijadi Blok M"
      },
      "geometry": {
        "type": "Polygon",
        "coordinates": [
          [
            [107.5745803, -6.8822581],
            [107.5745032, -6.8822806],
            [107.5746287, -6.8827039],
            [107.5747058, -6.8826814],
            [107.574598, -6.8823176],
            [107.5745875, -6.8822825],
            [107.5745803, -6.8822581]
          ]
        ]
      },
      "id": "way/381641464"
    },
    {
      "type": "Feature",
      "properties": {
        "@id": "way/381641465",
        "building": "apartments",
        "building:levels": "4",
        "name": "Flat Sarijadi Blok M"
      },
      "geometry": {
        "type": "Polygon",
        "coordinates": [
          [
            [107.5747079, -6.8822203],
            [107.5746308, -6.8822428],
            [107.5746386, -6.8822692],
            [107.5746491, -6.8823047],
            [107.5747562, -6.8826661],
            [107.5748334, -6.8826436],
            [107.5747079, -6.8822203]
          ]
        ]
      },
      "id": "way/381641465"
    },
    {
      "type": "Feature",
      "properties": {
        "@id": "way/381641471",
        "building": "apartments",
        "building:levels": "4",
        "name": "Flat Sarijadi Blok N"
      },
      "geometry": {
        "type": "Polygon",
        "coordinates": [
          [
            [107.5744061, -6.8822416],
            [107.574329, -6.8822641],
            [107.5743368, -6.8822905],
            [107.5743473, -6.882326],
            [107.5744545, -6.8826874],
            [107.5745316, -6.8826649],
            [107.5744061, -6.8822416]
          ]
        ]
      },
      "id": "way/381641471"
    },
    {
      "type": "Feature",
      "properties": {
        "@id": "way/406605788",
        "building": "apartments"
      },
      "geometry": {
        "type": "Polygon",
        "coordinates": [
          [
            [107.6022049, -6.9662126],
            [107.602292, -6.9662436],
            [107.6023609, -6.9660529],
            [107.6022737, -6.9660219],
            [107.6022049, -6.9662126]
          ]
        ]
      },
      "id": "way/406605788"
    },
    {
      "type": "Feature",
      "properties": {
        "@id": "way/409369757",
        "addr:city": "Bandung",
        "addr:housenumber": "136",
        "addr:postcode": "40242",
        "addr:street": "Jalan Jenderal Ahmad Yani",
        "building": "apartments",
        "building:levels": "19",
        "name": "The Green Kosambi"
      },
      "geometry": {
        "type": "Polygon",
        "coordinates": [
          [
            [107.622104, -6.9207363],
            [107.6218768, -6.9207129],
            [107.621858, -6.9207196],
            [107.621844, -6.9207286],
            [107.6218363, -6.9207334],
            [107.6218274, -6.9207438],
            [107.6218232, -6.9207547],
            [107.6218185, -6.9207656],
            [107.6218003, -6.9209183],
            [107.6220796, -6.9209498],
            [107.622104, -6.9207363]
          ]
        ]
      },
      "id": "way/409369757"
    },
    {
      "type": "Feature",
      "properties": {
        "@id": "way/504034806",
        "building": "apartments",
        "building:levels": "4",
        "name": "Asrama ITB Putri Kanayakan"
      },
      "geometry": {
        "type": "Polygon",
        "coordinates": [
          [
            [107.6197004, -6.8788801],
            [107.6197295, -6.8791405],
            [107.619924, -6.879119],
            [107.6198948, -6.8788586],
            [107.6197004, -6.8788801]
          ]
        ]
      },
      "id": "way/504034806"
    },
    {
      "type": "Feature",
      "properties": {
        "@id": "way/504034887",
        "building": "apartments",
        "building:levels": "4",
        "name": "Asrama ITB Putri Kanayakan"
      },
      "geometry": {
        "type": "Polygon",
        "coordinates": [
          [
            [107.6197909, -6.8792166],
            [107.6198361, -6.8795882],
            [107.620028, -6.8795652],
            [107.6199822, -6.8791887],
            [107.6199316, -6.8791948],
            [107.6199264, -6.8791527],
            [107.6198279, -6.8791645],
            [107.6198336, -6.8792114],
            [107.6197909, -6.8792166]
          ]
        ]
      },
      "id": "way/504034887"
    },
    {
      "type": "Feature",
      "properties": {
        "@id": "way/519056861",
        "addr:city": "Bandung",
        "addr:housenumber": "280",
        "addr:postcode": "40143",
        "addr:street": "Jalan Dokter Setiabudi",
        "building": "apartments",
        "building:levels": "3",
        "name": "Kos putri 280"
      },
      "geometry": {
        "type": "Polygon",
        "coordinates": [
          [
            [107.5949103, -6.8597911],
            [107.5948996, -6.8598404],
            [107.594962, -6.8598538],
            [107.5949727, -6.8598045],
            [107.5949103, -6.8597911]
          ]
        ]
      },
      "id": "way/519056861"
    },
    {
      "type": "Feature",
      "properties": {
        "@id": "way/546721641",
        "building": "apartments",
        "name": "Apartemen Galeri Ciumbuleuit 2"
      },
      "geometry": {
        "type": "Polygon",
        "coordinates": [
          [
            [107.6040904, -6.8803863],
            [107.6041241, -6.8805874],
            [107.6051468, -6.8804139],
            [107.605113, -6.8802128],
            [107.6040904, -6.8803863]
          ]
        ]
      },
      "id": "way/546721641"
    },
    {
      "type": "Feature",
      "properties": {
        "@id": "way/617205624",
        "building": "apartments",
        "name": "Telkom Apartment"
      },
      "geometry": {
        "type": "Polygon",
        "coordinates": [
          [
            [107.634697, -6.9727713],
            [107.6340935, -6.9732215],
            [107.6339592, -6.9732872],
            [107.6345278, -6.9736406],
            [107.6349874, -6.9729318],
            [107.634697, -6.9727713]
          ]
        ]
      },
      "id": "way/617205624"
    },
    {
      "type": "Feature",
      "properties": {
        "@id": "way/632681734",
        "addr:city": "Bandung",
        "addr:housenumber": "2A",
        "addr:province": "Jawa Barat",
        "addr:street": "Jalan Situ Cipanunjang",
        "addr:subdistrict": "Lengkong",
        "building": "apartments",
        "building:levels": "2"
      },
      "geometry": {
        "type": "Polygon",
        "coordinates": [
          [
            [107.6283719, -6.9441869],
            [107.6282714, -6.9442879],
            [107.6283063, -6.9443227],
            [107.6283319, -6.9442993],
            [107.6283475, -6.9443161],
            [107.6284236, -6.9442375],
            [107.6283719, -6.9441869]
          ]
        ]
      },
      "id": "way/632681734"
    },
    {
      "type": "Feature",
      "properties": {
        "@id": "way/637415697",
        "building": "apartments"
      },
      "geometry": {
        "type": "Polygon",
        "coordinates": [
          [
            [107.6173863, -6.8977501],
            [107.6173863, -6.8978605],
            [107.6176203, -6.8978467],
            [107.6176134, -6.8977363],
            [107.6173863, -6.8977501]
          ]
        ]
      },
      "id": "way/637415697"
    },
    {
      "type": "Feature",
      "properties": {
        "@id": "way/648346705",
        "building": "apartments"
      },
      "geometry": {
        "type": "Polygon",
        "coordinates": [
          [
            [107.6067609, -6.8949822],
            [107.6066983, -6.8949412],
            [107.606657, -6.8950747],
            [107.6067135, -6.895096],
            [107.6067609, -6.8949822]
          ]
        ]
      },
      "id": "way/648346705"
    },
    {
      "type": "Feature",
      "properties": {
        "@id": "way/678398282",
        "building": "apartments",
        "name": "La Grande"
      },
      "geometry": {
        "type": "Polygon",
        "coordinates": [
          [
            [107.6097518, -6.9090618],
            [107.6096461, -6.9095995],
            [107.6098474, -6.9096386],
            [107.6099531, -6.9091008],
            [107.6097518, -6.9090618]
          ]
        ]
      },
      "id": "way/678398282"
    },
    {
      "type": "Feature",
      "properties": {
        "@id": "way/858671794",
        "building": "apartments"
      },
      "geometry": {
        "type": "Polygon",
        "coordinates": [
          [
            [107.6525808, -6.8939549],
            [107.6525675, -6.8939549],
            [107.6525686, -6.8941266],
            [107.6526923, -6.8941259],
            [107.6526919, -6.8940595],
            [107.6526145, -6.89406],
            [107.6526141, -6.8939926],
            [107.6526473, -6.8939924],
            [107.6526471, -6.8939545],
            [107.6525808, -6.8939549]
          ]
        ]
      },
      "id": "way/858671794"
    },
    {
      "type": "Feature",
      "properties": {
        "@id": "way/867209820",
        "addr:city": "Bandung",
        "addr:housenumber": "13",
        "addr:postcode": "40135",
        "addr:street": "Jl. Sangkuriang No.13, Dago Suites Apartment 1st Floor GF-A, Dago, Kecamatan Coblong, Kota Bandung, Jawa Barat 40135",
        "building": "apartments",
        "name": "Dago Suites Apartement",
        "tourism": "hotel"
      },
      "geometry": {
        "type": "Polygon",
        "coordinates": [
          [
            [107.6100768, -6.8841516],
            [107.6101318, -6.8838987],
            [107.6101546, -6.8839013],
            [107.6101653, -6.8838174],
            [107.6101385, -6.8838028],
            [107.6100057, -6.8834526],
            [107.6100527, -6.8834327],
            [107.6100044, -6.8833168],
            [107.6097992, -6.8833927],
            [107.6097791, -6.8833421],
            [107.6097107, -6.8833701],
            [107.6097241, -6.883418],
            [107.6096879, -6.8834287],
            [107.6096544, -6.8835099],
            [107.6096195, -6.8835312],
            [107.609472, -6.8835179],
            [107.6094773, -6.883414],
            [107.6095015, -6.8834153],
            [107.6095001, -6.8833674],
            [107.6093218, -6.8833661],
            [107.6093057, -6.8835738],
            [107.6093365, -6.883671],
            [107.6096114, -6.883691],
            [107.6096892, -6.883691],
            [107.6096959, -6.8836284],
            [107.6098609, -6.8835804],
            [107.6099628, -6.8838507],
            [107.6099025, -6.8840997],
            [107.6100768, -6.8841516]
          ]
        ]
      },
      "id": "way/867209820"
    },
    {
      "type": "Feature",
      "properties": {
        "@id": "way/909007935",
        "addr:city": "Kab Bandung",
        "addr:district": "Margaasih",
        "addr:housenumber": "7B",
        "addr:neighbourhood": "RT 01/RW 03",
        "addr:postcode": "40218",
        "addr:province": "Jawa Barat",
        "addr:street": "Jalan Cicukang",
        "addr:subdistrict": "Kopo",
        "building": "apartments",
        "building:flats": "3",
        "building:levels": "3",
        "height": "20",
        "name": "Kosan Pak Soni"
      },
      "geometry": {
        "type": "Polygon",
        "coordinates": [
          [
            [107.5484627, -6.9730295],
            [107.5483778, -6.9731747],
            [107.5484448, -6.9732159],
            [107.5485325, -6.9730763],
            [107.5484627, -6.9730295]
          ]
        ]
      },
      "id": "way/909007935"
    },
    {
      "type": "Feature",
      "properties": {
        "@id": "way/1033259041",
        "building": "apartments",
        "name": "HQuarters"
      },
      "geometry": {
        "type": "Polygon",
        "coordinates": [
          [
            [107.6154031, -6.9227926],
            [107.6153778, -6.9230125],
            [107.6158124, -6.9230618],
            [107.6158337, -6.9228774],
            [107.6157382, -6.9228665],
            [107.6157519, -6.9227467],
            [107.6157304, -6.9227443],
            [107.6157631, -6.9224601],
            [107.6156061, -6.9224423],
            [107.6155636, -6.9228108],
            [107.6154031, -6.9227926]
          ]
        ]
      },
      "id": "way/1033259041"
    },
    {
      "type": "Feature",
      "properties": {
        "@id": "way/1152676433",
        "addr:street": "Jalan Ciumbuleuit",
        "building": "apartments",
        "name": "Apartemen Galeri Ciumbuleuit 3"
      },
      "geometry": {
        "type": "Polygon",
        "coordinates": [
          [
            [107.6026853, -6.8813661],
            [107.6026317, -6.8813022],
            [107.6025029, -6.8812862],
            [107.6023802, -6.8813716],
            [107.6025004, -6.8816668],
            [107.6026746, -6.8817762],
            [107.602798, -6.8817655],
            [107.6028838, -6.8816856],
            [107.6027872, -6.8815259],
            [107.6029482, -6.8814779],
            [107.6029964, -6.8815898],
            [107.6031788, -6.8817282],
            [107.6032968, -6.8816271],
            [107.6032647, -6.8814939],
            [107.6034417, -6.8814247],
            [107.6034256, -6.8813395],
            [107.6032271, -6.881169],
            [107.6026853, -6.8813661]
          ]
        ]
      },
      "id": "way/1152676433"
    },
    {
      "type": "Feature",
      "properties": {
        "@id": "way/1158285989",
        "building": "apartments"
      },
      "geometry": {
        "type": "Polygon",
        "coordinates": [
          [
            [107.5921744, -6.9122622],
            [107.5921677, -6.9127289],
            [107.5927631, -6.9127374],
            [107.5927697, -6.9122706],
            [107.5921744, -6.9122622]
          ]
        ]
      },
      "id": "way/1158285989"
    },
    {
      "type": "Feature",
      "properties": {
        "@id": "way/1158285990",
        "building": "apartments"
      },
      "geometry": {
        "type": "Polygon",
        "coordinates": [
          [
            [107.5921588, -6.9127849],
            [107.5921521, -6.9132516],
            [107.5927475, -6.9132601],
            [107.5927542, -6.9127933],
            [107.5921588, -6.9127849]
          ]
        ]
      },
      "id": "way/1158285990"
    },
    {
      "type": "Feature",
      "properties": {
        "@id": "way/1232576292",
        "building": "apartments",
        "name": "Tower A"
      },
      "geometry": {
        "type": "Polygon",
        "coordinates": [
          [
            [107.6180989, -6.9234186],
            [107.6182518, -6.9234329],
            [107.6187778, -6.9234821],
            [107.6187883, -6.9233711],
            [107.6184554, -6.92334],
            [107.6181094, -6.9233076],
            [107.6180989, -6.9234186]
          ]
        ]
      },
      "id": "way/1232576292"
    },
    {
      "type": "Feature",
      "properties": {
        "@id": "way/1232576293",
        "building": "apartments",
        "name": "Tower B"
      },
      "geometry": {
        "type": "Polygon",
        "coordinates": [
          [
            [107.6180779, -6.9236403],
            [107.6184235, -6.9236726],
            [107.6187568, -6.9237037],
            [107.6187673, -6.9235929],
            [107.6182413, -6.9235437],
            [107.6180884, -6.9235294],
            [107.6180779, -6.9236403]
          ]
        ]
      },
      "id": "way/1232576293"
    },
    {
      "type": "Feature",
      "properties": {
        "@id": "way/1232576294",
        "building": "apartments",
        "name": "Tower C"
      },
      "geometry": {
        "type": "Polygon",
        "coordinates": [
          [
            [107.6180464, -6.9239724],
            [107.6181992, -6.9239867],
            [107.6187252, -6.9240359],
            [107.6187359, -6.9239231],
            [107.6184024, -6.9238919],
            [107.618057, -6.9238597],
            [107.6180464, -6.9239724]
          ]
        ]
      },
      "id": "way/1232576294"
    },
    {
      "type": "Feature",
      "properties": {
        "@id": "way/1232576295",
        "building": "apartments",
        "name": "Tower D"
      },
      "geometry": {
        "type": "Polygon",
        "coordinates": [
          [
            [107.6180255, -6.9241921],
            [107.6183705, -6.9242243],
            [107.6187044, -6.9242555],
            [107.6187147, -6.9241466],
            [107.6181887, -6.9240975],
            [107.6180358, -6.9240832],
            [107.6180255, -6.9241921]
          ]
        ]
      },
      "id": "way/1232576295"
    },
    {
      "type": "Feature",
      "properties": {
        "@id": "way/1241226158",
        "building": "apartments",
        "name": "K"
      },
      "geometry": {
        "type": "Polygon",
        "coordinates": [
          [
            [107.6269416, -6.9302996],
            [107.6268912, -6.9304967],
            [107.6271447, -6.9305606],
            [107.6271951, -6.9303635],
            [107.6269416, -6.9302996]
          ]
        ]
      },
      "id": "way/1241226158"
    },
    {
      "type": "Feature",
      "properties": {
        "@id": "way/1241226159",
        "building": "apartments",
        "name": "J"
      },
      "geometry": {
        "type": "Polygon",
        "coordinates": [
          [
            [107.6272863, -6.9303023],
            [107.6272359, -6.9304993],
            [107.6274893, -6.9305632],
            [107.6275397, -6.9303662],
            [107.6272863, -6.9303023]
          ]
        ]
      },
      "id": "way/1241226159"
    },
    {
      "type": "Feature",
      "properties": {
        "@id": "way/1241226160",
        "building": "apartments",
        "name": "I"
      },
      "geometry": {
        "type": "Polygon",
        "coordinates": [
          [
            [107.6275652, -6.9304581],
            [107.6275148, -6.9306551],
            [107.6277683, -6.930719],
            [107.6278187, -6.930522],
            [107.6275652, -6.9304581]
          ]
        ]
      },
      "id": "way/1241226160"
    },
    {
      "type": "Feature",
      "properties": {
        "@id": "way/1241226161",
        "building": "apartments",
        "name": "H"
      },
      "geometry": {
        "type": "Polygon",
        "coordinates": [
          [
            [107.6276417, -6.9302397],
            [107.6275912, -6.9304368],
            [107.6278447, -6.9305007],
            [107.6278951, -6.9303036],
            [107.6276417, -6.9302397]
          ]
        ]
      },
      "id": "way/1241226161"
    },
    {
      "type": "Feature",
      "properties": {
        "@id": "way/1241226162",
        "building": "apartments",
        "name": "G"
      },
      "geometry": {
        "type": "Polygon",
        "coordinates": [
          [
            [107.6273433, -6.9300806],
            [107.6272928, -6.9302777],
            [107.6275463, -6.9303416],
            [107.6275967, -6.9301445],
            [107.6273433, -6.9300806]
          ]
        ]
      },
      "id": "way/1241226162"
    },
    {
      "type": "Feature",
      "properties": {
        "@id": "way/1241226163",
        "building": "apartments",
        "name": "F"
      },
      "geometry": {
        "type": "Polygon",
        "coordinates": [
          [
            [107.6269975, -6.930076],
            [107.6269471, -6.930273],
            [107.6272006, -6.9303369],
            [107.627251, -6.9301399],
            [107.6269975, -6.930076]
          ]
        ]
      },
      "id": "way/1241226163"
    },
    {
      "type": "Feature",
      "properties": {
        "@id": "way/1241226164",
        "building": "apartments",
        "name": "E"
      },
      "geometry": {
        "type": "Polygon",
        "coordinates": [
          [
            [107.6271657, -6.9297049],
            [107.6271204, -6.9298866],
            [107.6272665, -6.9299225],
            [107.6273119, -6.9297408],
            [107.6271657, -6.9297049]
          ]
        ]
      },
      "id": "way/1241226164"
    },
    {
      "type": "Feature",
      "properties": {
        "@id": "way/1241226165",
        "building": "apartments",
        "name": "D"
      },
      "geometry": {
        "type": "Polygon",
        "coordinates": [
          [
            [107.6274782, -6.9297848],
            [107.6274328, -6.9299665],
            [107.627579, -6.9300024],
            [107.6276244, -6.9298207],
            [107.6274782, -6.9297848]
          ]
        ]
      },
      "id": "way/1241226165"
    },
    {
      "type": "Feature",
      "properties": {
        "@id": "way/1241226166",
        "building": "apartments",
        "name": "C"
      },
      "geometry": {
        "type": "Polygon",
        "coordinates": [
          [
            [107.6277947, -6.9298593],
            [107.6277493, -6.930041],
            [107.6278955, -6.930077],
            [107.6279409, -6.9298952],
            [107.6277947, -6.9298593]
          ]
        ]
      },
      "id": "way/1241226166"
    },
    {
      "type": "Feature",
      "properties": {
        "@id": "way/1241226167",
        "building": "apartments",
        "name": "B"
      },
      "geometry": {
        "type": "Polygon",
        "coordinates": [
          [
            [107.6278738, -6.9295398],
            [107.6278285, -6.9297215],
            [107.6279747, -6.9297575],
            [107.62802, -6.9295757],
            [107.6278738, -6.9295398]
          ]
        ]
      },
      "id": "way/1241226167"
    },
    {
      "type": "Feature",
      "properties": {
        "@id": "way/1241226168",
        "building": "apartments",
        "name": "A"
      },
      "geometry": {
        "type": "Polygon",
        "coordinates": [
          [
            [107.6272362, -6.929377],
            [107.6271909, -6.9295588],
            [107.6273371, -6.9295947],
            [107.6273824, -6.929413],
            [107.6272362, -6.929377]
          ]
        ]
      },
      "id": "way/1241226168"
    },
    {
      "type": "Feature",
      "properties": {
        "@id": "way/1254793108",
        "building": "apartments",
        "building:flats": "2",
        "building:levels": "4",
        "layer": "1",
        "name": "Asrama Putri ITB Kanayakan"
      },
      "geometry": {
        "type": "Polygon",
        "coordinates": [
          [
            [107.6196973, -6.8788772],
            [107.6197908, -6.8795914],
            [107.6200331, -6.8795672],
            [107.6199339, -6.8788552],
            [107.6196973, -6.8788772]
          ]
        ]
      },
      "id": "way/1254793108"
    },
    {
      "type": "Feature",
      "properties": {
        "@id": "way/1258572117",
        "building": "apartments",
        "name": "The Suite Metro Apartment"
      },
      "geometry": {
        "type": "Polygon",
        "coordinates": [
          [
            [107.6596134, -6.9384146],
            [107.659647, -6.9382407],
            [107.6592506, -6.9381599],
            [107.6592754, -6.9379543],
            [107.6594647, -6.9379912],
            [107.6594934, -6.9378315],
            [107.6591533, -6.9377681],
            [107.6591692, -6.9376434],
            [107.6595124, -6.93772],
            [107.6595438, -6.937576],
            [107.6589816, -6.9374713],
            [107.6589533, -6.9376013],
            [107.6590625, -6.9376259],
            [107.6590392, -6.9377499],
            [107.6589268, -6.937733],
            [107.6588985, -6.937886],
            [107.6591356, -6.9379333],
            [107.6591055, -6.93813],
            [107.6588932, -6.9380861],
            [107.6588542, -6.9382582],
            [107.6596134, -6.9384146]
          ]
        ]
      },
      "id": "way/1258572117"
    },
    {
      "type": "Feature",
      "properties": {
        "@id": "way/1314677928",
        "building": "apartments"
      },
      "geometry": {
        "type": "Polygon",
        "coordinates": [
          [
            [107.62869, -6.9438917],
            [107.628797, -6.9440069],
            [107.6289086, -6.9439016],
            [107.6287962, -6.9437903],
            [107.62869, -6.9438917]
          ]
        ]
      },
      "id": "way/1314677928"
    },
    {
      "type": "Feature",
      "properties": {
        "@id": "way/1314677932",
        "addr:city": "Bandung",
        "addr:housename": "Kost Mojang",
        "addr:housenumber": "10",
        "addr:postcode": "40265",
        "addr:province": "Jawa Barat",
        "addr:street": "Jalan Situ Cileunca",
        "addr:subdistrict": "Lengkong",
        "building": "apartments",
        "name": "Kost Mojang"
      },
      "geometry": {
        "type": "Polygon",
        "coordinates": [
          [
            [107.6288371, -6.944186],
            [107.628744, -6.9442708],
            [107.6288505, -6.9443894],
            [107.6289573, -6.9442886],
            [107.6289301, -6.944257],
            [107.6289152, -6.9442697],
            [107.6288371, -6.944186]
          ]
        ]
      },
      "id": "way/1314677932"
    },
    {
      "type": "Feature",
      "properties": {
        "@id": "way/1411162465",
        "addr:city": "Bandung",
        "addr:housenumber": "2",
        "addr:postcode": "40111",
        "addr:street": "Jalan Merdeka",
        "building": "apartments",
        "building:flats": "450",
        "building:levels": "20",
        "name": "El Royale Apartement",
        "operator": "P3SRS eL Royale Apartemtn"
      },
      "geometry": {
        "type": "Polygon",
        "coordinates": [
          [
            [107.6103687, -6.9155167],
            [107.6103464, -6.9155397],
            [107.6103364, -6.9155741],
            [107.6103318, -6.915623],
            [107.610341, -6.9156872],
            [107.6103541, -6.9157499],
            [107.610361, -6.9157889],
            [107.6106699, -6.9158256],
            [107.6106722, -6.9158073],
            [107.6108201, -6.9158241],
            [107.6107909, -6.9160909],
            [107.6108122, -6.9160955],
            [107.6107684, -6.9162566],
            [107.6107831, -6.9162633],
            [107.6108435, -6.9162907],
            [107.6108682, -6.9162458],
            [107.6109722, -6.9162375],
            [107.6110202, -6.9161088],
            [107.6110004, -6.9161018],
            [107.6110504, -6.9156383],
            [107.610998, -6.9156329],
            [107.6110088, -6.9155779],
            [107.6104627, -6.9155083],
            [107.6104096, -6.9155029],
            [107.6103687, -6.9155167]
          ]
        ]
      },
      "id": "way/1411162465"
    },
    {
      "type": "Feature",
      "properties": {
        "@id": "way/1414636404",
        "building": "apartments"
      },
      "geometry": {
        "type": "Polygon",
        "coordinates": [
          [
            [107.6812823, -6.9371868],
            [107.6812906, -6.9373066],
            [107.6815148, -6.9372913],
            [107.6815315, -6.9375309],
            [107.68166, -6.9375221],
            [107.6816271, -6.9370487],
            [107.6814996, -6.9370574],
            [107.6815075, -6.9371714],
            [107.6812823, -6.9371868]
          ]
        ]
      },
      "id": "way/1414636404"
    },
    {
      "type": "Feature",
      "properties": {
        "@id": "way/1547660130",
        "building": "apartments",
        "name": "Sudirman Suites Apartment"
      },
      "geometry": {
        "type": "Polygon",
        "coordinates": [
          [
            [107.5813371, -6.9169797],
            [107.5811518, -6.9174153],
            [107.5816032, -6.9176044],
            [107.5817884, -6.9171689],
            [107.5813371, -6.9169797]
          ]
        ]
      },
      "id": "way/1547660130"
    },
    {
      "type": "Feature",
      "properties": {
        "@id": "node/1939092752",
        "building": "apartments",
        "name": "Asrama Putri STKS"
      },
      "geometry": {
        "type": "Point",
        "coordinates": [107.6186023, -6.8718179]
      },
      "id": "node/1939092752"
    },
    {
      "type": "Feature",
      "properties": {
        "@id": "node/4143034493",
        "addr:street": "Jalan Soekarno Hatta",
        "building": "apartments",
        "name": "Panoramic",
        "name:en": "Panoramic Apartment",
        "tourism": "apartment"
      },
      "geometry": {
        "type": "Point",
        "coordinates": [107.6819337, -6.9375417]
      },
      "id": "node/4143034493"
    },
    {
      "type": "Feature",
      "properties": {
        "@id": "node/4365996039",
        "addr:housenumber": "42A",
        "addr:postcode": "40132",
        "addr:street": "Jalan Ciumbeuluit",
        "building": "apartments",
        "name": "Apartemen Galeri Ciumbuleuit"
      },
      "geometry": {
        "type": "Point",
        "coordinates": [107.6042039, -6.8810222]
      },
      "id": "node/4365996039"
    }
  ]
}
