{
  "type": "FeatureCollection",
  "generator": "overpass-turbo",
  "copyright": "The data included in this document is from www.openstreetmap.org. The data is made available under ODbL.",
  "timestamp": "2026-08-15T23:58:49Z",
  "features": [
    {
      "type": "Feature",
      "properties": {
        "@id": "relation/9161815",
        "area": "yes",
        "highway": "pedestrian",
        "type": "multipolygon"
      },
      "geometry": {
        "type": "Polygon",
        "coordinates": [
          [
            [107.6189809, -6.8708886],
            [107.6189314, -6.8711371],
            [107.6190668, -6.8711637],
            [107.6190811, -6.8710919],
            [107.6190666, -6.8710891],
            [107.6191018, -6.8709124],
            [107.6189809, -6.8708886]
          ],
          [
            [107.6189499, -6.8711149],
            [107.618992, -6.8709129],
            [107.6190879, -6.8709302],
            [107.6190456, -6.8711355],
            [107.6189499, -6.8711149]
          ]
        ]
      },
      "id": "relation/9161815"
    },
    {
      "type": "Feature",
      "properties": {
        "@id": "way/701099026",
        "area": "yes",
        "highway": "pedestrian",
        "surface": "paving_stones"
      },
      "geometry": {
        "type": "Polygon",
        "coordinates": [
          [
            [107.5945587, -6.8630248],
            [107.5945564, -6.8630111],
            [107.5945321, -6.8628086],
            [107.5945166, -6.8628094],
            [107.5944816, -6.8628129],
            [107.594443, -6.8628245],
            [107.5944045, -6.86285],
            [107.5943893, -6.862901],
            [107.5943858, -6.862952],
            [107.5944033, -6.8629937],
            [107.594429, -6.8630181],
            [107.5944524, -6.863032],
            [107.5944794, -6.8630392],
            [107.5945122, -6.8630383],
            [107.5945587, -6.8630248]
          ]
        ]
      },
      "id": "way/701099026"
    },
    {
      "type": "Feature",
      "properties": {
        "@id": "way/701099027",
        "area": "yes",
        "highway": "pedestrian"
      },
      "geometry": {
        "type": "Polygon",
        "coordinates": [
          [
            [107.5946438, -6.8627882],
            [107.5946736, -6.8630253],
            [107.5946913, -6.8630219],
            [107.5947126, -6.8630113],
            [107.5947497, -6.862999],
            [107.594778, -6.8629885],
            [107.594801, -6.8629533],
            [107.5948064, -6.8629217],
            [107.5948028, -6.8628831],
            [107.594795, -6.8628522],
            [107.5947904, -6.8628339],
            [107.5947674, -6.8628058],
            [107.5947373, -6.862797],
            [107.5947037, -6.8627917],
            [107.5946772, -6.8627882],
            [107.5946592, -6.8627872],
            [107.5946438, -6.8627882]
          ]
        ]
      },
      "id": "way/701099027"
    },
    {
      "type": "Feature",
      "properties": {
        "@id": "way/701099031",
        "area": "yes",
        "highway": "pedestrian",
        "surface": "sett"
      },
      "geometry": {
        "type": "Polygon",
        "coordinates": [
          [
            [107.594262, -6.8615048],
            [107.5942433, -6.8615766],
            [107.594248, -6.8616207],
            [107.5942818, -6.8616531],
            [107.5943309, -6.8616717],
            [107.5943986, -6.8616705],
            [107.5944663, -6.8616554],
            [107.5944967, -6.8616404],
            [107.5945235, -6.8616241],
            [107.594562, -6.8615917],
            [107.5946052, -6.8615813],
            [107.5946373, -6.8615664],
            [107.5946419, -6.8615599],
            [107.5946513, -6.86154],
            [107.5946309, -6.8614868],
            [107.5946163, -6.861438],
            [107.5946066, -6.8613978],
            [107.5945976, -6.8613972],
            [107.5945801, -6.8614077],
            [107.5945661, -6.861439],
            [107.5945357, -6.8614726],
            [107.594482, -6.8615039],
            [107.594447, -6.8615189],
            [107.5944412, -6.8614923],
            [107.5944759, -6.8614705],
            [107.5945209, -6.861442],
            [107.5945772, -6.8613777],
            [107.5946035, -6.8613115],
            [107.5945841, -6.8612633],
            [107.5945894, -6.8612027],
            [107.5945486, -6.86122],
            [107.5945147, -6.8612166],
            [107.5944944, -6.8611951],
            [107.5944773, -6.8611724],
            [107.5944545, -6.861199],
            [107.5944002, -6.861209],
            [107.5943936, -6.8612395],
            [107.5943799, -6.8612534],
            [107.5943383, -6.8612586],
            [107.594317, -6.8612452],
            [107.5943074, -6.86122],
            [107.5942463, -6.8612261],
            [107.5942184, -6.8612043],
            [107.59421, -6.8612374],
            [107.5941936, -6.8612618],
            [107.5941691, -6.8612606],
            [107.5941551, -6.8612455],
            [107.5941397, -6.8612402],
            [107.5941283, -6.8612363],
            [107.5941329, -6.8612792],
            [107.5941399, -6.8613105],
            [107.5941553, -6.8613473],
            [107.5941616, -6.8613622],
            [107.5941908, -6.8614097],
            [107.594262, -6.8615048]
          ]
        ]
      },
      "id": "way/701099031"
    },
    {
      "type": "Feature",
      "properties": {
        "@id": "way/731265983",
        "area": "yes",
        "highway": "pedestrian",
        "surface": "paving_stones"
      },
      "geometry": {
        "type": "Polygon",
        "coordinates": [
          [
            [107.593852, -6.8639106],
            [107.593509, -6.8638339],
            [107.5933496, -6.8638046],
            [107.5932887, -6.8640245],
            [107.5931999, -6.8642348],
            [107.5934235, -6.8643077],
            [107.5937484, -6.8643803],
            [107.5937872, -6.8642094],
            [107.593734, -6.8641975],
            [107.5937644, -6.8640635],
            [107.5938147, -6.8640748],
            [107.593852, -6.8639106]
          ]
        ]
      },
      "id": "way/731265983"
    },
    {
      "type": "Feature",
      "properties": {
        "@id": "way/854574716",
        "area": "yes",
        "highway": "pedestrian",
        "surface": "paving_stones"
      },
      "geometry": {
        "type": "Polygon",
        "coordinates": [
          [
            [107.5940853, -6.8619748],
            [107.594102, -6.8620322],
            [107.5941437, -6.8620787],
            [107.5941368, -6.8620436],
            [107.5943331, -6.862026],
            [107.594346, -6.8620931],
            [107.5944044, -6.8620931],
            [107.5944559, -6.8624686],
            [107.5944599, -6.8624916],
            [107.5945283, -6.8625786],
            [107.594576, -6.8626381],
            [107.594636, -6.8627156],
            [107.5945859, -6.8620682],
            [107.5946392, -6.8620611],
            [107.5946753, -6.862051],
            [107.5946734, -6.8620391],
            [107.5946413, -6.861838],
            [107.5946074, -6.8618232],
            [107.5946071, -6.8617748],
            [107.5943546, -6.8618026],
            [107.594283, -6.8618106],
            [107.5942959, -6.8619482],
            [107.5940853, -6.8619748]
          ]
        ]
      },
      "id": "way/854574716"
    },
    {
      "type": "Feature",
      "properties": {
        "@id": "way/1293750101",
        "area": "yes",
        "highway": "pedestrian",
        "surface": "paving_stones"
      },
      "geometry": {
        "type": "Polygon",
        "coordinates": [
          [
            [107.590535, -6.860208],
            [107.5905392, -6.860168],
            [107.5905569, -6.8601419],
            [107.590573, -6.860135],
            [107.5905864, -6.8601409],
            [107.5905924, -6.8601521],
            [107.5905902, -6.8601776],
            [107.5908053, -6.860192],
            [107.590861, -6.8601961],
            [107.5909403, -6.8599582],
            [107.5909707, -6.8598672],
            [107.5908575, -6.8598447],
            [107.5908136, -6.8598819],
            [107.5904738, -6.8597554],
            [107.5904503, -6.8597546],
            [107.5904412, -6.8597543],
            [107.5904431, -6.8599193],
            [107.5904431, -6.859921],
            [107.5903237, -6.859922],
            [107.5903249, -6.8600681],
            [107.5902788, -6.8600684],
            [107.5902798, -6.8601491],
            [107.5904946, -6.8601522],
            [107.5904925, -6.8602018],
            [107.590521, -6.8602059],
            [107.590535, -6.860208]
          ]
        ]
      },
      "id": "way/1293750101"
    },
    {
      "type": "Feature",
      "properties": {
        "@id": "way/1443184762",
        "area": "yes",
        "highway": "pedestrian"
      },
      "geometry": {
        "type": "Polygon",
        "coordinates": [
          [
            [107.6972064, -6.9527892],
            [107.6972136, -6.952803],
            [107.6977223, -6.9539301],
            [107.6976674, -6.953955],
            [107.697671, -6.9539629],
            [107.6976946, -6.9540144],
            [107.6977093, -6.9540502],
            [107.6977269, -6.9540903],
            [107.6977367, -6.9541133],
            [107.6977498, -6.9541424],
            [107.697748, -6.9541871],
            [107.6977465, -6.9542229],
            [107.6973572, -6.9543907],
            [107.6973559, -6.9543983],
            [107.6973552, -6.954409],
            [107.6973505, -6.9544226],
            [107.6973375, -6.9544316],
            [107.697321, -6.9544209],
            [107.6972972, -6.9544289],
            [107.6972969, -6.9544376],
            [107.6972949, -6.9544469],
            [107.6972868, -6.9544562],
            [107.6972758, -6.9544476],
            [107.6972667, -6.9544359],
            [107.6972533, -6.9544326],
            [107.6972436, -6.9544346],
            [107.6972352, -6.9544456],
            [107.6972322, -6.9544556],
            [107.6972399, -6.9544679],
            [107.6972459, -6.9544745],
            [107.6972567, -6.9544842],
            [107.697262, -6.9544938],
            [107.6972573, -6.9544965],
            [107.6972513, -6.9545002],
            [107.6972439, -6.9545158],
            [107.6972449, -6.9545271],
            [107.6972553, -6.9545371],
            [107.6972513, -6.9545388],
            [107.6972439, -6.9545414],
            [107.6972385, -6.9545457],
            [107.6972339, -6.9545557],
            [107.6972345, -6.9545667],
            [107.6972369, -6.9545767],
            [107.6972297, -6.9545814],
            [107.6972225, -6.9545913],
            [107.697144, -6.954825],
            [107.6971382, -6.954823],
            [107.697087, -6.954805],
            [107.6970495, -6.9549088],
            [107.6970731, -6.954917],
            [107.697118, -6.9549218],
            [107.6971237, -6.9549228],
            [107.6971279, -6.9549235],
            [107.6971527, -6.9549601],
            [107.6971797, -6.9549801],
            [107.6972159, -6.9550099],
            [107.6972694, -6.9548855],
            [107.697423, -6.9546719],
            [107.6976201, -6.9544902],
            [107.697726, -6.9544157],
            [107.6978065, -6.954367],
            [107.6978622, -6.9543397],
            [107.6979232, -6.9543125],
            [107.6981697, -6.9542078],
            [107.6982, -6.9541949],
            [107.698166, -6.9541156],
            [107.69822, -6.9540923],
            [107.6981823, -6.9540007],
            [107.6981783, -6.953993],
            [107.6981585, -6.9540016],
            [107.6981465, -6.9539753],
            [107.6981316, -6.953939],
            [107.6981224, -6.9539169],
            [107.6981079, -6.9538805],
            [107.6980905, -6.9538405],
            [107.6980697, -6.9537902],
            [107.6980658, -6.9537813],
            [107.6979921, -6.9538127],
            [107.6978916, -6.9538556],
            [107.6978818, -6.9538348],
            [107.6977112, -6.9534566],
            [107.6973839, -6.9527327],
            [107.6973754, -6.9527139],
            [107.6972996, -6.9527471],
            [107.6972064, -6.9527892]
          ]
        ]
      },
      "id": "way/1443184762"
    },
    {
      "type": "Feature",
      "properties": {
        "@id": "way/1443187677",
        "area": "yes",
        "highway": "pedestrian",
        "name": "Sawarga Courtyard",
        "tourism": "attraction"
      },
      "geometry": {
        "type": "Polygon",
        "coordinates": [
          [
            [107.6980304, -6.9547728],
            [107.6978618, -6.954884],
            [107.6977341, -6.9549924],
            [107.6976803, -6.9550778],
            [107.6976226, -6.9551698],
            [107.6975334, -6.9554015],
            [107.6975094, -6.955559],
            [107.6978614, -6.955413],
            [107.6982338, -6.9552582],
            [107.6981984, -6.9551732],
            [107.6980304, -6.9547728]
          ]
        ]
      },
      "id": "way/1443187677"
    },
    {
      "type": "Feature",
      "properties": {
        "@id": "way/1467745407",
        "area": "yes",
        "highway": "pedestrian"
      },
      "geometry": {
        "type": "Polygon",
        "coordinates": [
          [
            [107.6095804, -6.9113324],
            [107.6095644, -6.9117841],
            [107.6098084, -6.9117929],
            [107.6100688, -6.9118024],
            [107.6100812, -6.9113518],
            [107.6098837, -6.9113441],
            [107.6098897, -6.9111395],
            [107.6098336, -6.9111338],
            [107.6097934, -6.9111327],
            [107.609787, -6.9113404],
            [107.6095804, -6.9113324]
          ]
        ]
      },
      "id": "way/1467745407"
    },
    {
      "type": "Feature",
      "properties": {
        "@id": "way/1495959937",
        "area": "yes",
        "highway": "pedestrian"
      },
      "geometry": {
        "type": "Polygon",
        "coordinates": [
          [
            [107.6052914, -6.934893],
            [107.6053843, -6.9347275],
            [107.6054621, -6.9345345],
            [107.6054835, -6.9344307],
            [107.6054835, -6.9343335],
            [107.6054688, -6.9342403],
            [107.6054513, -6.9341617],
            [107.605458, -6.9341005],
            [107.6054929, -6.9339887],
            [107.6055103, -6.9338813],
            [107.6055037, -6.9337928],
            [107.6054959, -6.9337202],
            [107.6054785, -6.9336493],
            [107.6054509, -6.933577],
            [107.6054167, -6.9335172],
            [107.6053733, -6.9334583],
            [107.6053226, -6.9334055],
            [107.6052653, -6.9333597],
            [107.6052121, -6.9333249],
            [107.6051353, -6.9332922],
            [107.6050647, -6.9332717],
            [107.6049921, -6.9332605],
            [107.6049186, -6.9332588],
            [107.6048455, -6.9332666],
            [107.6047741, -6.9332838],
            [107.6046938, -6.9333154],
            [107.604641, -6.9333451],
            [107.6045816, -6.9333882],
            [107.6045284, -6.9334386],
            [107.6044642, -6.9335187],
            [107.6044441, -6.9335577],
            [107.6044143, -6.9336245],
            [107.6043937, -6.9336945],
            [107.6043781, -6.9337846],
            [107.6043739, -6.9338516],
            [107.6043811, -6.9339687],
            [107.6043919, -6.9340805],
            [107.6043771, -6.9341311],
            [107.6043449, -6.934199],
            [107.6043288, -6.9342989],
            [107.6043342, -6.9344],
            [107.604357, -6.9345212],
            [107.6043986, -6.9346809],
            [107.6044449, -6.9348359],
            [107.6045353, -6.934842],
            [107.6051867, -6.9348859],
            [107.6052914, -6.934893]
          ]
        ]
      },
      "id": "way/1495959937"
    },
    {
      "type": "Feature",
      "properties": {
        "@id": "way/1495959947",
        "area": "yes",
        "highway": "pedestrian"
      },
      "geometry": {
        "type": "Polygon",
        "coordinates": [
          [
            [107.6046371, -6.9349408],
            [107.6046186, -6.935172],
            [107.6045353, -6.9362169],
            [107.6046853, -6.9362287],
            [107.6047689, -6.9362353],
            [107.6049354, -6.9362483],
            [107.6049596, -6.9359448],
            [107.6050191, -6.9351988],
            [107.6050372, -6.9349722],
            [107.6046371, -6.9349408]
          ]
        ]
      },
      "id": "way/1495959947"
    },
    {
      "type": "Feature",
      "properties": {
        "@id": "way/1495959949",
        "area": "yes",
        "highway": "pedestrian"
      },
      "geometry": {
        "type": "Polygon",
        "coordinates": [
          [
            [107.6044982, -6.9368532],
            [107.6043997, -6.9370612],
            [107.6049404, -6.9371013],
            [107.6048707, -6.9368765],
            [107.6044982, -6.9368532]
          ]
        ]
      },
      "id": "way/1495959949"
    },
    {
      "type": "Feature",
      "properties": {
        "@id": "way/4637735",
        "avgspeed": "25",
        "bicycle": "yes",
        "covered": "no",
        "foot": "yes",
        "highway": "pedestrian",
        "horse": "no",
        "lit": "yes",
        "motor_vehicle": "no",
        "motorcar": "no",
        "name": "Jalan Dalem Kaum",
        "sidewalk": "both",
        "smoothness": "good",
        "surface": "paving_stones"
      },
      "geometry": {
        "type": "LineString",
        "coordinates": [
          [107.6040864, -6.9220682],
          [107.6047211, -6.922151],
          [107.6050236, -6.9221912],
          [107.6055558, -6.9222619],
          [107.6062028, -6.9223577]
        ]
      },
      "id": "way/4637735"
    },
    {
      "type": "Feature",
      "properties": {
        "@id": "way/171347314",
        "access": "no",
        "highway": "pedestrian",
        "name": "Jalan Sultan Agung",
        "surface": "asphalt"
      },
      "geometry": {
        "type": "LineString",
        "coordinates": [
          [107.6106627, -6.9054976],
          [107.6106903, -6.9055275],
          [107.610728, -6.9055565],
          [107.6108053, -6.9055884],
          [107.6109032, -6.9056145]
        ]
      },
      "id": "way/171347314"
    },
    {
      "type": "Feature",
      "properties": {
        "@id": "way/359307916",
        "highway": "pedestrian"
      },
      "geometry": {
        "type": "LineString",
        "coordinates": [
          [107.6089088, -6.9203619],
          [107.6088706, -6.9203539],
          [107.6088265, -6.9203446],
          [107.6087645, -6.9202783],
          [107.6087454, -6.9202024],
          [107.6087692, -6.9200436],
          [107.6088242, -6.9199986],
          [107.6088934, -6.9199749],
          [107.6089219, -6.9199739],
          [107.6089555, -6.9199736]
        ]
      },
      "id": "way/359307916"
    },
    {
      "type": "Feature",
      "properties": {
        "@id": "way/554803479",
        "bicycle": "yes",
        "highway": "pedestrian",
        "motor_vehicle": "no"
      },
      "geometry": {
        "type": "LineString",
        "coordinates": [
          [107.6972305, -6.9361962],
          [107.697309, -6.9361927],
          [107.6975218, -6.9361758],
          [107.6978159, -6.9361525],
          [107.6981927, -6.9361302],
          [107.6984483, -6.9361036]
        ]
      },
      "id": "way/554803479"
    },
    {
      "type": "Feature",
      "properties": {
        "@id": "way/555024271",
        "highway": "pedestrian",
        "name": "Jalan Sudirman",
        "name:en": "Sudirman Street",
        "name:etymology:wikidata": "Q2367329",
        "name:etymology:wikipedia": "id:Soedirman"
      },
      "geometry": {
        "type": "LineString",
        "coordinates": [
          [107.6006075, -6.9216582],
          [107.6006395, -6.9212786],
          [107.6005939, -6.9209963],
          [107.600604, -6.9208855],
          [107.6006436, -6.9204497],
          [107.6006504, -6.9203693]
        ]
      },
      "id": "way/555024271"
    },
    {
      "type": "Feature",
      "properties": {
        "@id": "way/561396129",
        "access": "permissive",
        "bicycle": "yes",
        "bridge": "yes",
        "foot": "yes",
        "highway": "pedestrian",
        "horse": "no",
        "layer": "1",
        "maxspeed": "5",
        "motor_vehicle": "no",
        "name": "Gang Adikacih II"
      },
      "geometry": {
        "type": "LineString",
        "coordinates": [
          [107.6018374, -6.9296981],
          [107.6017766, -6.9296938]
        ]
      },
      "id": "way/561396129"
    },
    {
      "type": "Feature",
      "properties": {
        "@id": "way/565638024",
        "highway": "pedestrian"
      },
      "geometry": {
        "type": "LineString",
        "coordinates": [
          [107.6345707, -6.9736569],
          [107.6347715, -6.9733713],
          [107.634843, -6.9732696],
          [107.6349057, -6.9731704],
          [107.6351971, -6.9727275]
        ]
      },
      "id": "way/565638024"
    },
    {
      "type": "Feature",
      "properties": {
        "@id": "way/617212779",
        "highway": "pedestrian"
      },
      "geometry": {
        "type": "LineString",
        "coordinates": [
          [107.634728, -6.9726554],
          [107.6339881, -6.9731531],
          [107.6332319, -6.9738156],
          [107.6330242, -6.9740906],
          [107.6329761, -6.9742782],
          [107.6329395, -6.9744655]
        ]
      },
      "id": "way/617212779"
    },
    {
      "type": "Feature",
      "properties": {
        "@id": "way/682819651",
        "highway": "pedestrian",
        "motorcar": "no",
        "motorcycle": "permissive"
      },
      "geometry": {
        "type": "LineString",
        "coordinates": [
          [107.676786, -6.9191231],
          [107.6767343, -6.9191144]
        ]
      },
      "id": "way/682819651"
    },
    {
      "type": "Feature",
      "properties": {
        "@id": "way/682819652",
        "bridge": "yes",
        "highway": "pedestrian",
        "layer": "1",
        "motorcar": "no",
        "motorcycle": "permissive"
      },
      "geometry": {
        "type": "LineString",
        "coordinates": [
          [107.6768511, -6.9191362],
          [107.676786, -6.9191231]
        ]
      },
      "id": "way/682819652"
    },
    {
      "type": "Feature",
      "properties": {
        "@id": "way/682819653",
        "highway": "pedestrian",
        "motorcar": "no",
        "motorcycle": "permissive"
      },
      "geometry": {
        "type": "LineString",
        "coordinates": [
          [107.6769227, -6.9191392],
          [107.6768511, -6.9191362]
        ]
      },
      "id": "way/682819653"
    },
    {
      "type": "Feature",
      "properties": {
        "@id": "way/747517370",
        "access": "yes",
        "avgspeed": "25",
        "bicycle": "yes",
        "highway": "pedestrian",
        "lit": "yes",
        "name": "Jalan Dalem Kaum",
        "surface": "paved"
      },
      "geometry": {
        "type": "LineString",
        "coordinates": [
          [107.6040208, -6.9220583],
          [107.6040592, -6.9220633],
          [107.6040864, -6.9220682]
        ]
      },
      "id": "way/747517370"
    },
    {
      "type": "Feature",
      "properties": {
        "@id": "way/771673370",
        "highway": "pedestrian"
      },
      "geometry": {
        "type": "LineString",
        "coordinates": [
          [107.5783638, -6.9463023],
          [107.5784274, -6.9463669],
          [107.5784314, -6.9464195],
          [107.5784469, -6.9464454],
          [107.5784603, -6.9464641],
          [107.5784777, -6.946496],
          [107.5784858, -6.9465147],
          [107.5784951, -6.9465426],
          [107.5784951, -6.9465613],
          [107.5784992, -6.9465959],
          [107.5784978, -6.9466358],
          [107.5784925, -6.9466571],
          [107.5784777, -6.9466901]
        ]
      },
      "id": "way/771673370"
    },
    {
      "type": "Feature",
      "properties": {
        "@id": "way/842094949",
        "highway": "pedestrian",
        "lit": "yes",
        "motor_vehicle": "no",
        "name": "Jalan Dalem Kaum",
        "sidewalk": "both",
        "surface": "paving_stones"
      },
      "geometry": {
        "type": "LineString",
        "coordinates": [
          [107.6062028, -6.9223577],
          [107.6063147, -6.9223777],
          [107.6063964, -6.9223969]
        ]
      },
      "id": "way/842094949"
    },
    {
      "type": "Feature",
      "properties": {
        "@id": "way/1000417636",
        "highway": "pedestrian"
      },
      "geometry": {
        "type": "LineString",
        "coordinates": [
          [107.6475536, -6.9469675],
          [107.6486329, -6.9471304],
          [107.6486806, -6.9471364]
        ]
      },
      "id": "way/1000417636"
    },
    {
      "type": "Feature",
      "properties": {
        "@id": "way/1060542954",
        "highway": "pedestrian",
        "motorcar": "no",
        "smoothness": "good",
        "source": "S2City_POI_2022",
        "surface": "paving_stones",
        "wheelchair": "no",
        "width": "1.5"
      },
      "geometry": {
        "type": "LineString",
        "coordinates": [
          [107.6085788, -6.8827796],
          [107.6087632, -6.8829687],
          [107.6088373, -6.8830229],
          [107.6089104, -6.8830555],
          [107.6091032, -6.8831145],
          [107.6093325, -6.8831485]
        ]
      },
      "id": "way/1060542954"
    },
    {
      "type": "Feature",
      "properties": {
        "@id": "way/1061428981",
        "highway": "pedestrian",
        "motorcar": "no",
        "smoothness": "intermediate",
        "source": "S2City_POI_2022",
        "surface": "paving_stones",
        "wheelchair": "no",
        "width": "1"
      },
      "geometry": {
        "type": "LineString",
        "coordinates": [
          [107.6188948, -6.8896179],
          [107.6188898, -6.8891068]
        ]
      },
      "id": "way/1061428981"
    },
    {
      "type": "Feature",
      "properties": {
        "@id": "way/1061428984",
        "highway": "pedestrian",
        "motorcar": "no",
        "smoothness": "intermediate",
        "source": "S2City_POI_2022",
        "surface": "concrete",
        "wheelchair": "no",
        "width": "1"
      },
      "geometry": {
        "type": "LineString",
        "coordinates": [
          [107.6189073, -6.8902215],
          [107.6188948, -6.8896179]
        ]
      },
      "id": "way/1061428984"
    },
    {
      "type": "Feature",
      "properties": {
        "@id": "way/1062270708",
        "highway": "pedestrian",
        "motorcar": "no",
        "smoothness": "intermediate",
        "source": "S2City_POI_2022",
        "surface": "paving_stones",
        "wheelchair": "limited",
        "width": "1.5"
      },
      "geometry": {
        "type": "LineString",
        "coordinates": [
          [107.6149058, -6.9039437],
          [107.614935, -6.9039514],
          [107.6149615, -6.903953],
          [107.6149829, -6.90395],
          [107.6150989, -6.9038848],
          [107.6151824, -6.9038299],
          [107.6151951, -6.9038089],
          [107.6151958, -6.9037933],
          [107.6151918, -6.9037836],
          [107.615064, -6.9036225],
          [107.6150512, -6.9036108],
          [107.6150161, -6.9035908],
          [107.6149609, -6.9035723],
          [107.6149148, -6.9035649],
          [107.6148931, -6.9035723],
          [107.6148772, -6.9035925],
          [107.6148668, -6.9036298],
          [107.6148595, -6.9036857],
          [107.6148562, -6.9037586],
          [107.6148659, -6.9038785],
          [107.6148689, -6.9038994],
          [107.614877, -6.9039131],
          [107.614888, -6.9039274],
          [107.6149058, -6.9039437]
        ]
      },
      "id": "way/1062270708"
    },
    {
      "type": "Feature",
      "properties": {
        "@id": "way/1062339842",
        "highway": "pedestrian",
        "motorcar": "no",
        "smoothness": "bad",
        "source": "S2City_POI_2022",
        "surface": "paving_stones",
        "wheelchair": "no",
        "width": "1.3"
      },
      "geometry": {
        "type": "LineString",
        "coordinates": [
          [107.6232632, -6.8863905],
          [107.6233269, -6.8864797],
          [107.6233819, -6.8865689],
          [107.6234324, -6.8866752]
        ]
      },
      "id": "way/1062339842"
    },
    {
      "type": "Feature",
      "properties": {
        "@id": "way/1063212785",
        "highway": "pedestrian",
        "smoothness": "intermediate",
        "surface": "paving_stones",
        "wheelchair": "yes",
        "width": "2"
      },
      "geometry": {
        "type": "LineString",
        "coordinates": [
          [107.610631, -6.9001404],
          [107.6105234, -6.899877]
        ]
      },
      "id": "way/1063212785"
    },
    {
      "type": "Feature",
      "properties": {
        "@id": "way/1113391467",
        "highway": "pedestrian",
        "motorcar": "no",
        "name": "Jalan Warsa"
      },
      "geometry": {
        "type": "LineString",
        "coordinates": [
          [107.5976733, -6.9199242],
          [107.5976645, -6.919974],
          [107.5976547, -6.9200188]
        ]
      },
      "id": "way/1113391467"
    },
    {
      "type": "Feature",
      "properties": {
        "@id": "way/1152554498",
        "access": "customers",
        "highway": "pedestrian",
        "noname": "yes"
      },
      "geometry": {
        "type": "LineString",
        "coordinates": [
          [107.6349825, -6.9487232],
          [107.6349814, -6.9487607]
        ]
      },
      "id": "way/1152554498"
    },
    {
      "type": "Feature",
      "properties": {
        "@id": "way/1152554499",
        "access": "customers",
        "highway": "pedestrian",
        "noname": "yes"
      },
      "geometry": {
        "type": "LineString",
        "coordinates": [
          [107.6345359, -6.9488151],
          [107.6345216, -6.9488364]
        ]
      },
      "id": "way/1152554499"
    },
    {
      "type": "Feature",
      "properties": {
        "@id": "way/1184365151",
        "highway": "pedestrian",
        "motorcar": "no",
        "motorcycle": "yes"
      },
      "geometry": {
        "type": "LineString",
        "coordinates": [
          [107.6081949, -6.8948643],
          [107.6082278, -6.8948509],
          [107.6082381, -6.8948522],
          [107.6082459, -6.8948576],
          [107.6083582, -6.895038]
        ]
      },
      "id": "way/1184365151"
    },
    {
      "type": "Feature",
      "properties": {
        "@id": "way/1198173625",
        "highway": "pedestrian",
        "noname": "yes"
      },
      "geometry": {
        "type": "LineString",
        "coordinates": [
          [107.6893172, -6.9587517],
          [107.6895644, -6.9587703],
          [107.6897957, -6.9587877]
        ]
      },
      "id": "way/1198173625"
    },
    {
      "type": "Feature",
      "properties": {
        "@id": "way/1215308721",
        "highway": "pedestrian",
        "name": "Gang Riung Saluyu C VIII"
      },
      "geometry": {
        "type": "LineString",
        "coordinates": [
          [107.6804268, -6.9508456],
          [107.6806692, -6.9508793]
        ]
      },
      "id": "way/1215308721"
    },
    {
      "type": "Feature",
      "properties": {
        "@id": "way/1222121015",
        "access": "private",
        "highway": "pedestrian",
        "motorcar": "no",
        "name": "Jalan Warsa"
      },
      "geometry": {
        "type": "LineString",
        "coordinates": [
          [107.5976998, -6.9197809],
          [107.5976733, -6.9199242]
        ]
      },
      "id": "way/1222121015"
    },
    {
      "type": "Feature",
      "properties": {
        "@id": "way/1230989800",
        "bicycle": "yes",
        "highway": "pedestrian",
        "horse": "no"
      },
      "geometry": {
        "type": "LineString",
        "coordinates": [
          [107.6106703, -6.8690232],
          [107.6107344, -6.8690122]
        ]
      },
      "id": "way/1230989800"
    },
    {
      "type": "Feature",
      "properties": {
        "@id": "way/1241224937",
        "highway": "pedestrian",
        "noname": "yes",
        "surface": "concrete"
      },
      "geometry": {
        "type": "LineString",
        "coordinates": [
          [107.6604487, -6.9311353],
          [107.6608811, -6.9311981]
        ]
      },
      "id": "way/1241224937"
    },
    {
      "type": "Feature",
      "properties": {
        "@id": "way/1241836670",
        "highway": "pedestrian",
        "level": "0",
        "name": "Downtown Walk"
      },
      "geometry": {
        "type": "LineString",
        "coordinates": [
          [107.6969737, -6.9555864],
          [107.6969885, -6.9554651],
          [107.697008, -6.9553554],
          [107.6970722, -6.9551086],
          [107.6971237, -6.9549228],
          [107.6971351, -6.9548966],
          [107.6973404, -6.9546531],
          [107.6973538, -6.9546343],
          [107.6975714, -6.9544379],
          [107.6976947, -6.9543653],
          [107.6977767, -6.954317],
          [107.6979, -6.9542557],
          [107.697915, -6.9542482],
          [107.698099, -6.9541742]
        ]
      },
      "id": "way/1241836670"
    },
    {
      "type": "Feature",
      "properties": {
        "@id": "way/1279414901",
        "bicycle": "yes",
        "bridge": "yes",
        "foot": "yes",
        "highway": "pedestrian",
        "layer": "1",
        "lit": "yes",
        "motorcar": "no",
        "motorcycle": "permissive"
      },
      "geometry": {
        "type": "LineString",
        "coordinates": [
          [107.6539531, -6.9275863],
          [107.6536205, -6.9274656],
          [107.6535962, -6.9274566],
          [107.6535776, -6.9274573],
          [107.6535699, -6.927469],
          [107.6535071, -6.9276359],
          [107.6534956, -6.9276493],
          [107.6534828, -6.9276534],
          [107.6531477, -6.9275372]
        ]
      },
      "id": "way/1279414901"
    },
    {
      "type": "Feature",
      "properties": {
        "@id": "way/1342782851",
        "foot": "yes",
        "highway": "pedestrian",
        "maxspeed": "25",
        "name": "Jalan X ITB",
        "surface": "paving_stones"
      },
      "geometry": {
        "type": "LineString",
        "coordinates": [
          [107.6104394, -6.8878987],
          [107.6103231, -6.8878978]
        ]
      },
      "id": "way/1342782851"
    },
    {
      "type": "Feature",
      "properties": {
        "@id": "way/1380335922",
        "highway": "pedestrian",
        "name": "Jalan Sudirman",
        "name:en": "Sudirman Street",
        "name:etymology:wikidata": "Q2367329",
        "name:etymology:wikipedia": "id:Soedirman"
      },
      "geometry": {
        "type": "LineString",
        "coordinates": [
          [107.600604, -6.9208855],
          [107.6004591, -6.9208699],
          [107.6003572, -6.9208589]
        ]
      },
      "id": "way/1380335922"
    },
    {
      "type": "Feature",
      "properties": {
        "@id": "way/1380335923",
        "highway": "pedestrian",
        "name": "Jalan Sudirman",
        "name:en": "Sudirman Street",
        "name:etymology:wikidata": "Q2367329",
        "name:etymology:wikipedia": "id:Soedirman"
      },
      "geometry": {
        "type": "LineString",
        "coordinates": [
          [107.6006395, -6.9212786],
          [107.600424, -6.9212554],
          [107.6004591, -6.9208699]
        ]
      },
      "id": "way/1380335923"
    },
    {
      "type": "Feature",
      "properties": {
        "@id": "way/1446853943",
        "bicycle": "yes",
        "foot": "yes",
        "highway": "pedestrian",
        "lit": "yes",
        "motorcar": "no",
        "motorcycle": "permissive"
      },
      "geometry": {
        "type": "LineString",
        "coordinates": [
          [107.6540676, -6.927594],
          [107.6540577, -6.9276129],
          [107.6540478, -6.9276169],
          [107.6540288, -6.9276128],
          [107.6539531, -6.9275863]
        ]
      },
      "id": "way/1446853943"
    },
    {
      "type": "Feature",
      "properties": {
        "@id": "way/1446853944",
        "bicycle": "yes",
        "foot": "yes",
        "highway": "pedestrian",
        "lit": "yes",
        "motorcar": "no",
        "motorcycle": "permissive"
      },
      "geometry": {
        "type": "LineString",
        "coordinates": [
          [107.6531477, -6.9275372],
          [107.6531122, -6.9275286],
          [107.6530909, -6.9275463],
          [107.65307, -6.9275842],
          [107.6530515, -6.9276279]
        ]
      },
      "id": "way/1446853944"
    },
    {
      "type": "Feature",
      "properties": {
        "@id": "way/1522577332",
        "highway": "pedestrian"
      },
      "geometry": {
        "type": "LineString",
        "coordinates": [
          [107.6350693, -6.9733859],
          [107.6352809, -6.9733867]
        ]
      },
      "id": "way/1522577332"
    }
  ]
}
