{
  "type": "FeatureCollection",
  "generator": "overpass-turbo",
  "copyright": "The data included in this document is from www.openstreetmap.org. The data is made available under ODbL.",
  "timestamp": "2026-08-16T00:08:04Z",
  "features": [
    {
      "type": "Feature",
      "properties": {
        "@id": "way/153283538",
        "amenity": "marketplace",
        "name": "Pasar Sederhana"
      },
      "geometry": {
        "type": "Polygon",
        "coordinates": [
          [
            [
              107.5992019,
              -6.8898623
            ],
            [
              107.5989658,
              -6.890054
            ],
            [
              107.5988612,
              -6.8903256
            ],
            [
              107.599057,
              -6.8904268
            ],
            [
              107.5989363,
              -6.8908742
            ],
            [
              107.5994137,
              -6.8910366
            ],
            [
              107.5997329,
              -6.8900354
            ],
            [
              107.5992019,
              -6.8898623
            ]
          ]
        ]
      },
      "id": "way/153283538"
    },
    {
      "type": "Feature",
      "properties": {
        "@id": "way/185039739",
        "addr:city": "Bandung",
        "addr:street": "Jalan ABC",
        "amenity": "marketplace",
        "building": "yes",
        "name": "Pasar Cikapundung"
      },
      "geometry": {
        "type": "Polygon",
        "coordinates": [
          [
            [
              107.6085073,
              -6.9184842
            ],
            [
              107.6085076,
              -6.9185094
            ],
            [
              107.6085163,
              -6.9191473
            ],
            [
              107.6085426,
              -6.9191492
            ],
            [
              107.6085455,
              -6.9192222
            ],
            [
              107.6085951,
              -6.9192203
            ],
            [
              107.6085973,
              -6.9193694
            ],
            [
              107.6085555,
              -6.9193684
            ],
            [
              107.6085584,
              -6.9194821
            ],
            [
              107.6086363,
              -6.919484
            ],
            [
              107.6086377,
              -6.9194648
            ],
            [
              107.6086538,
              -6.9194638
            ],
            [
              107.6086525,
              -6.9193939
            ],
            [
              107.6086972,
              -6.9193918
            ],
            [
              107.6086965,
              -6.9193663
            ],
            [
              107.6088201,
              -6.9193645
            ],
            [
              107.6091059,
              -6.9193601
            ],
            [
              107.6091073,
              -6.9193794
            ],
            [
              107.6091995,
              -6.9193746
            ],
            [
              107.609194,
              -6.9191565
            ],
            [
              107.6091465,
              -6.9191572
            ],
            [
              107.6091451,
              -6.9190828
            ],
            [
              107.6088926,
              -6.9187525
            ],
            [
              107.6088637,
              -6.9187525
            ],
            [
              107.6088616,
              -6.9187257
            ],
            [
              107.6088314,
              -6.9187161
            ],
            [
              107.6085967,
              -6.9184856
            ],
            [
              107.6085073,
              -6.9184842
            ]
          ]
        ]
      },
      "id": "way/185039739"
    },
    {
      "type": "Feature",
      "properties": {
        "@id": "way/185930835",
        "amenity": "marketplace",
        "landuse": "retail",
        "name": "Pasar Kordon",
        "opening_hours": "02:00-12:00",
        "operator": "Kordon"
      },
      "geometry": {
        "type": "Polygon",
        "coordinates": [
          [
            [
              107.6390826,
              -6.9538804
            ],
            [
              107.6389865,
              -6.9539255
            ],
            [
              107.6391734,
              -6.9543736
            ],
            [
              107.6392592,
              -6.9543949
            ],
            [
              107.6395473,
              -6.9543067
            ],
            [
              107.6395197,
              -6.9540054
            ],
            [
              107.639483,
              -6.9539537
            ],
            [
              107.6392163,
              -6.9539628
            ],
            [
              107.6391611,
              -6.9539294
            ],
            [
              107.6390826,
              -6.9538804
            ]
          ]
        ]
      },
      "id": "way/185930835"
    },
    {
      "type": "Feature",
      "properties": {
        "@id": "way/263441027",
        "amenity": "marketplace",
        "name": "Pasar Cihaurgeulis"
      },
      "geometry": {
        "type": "Polygon",
        "coordinates": [
          [
            [
              107.6272593,
              -6.8994112
            ],
            [
              107.6279939,
              -6.8996114
            ],
            [
              107.6281139,
              -6.8991633
            ],
            [
              107.6273889,
              -6.8989679
            ],
            [
              107.6272593,
              -6.8994112
            ]
          ]
        ]
      },
      "id": "way/263441027"
    },
    {
      "type": "Feature",
      "properties": {
        "@id": "way/382982559",
        "addr:city": "Bandung",
        "addr:housenumber": "3",
        "addr:postcode": "40286",
        "addr:street": "Rancabolang",
        "amenity": "marketplace",
        "building": "commercial",
        "name": "Pasar Sumber Hurip",
        "operator": "PD. Pasar Bermartabat Kota Bandung"
      },
      "geometry": {
        "type": "Polygon",
        "coordinates": [
          [
            [
              107.6647225,
              -6.9404057
            ],
            [
              107.6647745,
              -6.9400193
            ],
            [
              107.6640388,
              -6.9399495
            ],
            [
              107.6639871,
              -6.9402721
            ],
            [
              107.6647225,
              -6.9404057
            ]
          ]
        ]
      },
      "id": "way/382982559"
    },
    {
      "type": "Feature",
      "properties": {
        "@id": "way/416041501",
        "amenity": "marketplace",
        "name": "Pasar makanan"
      },
      "geometry": {
        "type": "Polygon",
        "coordinates": [
          [
            [
              107.6198998,
              -6.897501
            ],
            [
              107.6199012,
              -6.897585
            ],
            [
              107.6202293,
              -6.8975796
            ],
            [
              107.6202279,
              -6.8974957
            ],
            [
              107.6198998,
              -6.897501
            ]
          ]
        ]
      },
      "id": "way/416041501"
    },
    {
      "type": "Feature",
      "properties": {
        "@id": "way/418955040",
        "amenity": "marketplace",
        "building": "yes",
        "landuse": "retail",
        "name": "Pasar Baru"
      },
      "geometry": {
        "type": "Polygon",
        "coordinates": [
          [
            [
              107.6032266,
              -6.9169991
            ],
            [
              107.6032491,
              -6.9178881
            ],
            [
              107.6033531,
              -6.9179288
            ],
            [
              107.6033625,
              -6.9177474
            ],
            [
              107.6040461,
              -6.9179944
            ],
            [
              107.6040776,
              -6.91791
            ],
            [
              107.6042194,
              -6.91791
            ],
            [
              107.6042213,
              -6.9178935
            ],
            [
              107.6042344,
              -6.9177792
            ],
            [
              107.6043118,
              -6.9171017
            ],
            [
              107.6037671,
              -6.9170539
            ],
            [
              107.6032266,
              -6.9169991
            ]
          ]
        ]
      },
      "id": "way/418955040"
    },
    {
      "type": "Feature",
      "properties": {
        "@id": "way/462559612",
        "amenity": "marketplace",
        "building": "retail",
        "covered": "yes",
        "name": "Pasar Antri Baru Cimahi"
      },
      "geometry": {
        "type": "Polygon",
        "coordinates": [
          [
            [
              107.5377087,
              -6.8801451
            ],
            [
              107.5383188,
              -6.880848
            ],
            [
              107.53881,
              -6.8804277
            ],
            [
              107.5381998,
              -6.8797248
            ],
            [
              107.5377087,
              -6.8801451
            ]
          ]
        ]
      },
      "id": "way/462559612"
    },
    {
      "type": "Feature",
      "properties": {
        "@id": "way/512057572",
        "amenity": "marketplace",
        "building": "yes",
        "name": "Pasar Pamoyanan"
      },
      "geometry": {
        "type": "Polygon",
        "coordinates": [
          [
            [
              107.5961628,
              -6.9033332
            ],
            [
              107.5960241,
              -6.9035153
            ],
            [
              107.5962333,
              -6.9036724
            ],
            [
              107.596372,
              -6.9034903
            ],
            [
              107.5961628,
              -6.9033332
            ]
          ]
        ]
      },
      "id": "way/512057572"
    },
    {
      "type": "Feature",
      "properties": {
        "@id": "way/513990483",
        "amenity": "marketplace",
        "building": "yes",
        "name": "Pasar Ancol"
      },
      "geometry": {
        "type": "Polygon",
        "coordinates": [
          [
            [
              107.6154184,
              -6.9321554
            ],
            [
              107.6151918,
              -6.9324639
            ],
            [
              107.6156861,
              -6.9326133
            ],
            [
              107.615833,
              -6.9324576
            ],
            [
              107.6154184,
              -6.9321554
            ]
          ]
        ]
      },
      "id": "way/513990483"
    },
    {
      "type": "Feature",
      "properties": {
        "@id": "way/523239489",
        "amenity": "marketplace",
        "building": "yes",
        "name": "Pasar Sarijadi"
      },
      "geometry": {
        "type": "Polygon",
        "coordinates": [
          [
            [
              107.5759631,
              -6.874828
            ],
            [
              107.5761344,
              -6.8749107
            ],
            [
              107.5764187,
              -6.8743306
            ],
            [
              107.5762475,
              -6.8742479
            ],
            [
              107.5759631,
              -6.874828
            ]
          ]
        ]
      },
      "id": "way/523239489"
    },
    {
      "type": "Feature",
      "properties": {
        "@id": "way/584908593",
        "addr:city": "Bandung",
        "addr:full": "Jl. Cihapit, Cihapit, Bandung Wetan",
        "amenity": "marketplace",
        "name": "Pasar Cihapit",
        "opening_hours": "Mo-Su 03:00-16:00",
        "source": "S2City_POI_2022",
        "wheelchair": "no"
      },
      "geometry": {
        "type": "Polygon",
        "coordinates": [
          [
            [
              107.6228776,
              -6.90872
            ],
            [
              107.6227643,
              -6.9085636
            ],
            [
              107.6226503,
              -6.9084063
            ],
            [
              107.6221587,
              -6.9083769
            ],
            [
              107.6221172,
              -6.9085465
            ],
            [
              107.6228776,
              -6.90872
            ]
          ]
        ]
      },
      "id": "way/584908593"
    },
    {
      "type": "Feature",
      "properties": {
        "@id": "way/632230386",
        "amenity": "marketplace",
        "building": "marketplace",
        "name": "Pasar Kembar Mas",
        "source": "POI_WRI_Survey_2023",
        "wheelchair": "no"
      },
      "geometry": {
        "type": "Polygon",
        "coordinates": [
          [
            [
              107.6093713,
              -6.946895
            ],
            [
              107.6092917,
              -6.946644
            ],
            [
              107.609143,
              -6.9466905
            ],
            [
              107.6092226,
              -6.9469415
            ],
            [
              107.6093713,
              -6.946895
            ]
          ]
        ]
      },
      "id": "way/632230386"
    },
    {
      "type": "Feature",
      "properties": {
        "@id": "way/632654957",
        "amenity": "marketplace",
        "building": "retail",
        "name": "Pasar Buku Palasari",
        "wheelchair": "no"
      },
      "geometry": {
        "type": "Polygon",
        "coordinates": [
          [
            [
              107.6224463,
              -6.9314381
            ],
            [
              107.622376,
              -6.9314251
            ],
            [
              107.6223603,
              -6.9314728
            ],
            [
              107.6223414,
              -6.931469
            ],
            [
              107.6222869,
              -6.9316664
            ],
            [
              107.6223084,
              -6.9316708
            ],
            [
              107.6222855,
              -6.9317664
            ],
            [
              107.6222655,
              -6.931762
            ],
            [
              107.622242,
              -6.931846
            ],
            [
              107.6222603,
              -6.9318508
            ],
            [
              107.6222509,
              -6.9318855
            ],
            [
              107.6222287,
              -6.9318806
            ],
            [
              107.6222105,
              -6.9319542
            ],
            [
              107.622232,
              -6.9319586
            ],
            [
              107.6222248,
              -6.9319886
            ],
            [
              107.6222035,
              -6.9319835
            ],
            [
              107.6221659,
              -6.9321088
            ],
            [
              107.622187,
              -6.9321142
            ],
            [
              107.6221722,
              -6.9321726
            ],
            [
              107.6221499,
              -6.9321666
            ],
            [
              107.6221153,
              -6.9322924
            ],
            [
              107.6221387,
              -6.9322986
            ],
            [
              107.622137,
              -6.9323042
            ],
            [
              107.6221468,
              -6.9323069
            ],
            [
              107.6221374,
              -6.9323425
            ],
            [
              107.6223364,
              -6.9323915
            ],
            [
              107.6223709,
              -6.9322619
            ],
            [
              107.622351,
              -6.932257
            ],
            [
              107.6224237,
              -6.9319489
            ],
            [
              107.6223134,
              -6.9319222
            ],
            [
              107.6224463,
              -6.9314381
            ]
          ]
        ]
      },
      "id": "way/632654957"
    },
    {
      "type": "Feature",
      "properties": {
        "@id": "way/633223487",
        "amenity": "marketplace",
        "building": "marketplace",
        "name": "Pasar Leuwipanjang",
        "source": "POI_WRI_Survey_2023",
        "wheelchair": "no"
      },
      "geometry": {
        "type": "Polygon",
        "coordinates": [
          [
            [
              107.5970941,
              -6.938419
            ],
            [
              107.5970865,
              -6.9384447
            ],
            [
              107.5970803,
              -6.9384429
            ],
            [
              107.5969604,
              -6.93885
            ],
            [
              107.5969709,
              -6.938853
            ],
            [
              107.596958,
              -6.9388966
            ],
            [
              107.5972011,
              -6.9389672
            ],
            [
              107.5972294,
              -6.9388712
            ],
            [
              107.5972864,
              -6.9388878
            ],
            [
              107.5973682,
              -6.93861
            ],
            [
              107.5973065,
              -6.938592
            ],
            [
              107.5973367,
              -6.9384894
            ],
            [
              107.5972276,
              -6.9384577
            ],
            [
              107.5970941,
              -6.938419
            ]
          ]
        ]
      },
      "id": "way/633223487"
    },
    {
      "type": "Feature",
      "properties": {
        "@id": "way/633756011",
        "addr:city": "Bandung",
        "addr:full": "Jalan Peta",
        "amenity": "marketplace",
        "building": "yes",
        "name": "Pasar Sukahaji",
        "opening_hours": "Mo-Su 07:00-17:00",
        "source": "S2City_POI_2022",
        "wheelchair": "no"
      },
      "geometry": {
        "type": "Polygon",
        "coordinates": [
          [
            [
              107.5860521,
              -6.9279612
            ],
            [
              107.5856945,
              -6.927901
            ],
            [
              107.5856526,
              -6.9281376
            ],
            [
              107.585659,
              -6.9281386
            ],
            [
              107.5856559,
              -6.9281552
            ],
            [
              107.585715,
              -6.9281643
            ],
            [
              107.5857187,
              -6.9281473
            ],
            [
              107.585876,
              -6.9281702
            ],
            [
              107.5858733,
              -6.9281867
            ],
            [
              107.5859305,
              -6.9281967
            ],
            [
              107.5859347,
              -6.9281807
            ],
            [
              107.5860131,
              -6.9281936
            ],
            [
              107.5860521,
              -6.9279612
            ]
          ]
        ]
      },
      "id": "way/633756011"
    },
    {
      "type": "Feature",
      "properties": {
        "@id": "way/635818767",
        "amenity": "marketplace",
        "building": "yes",
        "layer": "1",
        "name": "Pasar Ciroyom Baru"
      },
      "geometry": {
        "type": "Polygon",
        "coordinates": [
          [
            [
              107.5872331,
              -6.9139241
            ],
            [
              107.5868796,
              -6.9149913
            ],
            [
              107.5871874,
              -6.9150842
            ],
            [
              107.5880088,
              -6.9144267
            ],
            [
              107.5880691,
              -6.9142389
            ],
            [
              107.5872331,
              -6.9139241
            ]
          ]
        ]
      },
      "id": "way/635818767"
    },
    {
      "type": "Feature",
      "properties": {
        "@id": "way/660635601",
        "addr:city": "Bandung, Jawa Barat",
        "addr:postcode": "40287",
        "addr:street": "Taman Kopo Indah 2",
        "amenity": "marketplace",
        "building": "yes",
        "name": "Pasar Segar"
      },
      "geometry": {
        "type": "Polygon",
        "coordinates": [
          [
            [
              107.5622462,
              -6.9632508
            ],
            [
              107.5623108,
              -6.9632901
            ],
            [
              107.5623171,
              -6.9632756
            ],
            [
              107.5628712,
              -6.9636085
            ],
            [
              107.563067,
              -6.9632322
            ],
            [
              107.5630024,
              -6.9631888
            ],
            [
              107.5630316,
              -6.9631226
            ],
            [
              107.5629962,
              -6.9630998
            ],
            [
              107.5630066,
              -6.9630833
            ],
            [
              107.5629358,
              -6.9630399
            ],
            [
              107.5629608,
              -6.962982
            ],
            [
              107.5629212,
              -6.9629427
            ],
            [
              107.5629337,
              -6.9629179
            ],
            [
              107.5628879,
              -6.9628827
            ],
            [
              107.5629274,
              -6.9628372
            ],
            [
              107.5628879,
              -6.9628062
            ],
            [
              107.5629444,
              -6.9627293
            ],
            [
              107.5629362,
              -6.9627102
            ],
            [
              107.5629609,
              -6.9626583
            ],
            [
              107.5629747,
              -6.9626365
            ],
            [
              107.5627154,
              -6.9624762
            ],
            [
              107.5622462,
              -6.9632508
            ]
          ]
        ]
      },
      "id": "way/660635601"
    },
    {
      "type": "Feature",
      "properties": {
        "@id": "way/799423280",
        "addr:city": "Bandung",
        "addr:full": "Jl. Intan Raya",
        "amenity": "marketplace",
        "building": "yes",
        "name": "Pasar Sadang Serang",
        "opening_hours": "Mo-Su 03:00-12:00",
        "source": "S2City_POI_2022",
        "wheelchair": "no"
      },
      "geometry": {
        "type": "Polygon",
        "coordinates": [
          [
            [
              107.6248814,
              -6.8918219
            ],
            [
              107.6248741,
              -6.8921936
            ],
            [
              107.6252344,
              -6.8922006
            ],
            [
              107.6252417,
              -6.8918288
            ],
            [
              107.6248814,
              -6.8918219
            ]
          ]
        ]
      },
      "id": "way/799423280"
    },
    {
      "type": "Feature",
      "properties": {
        "@id": "way/896609016",
        "amenity": "marketplace",
        "building": "yes",
        "name": "Pasar Rametuk"
      },
      "geometry": {
        "type": "Polygon",
        "coordinates": [
          [
            [
              107.6404373,
              -6.9412996
            ],
            [
              107.6403704,
              -6.941289
            ],
            [
              107.6403628,
              -6.9413363
            ],
            [
              107.6404296,
              -6.9413469
            ],
            [
              107.6404373,
              -6.9412996
            ]
          ]
        ]
      },
      "id": "way/896609016"
    },
    {
      "type": "Feature",
      "properties": {
        "@id": "way/1060183316",
        "addr:city": "Bandung",
        "addr:full": "Jl. Pagarsih No 58",
        "amenity": "marketplace",
        "building": "yes",
        "name": "Pasar ulekan pagarsih",
        "name:en": "Pagarsih Ulekan Market",
        "opening_hours": "Sa-Su 08:00-16:00",
        "source": "S2City_POI_2022",
        "wheelchair": "no"
      },
      "geometry": {
        "type": "Polygon",
        "coordinates": [
          [
            [
              107.5954387,
              -6.9233813
            ],
            [
              107.5954226,
              -6.9235304
            ],
            [
              107.5956961,
              -6.9235595
            ],
            [
              107.5957122,
              -6.9234104
            ],
            [
              107.5956377,
              -6.9234025
            ],
            [
              107.5956608,
              -6.9231883
            ],
            [
              107.5954898,
              -6.9231701
            ],
            [
              107.5954667,
              -6.9233843
            ],
            [
              107.5954387,
              -6.9233813
            ]
          ]
        ]
      },
      "id": "way/1060183316"
    },
    {
      "type": "Feature",
      "properties": {
        "@id": "way/1062328859",
        "addr:city": "Bandung",
        "addr:full": "Jalan Soekarno Hatta",
        "amenity": "marketplace",
        "landuse": "retail",
        "name": "Pasar Induk Caringin",
        "opening_hours": "24/7",
        "source": "S2City_POI_2022",
        "wheelchair": "limited"
      },
      "geometry": {
        "type": "Polygon",
        "coordinates": [
          [
            [
              107.5825439,
              -6.941599
            ],
            [
              107.5824708,
              -6.9417068
            ],
            [
              107.5821054,
              -6.9420529
            ],
            [
              107.5820692,
              -6.9418745
            ],
            [
              107.5817145,
              -6.9415524
            ],
            [
              107.5815039,
              -6.9418113
            ],
            [
              107.5814871,
              -6.94176
            ],
            [
              107.5810935,
              -6.9417248
            ],
            [
              107.5810357,
              -6.9423347
            ],
            [
              107.5810387,
              -6.9423523
            ],
            [
              107.5810573,
              -6.9423691
            ],
            [
              107.5809889,
              -6.9425615
            ],
            [
              107.5808575,
              -6.9427012
            ],
            [
              107.5806295,
              -6.9429928
            ],
            [
              107.5805846,
              -6.9430327
            ],
            [
              107.5805383,
              -6.9429848
            ],
            [
              107.5805034,
              -6.9429815
            ],
            [
              107.5804719,
              -6.9430188
            ],
            [
              107.5804612,
              -6.9431539
            ],
            [
              107.5804894,
              -6.9431892
            ],
            [
              107.5805973,
              -6.9432155
            ],
            [
              107.5805752,
              -6.9433259
            ],
            [
              107.5805584,
              -6.9434341
            ],
            [
              107.5806228,
              -6.9434501
            ],
            [
              107.5806024,
              -6.943554
            ],
            [
              107.5805718,
              -6.9436764
            ],
            [
              107.5807324,
              -6.9437193
            ],
            [
              107.5805055,
              -6.9443414
            ],
            [
              107.5804719,
              -6.9444326
            ],
            [
              107.5808515,
              -6.9445763
            ],
            [
              107.5809775,
              -6.9441989
            ],
            [
              107.5815418,
              -6.9443946
            ],
            [
              107.5816488,
              -6.9444229
            ],
            [
              107.5816547,
              -6.9444002
            ],
            [
              107.5817299,
              -6.9444113
            ],
            [
              107.5820692,
              -6.9444685
            ],
            [
              107.5823528,
              -6.9445277
            ],
            [
              107.5827143,
              -6.9445976
            ],
            [
              107.5831139,
              -6.9447075
            ],
            [
              107.5836014,
              -6.9448592
            ],
            [
              107.5842069,
              -6.9448945
            ],
            [
              107.5842632,
              -6.9443261
            ],
            [
              107.5839615,
              -6.9442875
            ],
            [
              107.5839896,
              -6.9436591
            ],
            [
              107.5842646,
              -6.943281
            ],
            [
              107.5843129,
              -6.9431
            ],
            [
              107.5833888,
              -6.9423212
            ],
            [
              107.5827934,
              -6.9418273
            ],
            [
              107.5825439,
              -6.941599
            ]
          ]
        ]
      },
      "id": "way/1062328859"
    },
    {
      "type": "Feature",
      "properties": {
        "@id": "way/1161121779",
        "amenity": "marketplace",
        "landuse": "retail",
        "name": "Pasar Cicaheum",
        "source": "POI_WRI_Survey_2023",
        "wheelchair": "no"
      },
      "geometry": {
        "type": "Polygon",
        "coordinates": [
          [
            [
              107.6562801,
              -6.9028477
            ],
            [
              107.6562342,
              -6.9028495
            ],
            [
              107.6562632,
              -6.9033614
            ],
            [
              107.6572915,
              -6.9032829
            ],
            [
              107.6572762,
              -6.9028138
            ],
            [
              107.6562801,
              -6.9028477
            ]
          ]
        ]
      },
      "id": "way/1161121779"
    },
    {
      "type": "Feature",
      "properties": {
        "@id": "way/1233613990",
        "amenity": "marketplace",
        "building": "yes",
        "name": "Pasar Andir Trade Center"
      },
      "geometry": {
        "type": "Polygon",
        "coordinates": [
          [
            [
              107.5900491,
              -6.9175033
            ],
            [
              107.5900007,
              -6.9181745
            ],
            [
              107.5904965,
              -6.9182097
            ],
            [
              107.5908681,
              -6.9179585
            ],
            [
              107.5908965,
              -6.9175634
            ],
            [
              107.5900491,
              -6.9175033
            ]
          ]
        ]
      },
      "id": "way/1233613990"
    },
    {
      "type": "Feature",
      "properties": {
        "@id": "way/1381663441",
        "amenity": "marketplace",
        "landuse": "retail",
        "name": "Pasar Cikapundung"
      },
      "geometry": {
        "type": "Polygon",
        "coordinates": [
          [
            [
              107.6085313,
              -6.9184786
            ],
            [
              107.6084563,
              -6.9184781
            ],
            [
              107.6084003,
              -6.9187041
            ],
            [
              107.6083536,
              -6.9188849
            ],
            [
              107.6083151,
              -6.9189116
            ],
            [
              107.6082789,
              -6.9191353
            ],
            [
              107.6082042,
              -6.9193752
            ],
            [
              107.608405,
              -6.9195224
            ],
            [
              107.6086023,
              -6.9195884
            ],
            [
              107.6086512,
              -6.919474
            ],
            [
              107.6086736,
              -6.9194054
            ],
            [
              107.6092041,
              -6.9193933
            ],
            [
              107.6092,
              -6.9191007
            ],
            [
              107.6088911,
              -6.9187274
            ],
            [
              107.6086187,
              -6.9184772
            ],
            [
              107.6085313,
              -6.9184786
            ]
          ]
        ]
      },
      "id": "way/1381663441"
    },
    {
      "type": "Feature",
      "properties": {
        "@id": "way/1382636266",
        "amenity": "marketplace",
        "landuse": "retail",
        "name": "Pasar Ciroyom"
      },
      "geometry": {
        "type": "Polygon",
        "coordinates": [
          [
            [
              107.5885653,
              -6.9140959
            ],
            [
              107.5884874,
              -6.9141714
            ],
            [
              107.5885387,
              -6.9142312
            ],
            [
              107.5888997,
              -6.9145597
            ],
            [
              107.5889741,
              -6.9146458
            ],
            [
              107.5890183,
              -6.9147283
            ],
            [
              107.5890608,
              -6.9148285
            ],
            [
              107.5896978,
              -6.9156295
            ],
            [
              107.5900907,
              -6.9161319
            ],
            [
              107.5903013,
              -6.9164165
            ],
            [
              107.5905366,
              -6.9164359
            ],
            [
              107.5902535,
              -6.9160775
            ],
            [
              107.5896518,
              -6.9153203
            ],
            [
              107.5892448,
              -6.9148109
            ],
            [
              107.5891103,
              -6.9146335
            ],
            [
              107.5890608,
              -6.9145316
            ],
            [
              107.5890714,
              -6.9144297
            ],
            [
              107.5890926,
              -6.9143506
            ],
            [
              107.5890944,
              -6.9142136
            ],
            [
              107.5889652,
              -6.9142066
            ],
            [
              107.5889546,
              -6.914377
            ],
            [
              107.5888785,
              -6.9143682
            ],
            [
              107.588836,
              -6.9143524
            ],
            [
              107.5885653,
              -6.9140959
            ]
          ]
        ]
      },
      "id": "way/1382636266"
    },
    {
      "type": "Feature",
      "properties": {
        "@id": "way/1382929132",
        "amenity": "marketplace",
        "landuse": "retail",
        "name": "Pasar Astana Anyar",
        "source": "POI_WRI_Survey_2023",
        "wheelchair": "no"
      },
      "geometry": {
        "type": "Polygon",
        "coordinates": [
          [
            [
              107.6004992,
              -6.9302599
            ],
            [
              107.6004977,
              -6.930526
            ],
            [
              107.6002327,
              -6.9305153
            ],
            [
              107.6000864,
              -6.9306744
            ],
            [
              107.6002543,
              -6.9308319
            ],
            [
              107.6001927,
              -6.9308869
            ],
            [
              107.6002019,
              -6.9310261
            ],
            [
              107.6005485,
              -6.9312998
            ],
            [
              107.6005393,
              -6.9314191
            ],
            [
              107.6006086,
              -6.9314879
            ],
            [
              107.6007103,
              -6.9315093
            ],
            [
              107.6007765,
              -6.9311087
            ],
            [
              107.6009783,
              -6.9312249
            ],
            [
              107.6010122,
              -6.9311851
            ],
            [
              107.6011509,
              -6.9312555
            ],
            [
              107.601439,
              -6.9309374
            ],
            [
              107.6007981,
              -6.9303211
            ],
            [
              107.6006333,
              -6.9302691
            ],
            [
              107.6004992,
              -6.9302599
            ]
          ]
        ]
      },
      "id": "way/1382929132"
    },
    {
      "type": "Feature",
      "properties": {
        "@id": "way/1409308365",
        "amenity": "marketplace",
        "landuse": "retail"
      },
      "geometry": {
        "type": "Polygon",
        "coordinates": [
          [
            [
              107.6153386,
              -6.9320918
            ],
            [
              107.6150479,
              -6.932453
            ],
            [
              107.6157228,
              -6.9326306
            ],
            [
              107.6158711,
              -6.9324692
            ],
            [
              107.6153386,
              -6.9320918
            ]
          ]
        ]
      },
      "id": "way/1409308365"
    },
    {
      "type": "Feature",
      "properties": {
        "@id": "way/1426401008",
        "amenity": "marketplace",
        "landuse": "retail",
        "name": "Pasar Atas Kota Cimahi"
      },
      "geometry": {
        "type": "Polygon",
        "coordinates": [
          [
            [
              107.542548,
              -6.8688172
            ],
            [
              107.5423157,
              -6.8695034
            ],
            [
              107.5426192,
              -6.8696251
            ],
            [
              107.5432613,
              -6.8700436
            ],
            [
              107.54351,
              -6.8696414
            ],
            [
              107.5429905,
              -6.8693412
            ],
            [
              107.5431843,
              -6.8689517
            ],
            [
              107.5428971,
              -6.8688578
            ],
            [
              107.542548,
              -6.8688172
            ]
          ]
        ]
      },
      "id": "way/1426401008"
    },
    {
      "type": "Feature",
      "properties": {
        "@id": "way/1463721629",
        "amenity": "marketplace",
        "landuse": "retail",
        "name": "Pasar Gang Saleh"
      },
      "geometry": {
        "type": "Polygon",
        "coordinates": [
          [
            [
              107.5969745,
              -6.911053
            ],
            [
              107.5968108,
              -6.9111454
            ],
            [
              107.5970188,
              -6.9114574
            ],
            [
              107.5970896,
              -6.9115797
            ],
            [
              107.597162,
              -6.9117923
            ],
            [
              107.5972375,
              -6.9117663
            ],
            [
              107.5971574,
              -6.9115614
            ],
            [
              107.5970881,
              -6.9114085
            ],
            [
              107.5970444,
              -6.9113355
            ],
            [
              107.597096,
              -6.9113031
            ],
            [
              107.5970241,
              -6.9110896
            ],
            [
              107.5969745,
              -6.911053
            ]
          ]
        ]
      },
      "id": "way/1463721629"
    },
    {
      "type": "Feature",
      "properties": {
        "@id": "way/1465181825",
        "amenity": "marketplace",
        "landuse": "retail",
        "name": "Pasar Palasari"
      },
      "geometry": {
        "type": "Polygon",
        "coordinates": [
          [
            [
              107.6220729,
              -6.9324348
            ],
            [
              107.6224812,
              -6.9325954
            ],
            [
              107.6225412,
              -6.9325128
            ],
            [
              107.6228401,
              -6.9326214
            ],
            [
              107.6230096,
              -6.93221
            ],
            [
              107.6230958,
              -6.9322314
            ],
            [
              107.6230912,
              -6.9315723
            ],
            [
              107.6232807,
              -6.9316641
            ],
            [
              107.6233808,
              -6.9314576
            ],
            [
              107.6226784,
              -6.9311288
            ],
            [
              107.6224581,
              -6.9310416
            ],
            [
              107.6220729,
              -6.9324348
            ]
          ]
        ]
      },
      "id": "way/1465181825"
    },
    {
      "type": "Feature",
      "properties": {
        "@id": "way/1467230384",
        "amenity": "marketplace",
        "landuse": "retail",
        "name": "Pasar Kiaracondong"
      },
      "geometry": {
        "type": "Polygon",
        "coordinates": [
          [
            [
              107.6445988,
              -6.9258284
            ],
            [
              107.6446192,
              -6.9264701
            ],
            [
              107.6449912,
              -6.9264661
            ],
            [
              107.6454363,
              -6.92668
            ],
            [
              107.6456599,
              -6.9262461
            ],
            [
              107.6447371,
              -6.9258345
            ],
            [
              107.6445988,
              -6.9258284
            ]
          ]
        ]
      },
      "id": "way/1467230384"
    },
    {
      "type": "Feature",
      "properties": {
        "@id": "way/1480093836",
        "amenity": "marketplace",
        "landuse": "retail",
        "name": "Pasar Sayati"
      },
      "geometry": {
        "type": "Polygon",
        "coordinates": [
          [
            [
              107.5734096,
              -6.9672134
            ],
            [
              107.5733022,
              -6.9681637
            ],
            [
              107.5738485,
              -6.96821
            ],
            [
              107.5738579,
              -6.9679968
            ],
            [
              107.5743226,
              -6.9680663
            ],
            [
              107.5743482,
              -6.967925
            ],
            [
              107.5744089,
              -6.9679435
            ],
            [
              107.574507,
              -6.9673432
            ],
            [
              107.5738549,
              -6.9672661
            ],
            [
              107.5734096,
              -6.9672134
            ]
          ]
        ]
      },
      "id": "way/1480093836"
    },
    {
      "type": "Feature",
      "properties": {
        "@id": "way/1481271829",
        "amenity": "marketplace",
        "landuse": "retail",
        "name": "Pasar Margahayu"
      },
      "geometry": {
        "type": "Polygon",
        "coordinates": [
          [
            [
              107.561297,
              -6.974708
            ],
            [
              107.5610937,
              -6.9751216
            ],
            [
              107.5616934,
              -6.9753798
            ],
            [
              107.5618438,
              -6.974938
            ],
            [
              107.5617523,
              -6.9748795
            ],
            [
              107.5615877,
              -6.9747766
            ],
            [
              107.561297,
              -6.974708
            ]
          ]
        ]
      },
      "id": "way/1481271829"
    },
    {
      "type": "Feature",
      "properties": {
        "@id": "node/1342928034",
        "addr:city": "Bandung",
        "addr:full": "Jalan Ir. H. Juanda",
        "amenity": "marketplace",
        "name": "Pasar Tradisional Simpang Dago",
        "opening_hours": "Mo-Su 03:00-23:00",
        "source": "S2City_POI_2022",
        "wheelchair": "limited"
      },
      "geometry": {
        "type": "Point",
        "coordinates": [
          107.6139584,
          -6.8847502
        ]
      },
      "id": "node/1342928034"
    },
    {
      "type": "Feature",
      "properties": {
        "@id": "node/1870972248",
        "amenity": "marketplace",
        "name": "Pasar Sarijadi"
      },
      "geometry": {
        "type": "Point",
        "coordinates": [
          107.5749797,
          -6.8840104
        ]
      },
      "id": "node/1870972248"
    },
    {
      "type": "Feature",
      "properties": {
        "@id": "node/1919646280",
        "amenity": "marketplace"
      },
      "geometry": {
        "type": "Point",
        "coordinates": [
          107.6065555,
          -6.9280313
        ]
      },
      "id": "node/1919646280"
    },
    {
      "type": "Feature",
      "properties": {
        "@id": "node/6161545003",
        "amenity": "marketplace",
        "description": "evening",
        "name": "Car boot sale"
      },
      "geometry": {
        "type": "Point",
        "coordinates": [
          107.6228683,
          -6.9013053
        ]
      },
      "id": "node/6161545003"
    },
    {
      "type": "Feature",
      "properties": {
        "@id": "node/8062446525",
        "addr:housenumber": "29",
        "addr:street": "Jalan H. Wasid (Jalan Bagusrangin), 40132",
        "amenity": "marketplace",
        "description": "A building with several shops inside.",
        "name": "Graha Putra Business Centre"
      },
      "geometry": {
        "type": "Point",
        "coordinates": [
          107.6169817,
          -6.8965777
        ]
      },
      "id": "node/8062446525"
    },
    {
      "type": "Feature",
      "properties": {
        "@id": "node/9740609729",
        "addr:city": "Bandung",
        "addr:full": "Jl. Jend sudirman",
        "amenity": "marketplace",
        "image": "http://classic.ona.io/api/v1/files/26282230?filename=hot_id/attachments/659326_gib_fasum_pasar/1650706091315.jpg",
        "name": "Pasar Andir",
        "opening_hours": "Sa-Su 08:00-13:00",
        "source": "S2City_POI_2022",
        "wheelchair": "no"
      },
      "geometry": {
        "type": "Point",
        "coordinates": [
          107.5906952,
          -6.9191338
        ]
      },
      "id": "node/9740609729"
    },
    {
      "type": "Feature",
      "properties": {
        "@id": "node/9756255541",
        "addr:city": "Bandung",
        "addr:full": "Jalan Haurmekar",
        "amenity": "marketplace",
        "name": "Pasar Tradisional Haurmekar",
        "opening_hours": "Mo-Su 04:00-13:00",
        "source": "S2City_POI_2022",
        "wheelchair": "no"
      },
      "geometry": {
        "type": "Point",
        "coordinates": [
          107.6193341,
          -6.8935799
        ]
      },
      "id": "node/9756255541"
    },
    {
      "type": "Feature",
      "properties": {
        "@id": "node/9759461431",
        "addr:city": "Bandung",
        "addr:full": "Simpang Dago",
        "amenity": "marketplace",
        "name": "Pasar Simpang Dago",
        "opening_hours": "Mo-Su 03:00-23:00",
        "source": "S2City_POI_2022",
        "wheelchair": "limited"
      },
      "geometry": {
        "type": "Point",
        "coordinates": [
          107.614021,
          -6.8844672
        ]
      },
      "id": "node/9759461431"
    },
    {
      "type": "Feature",
      "properties": {
        "@id": "node/9805527690",
        "amenity": "marketplace",
        "name": "Pasar Cangkring"
      },
      "geometry": {
        "type": "Point",
        "coordinates": [
          107.5815036,
          -6.9235336
        ]
      },
      "id": "node/9805527690"
    },
    {
      "type": "Feature",
      "properties": {
        "@id": "node/9816226618",
        "amenity": "marketplace",
        "name": "Pasar Rancabentang"
      },
      "geometry": {
        "type": "Point",
        "coordinates": [
          107.5590491,
          -6.9056905
        ]
      },
      "id": "node/9816226618"
    },
    {
      "type": "Feature",
      "properties": {
        "@id": "node/9819588200",
        "amenity": "marketplace",
        "name": "Pasar Cimindi Cimahi"
      },
      "geometry": {
        "type": "Point",
        "coordinates": [
          107.5562295,
          -6.8980198
        ]
      },
      "id": "node/9819588200"
    },
    {
      "type": "Feature",
      "properties": {
        "@id": "node/10006692431",
        "amenity": "marketplace",
        "name": "Pasar Cijerah"
      },
      "geometry": {
        "type": "Point",
        "coordinates": [
          107.5650317,
          -6.9267617
        ]
      },
      "id": "node/10006692431"
    },
    {
      "type": "Feature",
      "properties": {
        "@id": "node/10799659234",
        "amenity": "marketplace",
        "name": "Pasar Babakan Surabaya",
        "source": "POI_WRI_Survey_2023",
        "wheelchair": "no"
      },
      "geometry": {
        "type": "Point",
        "coordinates": [
          107.6437725,
          -6.9107711
        ]
      },
      "id": "node/10799659234"
    },
    {
      "type": "Feature",
      "properties": {
        "@id": "node/10799672871",
        "amenity": "marketplace",
        "name": "Pasar Montana",
        "source": "POI_WRI_Survey_2023",
        "wheelchair": "no"
      },
      "geometry": {
        "type": "Point",
        "coordinates": [
          107.6070312,
          -6.9417201
        ]
      },
      "id": "node/10799672871"
    },
    {
      "type": "Feature",
      "properties": {
        "@id": "node/11064427820",
        "amenity": "marketplace",
        "name": "Cicadas market"
      },
      "geometry": {
        "type": "Point",
        "coordinates": [
          107.6414646,
          -6.9094625
        ]
      },
      "id": "node/11064427820"
    }
  ]
}