{"_id":"689d5f54f666afe93787d87f","type":"FeatureCollection","features":[{"type":"Feature","properties":{"NAMA":"TERMINAL SUKUN","TIPE_1":"TRANSPORTASI","TIPE_2":"TERMINAL","TIPE_3":"TERMINAL KENDARAAN UMUM","TELEPON":null,"ALAMAT":"JL. SETIA BUDI NO.170, SRONDOL KULON, KEC. BANYUMANIK, KOTA SEMARANG, JAWA TENGAH 50263","ID_PROV":"33","PROVINSI":"JAWA TENGAH","ID_KABKOT":"33.74","KABKOT":"KOTA SEMARANG","ID_KEC":"33.74.11","KECAMATAN":"BANYUMANIK","ID_DESA":"33.74.11.1007","DESA":"SRONDOL WETAN","LONGITUDE":110.4132491,"LATITUDE":-7.0625306,"STATUS":"","TANGGAL PENGUMPULAN":"Q2 2024","TANGGAL UPDATE":"27/07/2025"},"geometry":{"type":"Point","coordinates":[110.4132491,-7.0625306]},"_id":"689d5f54f666afe93787d880"},{"type":"Feature","properties":{"NAMA":"TERMINAL PENGGARON","TIPE_1":"TRANSPORTASI","TIPE_2":"TERMINAL","TIPE_3":"TERMINAL BUS","TELEPON":null,"ALAMAT":"BANDUNGREJO, KEC. MRANGGEN, KABUPATEN DEMAK, JAWA TENGAH 50194","ID_PROV":"33","PROVINSI":"JAWA TENGAH","ID_KABKOT":"33.74","KABKOT":"KOTA SEMARANG","ID_KEC":"33.74.06","KECAMATAN":"PEDURUNGAN","ID_DESA":"33.74.06.1001","DESA":"PENGGARON KIDUL","LONGITUDE":110.4933842,"LATITUDE":-7.0177692,"STATUS":"","TANGGAL PENGUMPULAN":"Q2 2024","TANGGAL UPDATE":"27/07/2025"},"geometry":{"type":"Point","coordinates":[110.4933842,-7.0177692]},"_id":"689d5f54f666afe93787d881"},{"type":"Feature","properties":{"NAMA":"TERMINAL BUS TERBOYO","TIPE_1":"TRANSPORTASI","TIPE_2":"TERMINAL","TIPE_3":"TERMINAL BUS","TELEPON":null,"ALAMAT":"TERBOYO WETAN, KEC. GENUK, KOTA SEMARANG, JAWA TENGAH","ID_PROV":"33","PROVINSI":"JAWA TENGAH","ID_KABKOT":"33.74","KABKOT":"KOTA SEMARANG","ID_KEC":"33.74.05","KECAMATAN":"GENUK","ID_DESA":"33.74.05.1013","DESA":"TERBOYO WETAN","LONGITUDE":110.463002,"LATITUDE":-6.951745,"STATUS":"","TANGGAL PENGUMPULAN":"Q2 2024","TANGGAL UPDATE":"27/07/2025"},"geometry":{"type":"Point","coordinates":[110.463002,-6.951745]},"_id":"689d5f54f666afe93787d882"},{"type":"Feature","properties":{"NAMA":"TERMINAL BANYUMANIK","TIPE_1":"TRANSPORTASI","TIPE_2":"TERMINAL","TIPE_3":"TERMINAL BUS","TELEPON":"0812-2444-3528","ALAMAT":"JALAN TERMINAL, BANYUMANIK, KEC. BANYUMANIK, KOTA SEMARANG, JAWA TENGAH 50264","ID_PROV":"33","PROVINSI":"JAWA TENGAH","ID_KABKOT":"33.74","KABKOT":"KOTA SEMARANG","ID_KEC":"33.74.11","KECAMATAN":"BANYUMANIK","ID_DESA":"33.74.11.1005","DESA":"BANYUMANIK","LONGITUDE":110.4108281,"LATITUDE":-7.0735988,"STATUS":"","TANGGAL PENGUMPULAN":"Q2 2024","TANGGAL UPDATE":"27/07/2025"},"geometry":{"type":"Point","coordinates":[110.4108281,-7.0735988]},"_id":"689d5f54f666afe93787d883"},{"type":"Feature","properties":{"NAMA":"TERMINAL GUNUNGPATI","TIPE_1":"TRANSPORTASI","TIPE_2":"TERMINAL","TIPE_3":"TERMINAL KENDARAAN UMUM","TELEPON":null,"ALAMAT":"GUNUNGPATI, GUNUNG PATI, KOTA SEMARANG, JAWA TENGAH 50229","ID_PROV":"33","PROVINSI":"JAWA TENGAH","ID_KABKOT":"33.74","KABKOT":"KOTA SEMARANG","ID_KEC":"33.74.12","KECAMATAN":"GUNUNGPATI","ID_DESA":"33.74.12.1004","DESA":"GUNUNGPATI","LONGITUDE":110.360678,"LATITUDE":-7.0827986,"STATUS":"","TANGGAL PENGUMPULAN":"Q2 2024","TANGGAL UPDATE":"27/07/2025"},"geometry":{"type":"Point","coordinates":[110.360678,-7.0827986]},"_id":"689d5f54f666afe93787d884"},{"type":"Feature","properties":{"NAMA":"TERMINAL MANGKANG","TIPE_1":"TRANSPORTASI","TIPE_2":"TERMINAL","TIPE_3":"TERMINAL BUS","TELEPON":null,"ALAMAT":"MANGKANG KULON, TUGU, KOTA SEMARANG, JAWA TENGAH 50155","ID_PROV":"33","PROVINSI":"JAWA TENGAH","ID_KABKOT":"33.74","KABKOT":"KOTA SEMARANG","ID_KEC":"33.74.15","KECAMATAN":"NGALIYAN","ID_DESA":"33.74.15.1009","DESA":"WONOSARI","LONGITUDE":110.3024424,"LATITUDE":-6.9734745,"STATUS":"","TANGGAL PENGUMPULAN":"Q2 2024","TANGGAL UPDATE":"27/07/2025"},"geometry":{"type":"Point","coordinates":[110.3024424,-6.9734745]},"_id":"689d5f54f666afe93787d885"}],"__v":0}