{"_id":"689d5edc7791c12ed769ff41","type":"FeatureCollection","features":[{"type":"Feature","properties":{"NAMA":"STASIUN JERAKAH","TIPE_1":"TRANSPORTASI","TIPE_2":"STASIUN","TIPE_3":"KERETA API","TELEPON":null,"ALAMAT":"JRAKAH, KEC. TUGU, KOTA SEMARANG, JAWA TENGAH 50151","ID_PROV":"33","PROVINSI":"JAWA TENGAH","ID_KABKOT":"33.74","KABKOT":"KOTA SEMARANG","ID_KEC":"33.74.16","KECAMATAN":"TUGU","ID_DESA":"33.74.16.1001","DESA":"JERAKAH","LONGITUDE":110.3626,"LATITUDE":-6.98047,"STATUS":null,"TANGGAL PENGUMPULAN":"Q2 2024","TANGGAL UPDATE":"28/07/2025"},"geometry":{"type":"Point","coordinates":[110.3626,-6.98047]},"_id":"689d5edc7791c12ed769ff42"},{"type":"Feature","properties":{"NAMA":"STASIUN SEMARANG PONCOL","TIPE_1":"TRANSPORTASI","TIPE_2":"STASIUN","TIPE_3":"KERETA API","TELEPON":null,"ALAMAT":"PURWOSARI, KEC. SEMARANG UTARA, KOTA SEMARANG, JAWA TENGAH","ID_PROV":"33","PROVINSI":"JAWA TENGAH","ID_KABKOT":"33.74","KABKOT":"KOTA SEMARANG","ID_KEC":"33.74.02","KECAMATAN":"SEMARANG UTARA","ID_DESA":"33.74.02.1004","DESA":"PURWOSARI","LONGITUDE":110.4148,"LATITUDE":-6.9729,"STATUS":null,"TANGGAL PENGUMPULAN":"Q2 2024","TANGGAL UPDATE":"28/07/2025"},"geometry":{"type":"Point","coordinates":[110.4148,-6.9729]},"_id":"689d5edc7791c12ed769ff43"},{"type":"Feature","properties":{"NAMA":"STASIUN JURNATAN","TIPE_1":"TRANSPORTASI","TIPE_2":"STASIUN","TIPE_3":"KERETA API","TELEPON":null,"ALAMAT":"PURWODINATAN, KEC. SEMARANG TENGAH, KOTA SEMARANG, JAWA TENGAH 50137","ID_PROV":"33","PROVINSI":"JAWA TENGAH","ID_KABKOT":"33.74","KABKOT":"KOTA SEMARANG","ID_KEC":"33.74.01","KECAMATAN":"SEMARANG TENGAH","ID_DESA":"33.74.01.1011","DESA":"PURWODINATAN","LONGITUDE":110.4304,"LATITUDE":-6.96948,"STATUS":null,"TANGGAL PENGUMPULAN":"Q2 2024","TANGGAL UPDATE":"28/07/2025"},"geometry":{"type":"Point","coordinates":[110.4304,-6.96948]},"_id":"689d5edc7791c12ed769ff44"},{"type":"Feature","properties":{"NAMA":"STASIUN KEMIJEN","TIPE_1":"TRANSPORTASI","TIPE_2":"STASIUN","TIPE_3":"KERETA API","TELEPON":null,"ALAMAT":"JL. RONGGOWARSITO, TJ. MAS, KEC. SEMARANG TIM., KOTA SEMARANG, JAWA TENGAH 50174","ID_PROV":"33","PROVINSI":"JAWA TENGAH","ID_KABKOT":"33.74","KABKOT":"KOTA SEMARANG","ID_KEC":"33.74.03","KECAMATAN":"SEMARANG TIMUR","ID_DESA":"33.74.03.1001","DESA":"KEMIJEN","LONGITUDE":110.4388,"LATITUDE":-6.95587,"STATUS":null,"TANGGAL PENGUMPULAN":"Q2 2024","TANGGAL UPDATE":"28/07/2025"},"geometry":{"type":"Point","coordinates":[110.4388,-6.95587]},"_id":"689d5edc7791c12ed769ff45"},{"type":"Feature","properties":{"NAMA":"STASIUN ALASTUA","TIPE_1":"TRANSPORTASI","TIPE_2":"STASIUN","TIPE_3":"KERETA API","TELEPON":null,"ALAMAT":"TLOGOMULYO, PEDURUNGAN, KOTA SEMARANG, JAWA TENGAH 50113","ID_PROV":"33","PROVINSI":"JAWA TENGAH","ID_KABKOT":"33.74","KABKOT":"KOTA SEMARANG","ID_KEC":"33.74.06","KECAMATAN":"PEDURUNGAN","ID_DESA":"33.74.06.1002","DESA":"TLOGOMULYO","LONGITUDE":110.4758,"LATITUDE":-6.98438,"STATUS":null,"TANGGAL PENGUMPULAN":"Q2 2024","TANGGAL UPDATE":"28/07/2025"},"geometry":{"type":"Point","coordinates":[110.4758,-6.98438]},"_id":"689d5edc7791c12ed769ff46"},{"type":"Feature","properties":{"NAMA":"STASIUN GENUK","TIPE_1":"TRANSPORTASI","TIPE_2":"STASIUN","TIPE_3":"KERETA API","TELEPON":null,"ALAMAT":"JL. KALIGAWE RAYA NO.225, TRIMULYO, SAYUNG, KEC. SAYUNG, KABUPATEN DEMAK, JAWA TENGAH 50118","ID_PROV":"33","PROVINSI":"JAWA TENGAH","ID_KABKOT":"33.74","KABKOT":"KOTA SEMARANG","ID_KEC":"33.74.05","KECAMATAN":"GENUK","ID_DESA":"33.74.05.1004","DESA":"GENUKSARI","LONGITUDE":110.4788,"LATITUDE":-6.95227,"STATUS":null,"TANGGAL PENGUMPULAN":"Q2 2024","TANGGAL UPDATE":"28/07/2025"},"geometry":{"type":"Point","coordinates":[110.4788,-6.95227]},"_id":"689d5edc7791c12ed769ff47"},{"type":"Feature","properties":{"NAMA":"STASIUN SEMARANG TAWANG","TIPE_1":"TRANSPORTASI","TIPE_2":"STASIUN","TIPE_3":"KERETA API","TELEPON":null,"ALAMAT":"JL. TAMAN TAWANG NO.1, TJ. MAS, KEC. SEMARANG UTARA, KOTA SEMARANG, JAWA TENGAH 50211","ID_PROV":"33","PROVINSI":"JAWA TENGAH","ID_KABKOT":"33.74","KABKOT":"KOTA SEMARANG","ID_KEC":"33.74.02","KECAMATAN":"SEMARANG UTARA","ID_DESA":"33.74.02.1008","DESA":"TANJUNG MAS","LONGITUDE":110.4282,"LATITUDE":-6.96448,"STATUS":null,"TANGGAL PENGUMPULAN":"Q2 2024","TANGGAL UPDATE":"28/07/2025"},"geometry":{"type":"Point","coordinates":[110.4282,-6.96448]},"_id":"689d5edc7791c12ed769ff48"},{"type":"Feature","properties":{"NAMA":"STASIUN MANGKANG","TIPE_1":"TRANSPORTASI","TIPE_2":"STASIUN","TIPE_3":"KERETA API","TELEPON":null,"ALAMAT":"JALAN MANGKANG STASIUN, JAWA TENGAH 50154","ID_PROV":"33","PROVINSI":"JAWA TENGAH","ID_KABKOT":"33.74","KABKOT":"KOTA SEMARANG","ID_KEC":"33.74.16","KECAMATAN":"TUGU","ID_DESA":"33.74.16.1007","DESA":"MANGUNHARJO","LONGITUDE":110.303,"LATITUDE":-6.97107,"STATUS":null,"TANGGAL PENGUMPULAN":"Q2 2024","TANGGAL UPDATE":"28/07/2025"},"geometry":{"type":"Point","coordinates":[110.303,-6.97107]},"_id":"689d5edc7791c12ed769ff49"}],"__v":0}