{"_id":"68a7e7c33947d5e99191b447","type":"FeatureCollection","features":[{"type":"Feature","properties":{"NAMA":"AGEN BUS PO.HARYANTO","TIPE_1":"TRANSPORTASI","TIPE_2":"AGEN PERJALANAN","TIPE_3":"-","TELEPON":"0812-2898-0567","ALAMAT":"JL. SILIWANGI NO.476 KALIBANTENG KULON KEC. SEMARANG BARAT KOTA SEMARANG JAWA TENGAH 50145","ID_PROV":"33","PROVINSI":"JAWA TENGAH","ID_KABKOT":"33.74","KABKOT":"KOTA SEMARANG","ID_KEC":"33.74.13","KECAMATAN":"SEMARANG BARAT","ID_DESA":"33.74.13.1005","DESA":"KALIBANTENG KULON","LONGITUDE":110.3791838,"LATITUDE":-6.9860054,"STATUS":"BUKA","TANGGAL PENGUMPULAN":"Q2 2025","TANGGAL UPDATE":"09/05/2025"},"geometry":{"type":"Point","coordinates":[110.3791838,-6.9860054]}},{"type":"Feature","properties":{"NAMA":"PO. BEJEU TRAVEL SEMARANG","TIPE_1":"TRANSPORTASI","TIPE_2":"AGEN PERJALANAN","TIPE_3":"-","TELEPON":"0815-6799-2944","ALAMAT":"JL. SEROJA V NO.3 KARANGKIDUL KEC. SEMARANG TENGAH KOTA SEMARANG JAWA TENGAH 50136","ID_PROV":"33","PROVINSI":"JAWA TENGAH","ID_KABKOT":"33.74","KABKOT":"KOTA SEMARANG","ID_KEC":"33.74.01","KECAMATAN":"SEMARANG TENGAH","ID_DESA":"33.74.01.1012","DESA":"KARANG KIDUL","LONGITUDE":110.4263228,"LATITUDE":-6.9898584,"STATUS":"BUKA","TANGGAL PENGUMPULAN":"Q2 2025","TANGGAL UPDATE":"09/05/2025"},"geometry":{"type":"Point","coordinates":[110.4263228,-6.9898584]}},{"type":"Feature","properties":{"NAMA":"NUSANTARA TOUR AND TRAVEL","TIPE_1":"TRANSPORTASI","TIPE_2":"AGEN PERJALANAN","TIPE_3":"-","TELEPON":"0811-2766-588","ALAMAT":"PERTOKOAN SIMPANG LIMA BLOCK C/6 KOTA SEMARANG JAWA TENGAH 50241","ID_PROV":"33","PROVINSI":"JAWA TENGAH","ID_KABKOT":"33.74","KABKOT":"KOTA SEMARANG","ID_KEC":"33.74.07","KECAMATAN":"SEMARANG SELATAN","ID_DESA":"33.74.07.1005","DESA":"PLEBURAN","LONGITUDE":110.4237407,"LATITUDE":-6.9912165,"STATUS":"BUKA","TANGGAL PENGUMPULAN":"Q2 2025","TANGGAL UPDATE":"09/05/2025"},"geometry":{"type":"Point","coordinates":[110.4237407,-6.9912165]}},{"type":"Feature","properties":{"NAMA":"AGENT SAFARI DHARMA RAYA","TIPE_1":"TRANSPORTASI","TIPE_2":"AGEN PERJALANAN","TIPE_3":"-","TELEPON":"0813-9046-5136","ALAMAT":"JALAN DOKTER CIPTO NO.8B BUGANGAN KEC. SEMARANG TIM. KOTA SEMARANG JAWA TENGAH 50126","ID_PROV":"33","PROVINSI":"JAWA TENGAH","ID_KABKOT":"33.74","KABKOT":"KOTA SEMARANG","ID_KEC":"33.74.03","KECAMATAN":"SEMARANG TIMUR","ID_DESA":"33.74.03.1006","DESA":"BUGANGAN","LONGITUDE":110.4341161,"LATITUDE":-6.9704171,"STATUS":"BUKA","TANGGAL PENGUMPULAN":"Q2 2025","TANGGAL UPDATE":"09/05/2025"},"geometry":{"type":"Point","coordinates":[110.4341161,-6.9704171]}},{"type":"Feature","properties":{"NAMA":"PO JAYA SLAMET","TIPE_1":"TRANSPORTASI","TIPE_2":"AGEN PERJALANAN","TIPE_3":"-","TELEPON":"0813-9042-2001","ALAMAT":"JL. KOKROSONO PANGGUNG LOR TANAH MAS KOTA SEMARANG JAWA TENGAH","ID_PROV":"33","PROVINSI":"JAWA TENGAH","ID_KABKOT":"33.74","KABKOT":"KOTA SEMARANG","ID_KEC":"33.74.02","KECAMATAN":"SEMARANG UTARA","ID_DESA":"33.74.02.1006","DESA":"PANGGUNG LOR","LONGITUDE":110.4014319,"LATITUDE":-6.9624488,"STATUS":"BUKA","TANGGAL PENGUMPULAN":"Q2 2025","TANGGAL UPDATE":"09/05/2025"},"geometry":{"type":"Point","coordinates":[110.4014319,-6.9624488]}},{"type":"Feature","properties":{"NAMA":"PT. SEMARANG PESONA SEMESTA TOUR & TRAVEL","TIPE_1":"TRANSPORTASI","TIPE_2":"AGEN PERJALANAN","TIPE_3":"-","TELEPON":"(024) 76675306","ALAMAT":"JL. JEDUNG RAYA NO.13 GUNUNGPATI KEC. GN. PATI KOTA SEMARANG JAWA TENGAH 50224","ID_PROV":"33","PROVINSI":"JAWA TENGAH","ID_KABKOT":"33.74","KABKOT":"KOTA SEMARANG","ID_KEC":"33.74.12","KECAMATAN":"GUNUNGPATI","ID_DESA":"33.74.12.1005","DESA":"NONGKOSAWIT","LONGITUDE":110.3612421,"LATITUDE":-7.0736587,"STATUS":"BUKA","TANGGAL PENGUMPULAN":"Q2 2025","TANGGAL UPDATE":"09/05/2025"},"geometry":{"type":"Point","coordinates":[110.3612421,-7.0736587]}},{"type":"Feature","properties":{"NAMA":"NAKULA TRAVEL","TIPE_1":"TRANSPORTASI","TIPE_2":"AGEN PERJALANAN","TIPE_3":"-","TELEPON":"0811-2704-076","ALAMAT":"JL. SATRIO WIBOWO I NO.1/34 TLOGOSARI KULON KEC. PEDURUNGAN KOTA SEMARANG JAWA TENGAH 50196","ID_PROV":"33","PROVINSI":"JAWA TENGAH","ID_KABKOT":"33.74","KABKOT":"KOTA SEMARANG","ID_KEC":"33.74.06","KECAMATAN":"PEDURUNGAN","ID_DESA":"33.74.06.1004","DESA":"TLOGOSARI KULON","LONGITUDE":110.4555931,"LATITUDE":-6.9827947,"STATUS":"BUKA","TANGGAL PENGUMPULAN":"Q2 2025","TANGGAL UPDATE":"09/05/2025"},"geometry":{"type":"Point","coordinates":[110.4555931,-6.9827947]}},{"type":"Feature","properties":{"NAMA":"TRI KUSUMA TRAVEL","TIPE_1":"TRANSPORTASI","TIPE_2":"AGEN PERJALANAN","TIPE_3":"-","TELEPON":"(024) 3555514","ALAMAT":"JL. GENDINGAN NO.45, PANDANSARI, KEC. SEMARANG TENGAH, KOTA SEMARANG, JAWA TENGAH 50139","ID_PROV":"33","PROVINSI":"JAWA TENGAH","ID_KABKOT":"33.74","KABKOT":"KOTA SEMARANG","ID_KEC":"33.74.01","KECAMATAN":"SEMARANG TENGAH","ID_DESA":"33.74.01.1008","DESA":"PANDANSARI","LONGITUDE":110.4197927,"LATITUDE":-6.9733206,"STATUS":"BUKA","TANGGAL PENGUMPULAN":"Q2 2025","TANGGAL UPDATE":"09/05/2025"},"geometry":{"type":"Point","coordinates":[110.4197927,-6.9733206]}},{"type":"Feature","properties":{"NAMA":"AGEN BUS COYO","TIPE_1":"TRANSPORTASI","TIPE_2":"AGEN PERJALANAN","TIPE_3":"-","TELEPON":"(024) 7606925","ALAMAT":"JL. SILIWANGI NO.496 KALIBANTENG KULON KEC. SEMARANG BARAT KOTA SEMARANG JAWA TENGAH 50145","ID_PROV":"33","PROVINSI":"JAWA TENGAH","ID_KABKOT":"33.74","KABKOT":"KOTA SEMARANG","ID_KEC":"33.74.13","KECAMATAN":"SEMARANG BARAT","ID_DESA":"33.74.13.1005","DESA":"KALIBANTENG KULON","LONGITUDE":110.378082,"LATITUDE":-6.986118,"STATUS":"BUKA","TANGGAL PENGUMPULAN":"Q2 2025","TANGGAL UPDATE":"09/05/2025"},"geometry":{"type":"Point","coordinates":[110.378082,-6.986118]}},{"type":"Feature","properties":{"NAMA":"PARADISO TOUR SEMARANG","TIPE_1":"TRANSPORTASI","TIPE_2":"AGEN PERJALANAN","TIPE_3":"-","TELEPON":"0813-2796-5326","ALAMAT":"JL. MENOREH UTARA X NO.27 SAMPANGAN KEC. GAJAHMUNGKUR KOTA SEMARANG JAWA TENGAH 50232","ID_PROV":"33","PROVINSI":"JAWA TENGAH","ID_KABKOT":"33.74","KABKOT":"KOTA SEMARANG","ID_KEC":"33.74.09","KECAMATAN":"GAJAHMUNGKUR","ID_DESA":"33.74.09.1004","DESA":"SAMPANGAN","LONGITUDE":110.3922723,"LATITUDE":-7.007223,"STATUS":"BUKA","TANGGAL PENGUMPULAN":"Q2 2025","TANGGAL UPDATE":"09/05/2025"},"geometry":{"type":"Point","coordinates":[110.3922723,-7.007223]}},{"type":"Feature","properties":{"NAMA":"BANDARA JENDERAL AHMAD YANI","TIPE_1":"TRANSPORTASI","TIPE_2":"BANDARA","TIPE_3":"DOMESTIK","TELEPON":"","ALAMAT":"JL. BANDARA AHMAD YANI, SEMARANG - 50145, TAMBAKHARJO, SEMARANG BARAT, KOTA SEMARANG, JAWA TENGAH","ID_PROV":"33","PROVINSI":"JAWA TENGAH","ID_KABKOT":"33.74","KABKOT":"KOTA SEMARANG","ID_KEC":"33.74.13","KECAMATAN":"SEMARANG BARAT","ID_DESA":"33.74.13.1004","DESA":"TAMBAKHARJO","LONGITUDE":110.373542,"LATITUDE":-6.97105,"STATUS":null,"TANGGAL PENGUMPULAN":"Q2 2024","TANGGAL UPDATE":"28/07/2025"},"geometry":{"type":"Point","coordinates":[110.373542,-6.97105]}},{"type":"Feature","properties":{"NAMA":"GERBANG TOL TEMBALANG","TIPE_1":"TRANSPORTASI","TIPE_2":"PINTU TOL","TIPE_3":"-","TELEPON":null,"ALAMAT":"SUMURBOTO, KEC. BANYUMANIK, KOTA SEMARANG, JAWA TENGAH 50269","ID_PROV":"33","PROVINSI":"JAWA TENGAH","ID_KABKOT":"33.74","KABKOT":"KOTA SEMARANG","ID_KEC":"33.74.11","KECAMATAN":"BANYUMANIK","ID_DESA":"33.74.11.1008","DESA":"NGESREP","LONGITUDE":110.433509,"LATITUDE":-7.049732,"STATUS":null,"TANGGAL PENGUMPULAN":"Q3 2025","TANGGAL UPDATE":"29/07/2025"},"geometry":{"type":"Point","coordinates":[110.433509,-7.049732]}},{"type":"Feature","properties":{"NAMA":"GERBANG TOL GAYAMSARI","TIPE_1":"TRANSPORTASI","TIPE_2":"PINTU TOL","TIPE_3":"-","TELEPON":null,"ALAMAT":"GAYAMSARI, KOTA SEMARANG, JAWA TENGAH 50248","ID_PROV":"33","PROVINSI":"JAWA TENGAH","ID_KABKOT":"33.74","KABKOT":"KOTA SEMARANG","ID_KEC":"33.74.04","KECAMATAN":"GAYAMSARI","ID_DESA":"33.74.04.1007","DESA":"GAYAMSARI","LONGITUDE":110.450807,"LATITUDE":-6.999349,"STATUS":null,"TANGGAL PENGUMPULAN":"Q3 2025","TANGGAL UPDATE":"29/07/2025"},"geometry":{"type":"Point","coordinates":[110.450807,-6.999349]}},{"type":"Feature","properties":{"NAMA":"GERBANG TOL BANYUMANIK","TIPE_1":"TRANSPORTASI","TIPE_2":"PINTU TOL","TIPE_3":"-","TELEPON":null,"ALAMAT":"PEDALANGAN, KEC. BANYUMANIK, KOTA SEMARANG, JAWA TENGAH 50268","ID_PROV":"33","PROVINSI":"JAWA TENGAH","ID_KABKOT":"33.74","KABKOT":"KOTA SEMARANG","ID_KEC":"33.74.11","KECAMATAN":"BANYUMANIK","ID_DESA":"33.74.11.1004","DESA":"PEDALANGAN","LONGITUDE":110.431745,"LATITUDE":-7.065745,"STATUS":null,"TANGGAL PENGUMPULAN":"Q3 2025","TANGGAL UPDATE":"29/07/2025"},"geometry":{"type":"Point","coordinates":[110.431745,-7.065745]}},{"type":"Feature","properties":{"NAMA":"GERBANG TOL JATINGALEH 1 ","TIPE_1":"TRANSPORTASI","TIPE_2":"PINTU TOL","TIPE_3":"-","TELEPON":null,"ALAMAT":"JATINGALEH, CANDISARI, KOTA SEMARANG, JAWA TENGAH 50261","ID_PROV":"33","PROVINSI":"JAWA TENGAH","ID_KABKOT":"33.74","KABKOT":"KOTA SEMARANG","ID_KEC":"33.74.08","KECAMATAN":"CANDISARI","ID_DESA":"33.74.08.1002","DESA":"JATINGALEH","LONGITUDE":110.421162,"LATITUDE":-7.031343,"STATUS":null,"TANGGAL PENGUMPULAN":"Q3 2025","TANGGAL UPDATE":"29/07/2025"},"geometry":{"type":"Point","coordinates":[110.421162,-7.031343]}},{"type":"Feature","properties":{"NAMA":"GERBANG TOL SRONDOL","TIPE_1":"TRANSPORTASI","TIPE_2":"PINTU TOL","TIPE_3":"-","TELEPON":null,"ALAMAT":"JL. TOL TEMBALANG-BANYUMANIK, PEDALANGAN, KEC. BANYUMANIK, KOTA SEMARANG, JAWA TENGAH 50269","ID_PROV":"33","PROVINSI":"JAWA TENGAH","ID_KABKOT":"33.74","KABKOT":"KOTA SEMARANG","ID_KEC":"33.74.11","KECAMATAN":"BANYUMANIK","ID_DESA":"33.74.11.1004","DESA":"PEDALANGAN","LONGITUDE":110.423569,"LATITUDE":-7.056435,"STATUS":null,"TANGGAL PENGUMPULAN":"Q3 2025","TANGGAL UPDATE":"29/07/2025"},"geometry":{"type":"Point","coordinates":[110.423569,-7.056435]}},{"type":"Feature","properties":{"NAMA":"GERBANG TOL MUKTIHARJO","TIPE_1":"TRANSPORTASI","TIPE_2":"PINTU TOL","TIPE_3":"-","TELEPON":null,"ALAMAT":"JL. TOL TANJUNGMAS - SRONDOL, SAWAH BESAR, KEC. GAYAMSARI, KOTA SEMARANG, JAWA TENGAH 50163","ID_PROV":"33","PROVINSI":"JAWA TENGAH","ID_KABKOT":"33.74","KABKOT":"KOTA SEMARANG","ID_KEC":"33.74.06","KECAMATAN":"PEDURUNGAN","ID_DESA":"33.74.06.1005","DESA":"MUKTIHARJO KIDUL","LONGITUDE":110.450082,"LATITUDE":-6.973147,"STATUS":null,"TANGGAL PENGUMPULAN":"Q3 2025","TANGGAL UPDATE":"29/07/2025"},"geometry":{"type":"Point","coordinates":[110.450082,-6.973147]}},{"type":"Feature","properties":{"NAMA":"GERBANG TOL KRAPYAK I ","TIPE_1":"TRANSPORTASI","TIPE_2":"PINTU TOL","TIPE_3":"-","TELEPON":null,"ALAMAT":"JL. TOL JATINGALEH-KRAPYAK, KEMBANGARUM, SEMARANG BARAT, KOTA SEMARANG, JAWA TENGAH 50183","ID_PROV":"33","PROVINSI":"JAWA TENGAH","ID_KABKOT":"33.74","KABKOT":"KOTA SEMARANG","ID_KEC":"33.74.13","KECAMATAN":"SEMARANG BARAT","ID_DESA":"33.74.13.1016","DESA":"KEMBANGARUM","LONGITUDE":110.368796,"LATITUDE":-6.994984,"STATUS":null,"TANGGAL PENGUMPULAN":"Q3 2025","TANGGAL UPDATE":"29/07/2025"},"geometry":{"type":"Point","coordinates":[110.368796,-6.994984]}},{"type":"Feature","properties":{"NAMA":"GERBANG TOL MANYARAN","TIPE_1":"TRANSPORTASI","TIPE_2":"PINTU TOL","TIPE_3":"-","TELEPON":null,"ALAMAT":"KEMBANGARUM, KEC. SEMARANG BARAT, KOTA SEMARANG, JAWA TENGAH 50183","ID_PROV":"33","PROVINSI":"JAWA TENGAH","ID_KABKOT":"33.74","KABKOT":"KOTA SEMARANG","ID_KEC":"33.74.13","KECAMATAN":"SEMARANG BARAT","ID_DESA":"33.74.13.1016","DESA":"KEMBANGARUM","LONGITUDE":110.377403,"LATITUDE":-7.005558,"STATUS":null,"TANGGAL PENGUMPULAN":"Q3 2025","TANGGAL UPDATE":"29/07/2025"},"geometry":{"type":"Point","coordinates":[110.377403,-7.005558]}},{"type":"Feature","properties":{"NAMA":"GERBANG TOL JATINGALEH 2","TIPE_1":"TRANSPORTASI","TIPE_2":"PINTU TOL","TIPE_3":"-","TELEPON":null,"ALAMAT":"TINJOMOYO, BANYUMANIK, KOTA SEMARANG, JAWA TENGAH 50262","ID_PROV":"33","PROVINSI":"JAWA TENGAH","ID_KABKOT":"33.74","KABKOT":"KOTA SEMARANG","ID_KEC":"33.74.11","KECAMATAN":"BANYUMANIK","ID_DESA":"33.74.11.1009","DESA":"TINJOMOYO","LONGITUDE":110.414946,"LATITUDE":-7.03121,"STATUS":null,"TANGGAL PENGUMPULAN":"Q3 2025","TANGGAL UPDATE":"29/07/2025"},"geometry":{"type":"Point","coordinates":[110.414946,-7.03121]}},{"type":"Feature","properties":{"NAMA":"GERBANG TOL KALIKANGKUNG ","TIPE_1":"TRANSPORTASI","TIPE_2":"PINTU TOL","TIPE_3":"-","TELEPON":null,"ALAMAT":"JL. TOL SEMARANG - BATANG, GONDORIYO, NGALIYAN, KOTA SEMARANG, JAWA TENGAH 50187","ID_PROV":"33","PROVINSI":"JAWA TENGAH","ID_KABKOT":"33.74","KABKOT":"KOTA SEMARANG","ID_KEC":"33.74.15","KECAMATAN":"NGALIYAN","ID_DESA":"33.74.15.1009","DESA":"WONOSARI","LONGITUDE":110.316996,"LATITUDE":-6.987556,"STATUS":null,"TANGGAL PENGUMPULAN":"Q3 2025","TANGGAL UPDATE":"29/07/2025"},"geometry":{"type":"Point","coordinates":[110.316996,-6.987556]}},{"type":"Feature","properties":{"NAMA":"HALTE BIS TRANS PINTU KELUAR STASIUN TAWANG, SEMARANG","TIPE_1":"TRANSPORTASI","TIPE_2":"HALTE","TIPE_3":"-","TELEPON":null,"ALAMAT":"JL. PENGAPON, TJ. MAS, KEC. SEMARANG UTARA, KOTA SEMARANG, JAWA TENGAH 50174","ID_PROV":"33","PROVINSI":"JAWA TENGAH","ID_KABKOT":"33.74","KABKOT":"KOTA SEMARANG","ID_KEC":"33.74.02","KECAMATAN":"SEMARANG UTARA","ID_DESA":"33.74.02.1008","DESA":"TANJUNG MAS","LONGITUDE":110.42978,"LATITUDE":-6.964787,"STATUS":null,"TANGGAL PENGUMPULAN":"Q2 2024","TANGGAL UPDATE":"27/07/2025"},"geometry":{"type":"Point","coordinates":[110.42978,-6.964787]}},{"type":"Feature","properties":{"NAMA":"HALTE BRT SRONDOL","TIPE_1":"TRANSPORTASI","TIPE_2":"HALTE","TIPE_3":"-","TELEPON":null,"ALAMAT":"JL. SETIA BUDI, SRONDOL KULON, KEC. BANYUMANIK, KOTA SEMARANG, JAWA TENGAH 50263","ID_PROV":"33","PROVINSI":"JAWA TENGAH","ID_KABKOT":"33.74","KABKOT":"KOTA SEMARANG","ID_KEC":"33.74.11","KECAMATAN":"BANYUMANIK","ID_DESA":"33.74.11.1006","DESA":"SRONDOL KULON","LONGITUDE":110.4175078,"LATITUDE":-7.0515686,"STATUS":null,"TANGGAL PENGUMPULAN":"Q2 2024","TANGGAL UPDATE":"27/07/2025"},"geometry":{"type":"Point","coordinates":[110.4175078,-7.0515686]}},{"type":"Feature","properties":{"NAMA":"HALTE BRT SUKUN 1","TIPE_1":"TRANSPORTASI","TIPE_2":"HALTE","TIPE_3":"-","TELEPON":null,"ALAMAT":"JL. PERINTIS KEMERDEKAAN, SRONDOL WETAN, KEC. BANYUMANIK, KOTA SEMARANG, JAWA TENGAH 50263","ID_PROV":"33","PROVINSI":"JAWA TENGAH","ID_KABKOT":"33.74","KABKOT":"KOTA SEMARANG","ID_KEC":"33.74.11","KECAMATAN":"BANYUMANIK","ID_DESA":"33.74.11.1007","DESA":"SRONDOL WETAN","LONGITUDE":110.4127532,"LATITUDE":-7.0636725,"STATUS":null,"TANGGAL PENGUMPULAN":"Q2 2024","TANGGAL UPDATE":"27/07/2025"},"geometry":{"type":"Point","coordinates":[110.4127532,-7.0636725]}},{"type":"Feature","properties":{"NAMA":"HALTE 1 P","TIPE_1":"TRANSPORTASI","TIPE_2":"HALTE","TIPE_3":"-","TELEPON":null,"ALAMAT":"JL. BRIGJEN SUDIARTO NO.705, PLAMONGAN SARI, KEC. PEDURUNGAN, KOTA SEMARANG, JAWA TENGAH 50192","ID_PROV":"33","PROVINSI":"JAWA TENGAH","ID_KABKOT":"33.74","KABKOT":"KOTA SEMARANG","ID_KEC":"33.74.06","KECAMATAN":"PEDURUNGAN","ID_DESA":"33.74.06.1006","DESA":"PLAMONGANSARI","LONGITUDE":110.4905256,"LATITUDE":-7.0184275,"STATUS":null,"TANGGAL PENGUMPULAN":"Q2 2024","TANGGAL UPDATE":"27/07/2025"},"geometry":{"type":"Point","coordinates":[110.4905256,-7.0184275]}},{"type":"Feature","properties":{"NAMA":"HALTE BRT USM","TIPE_1":"TRANSPORTASI","TIPE_2":"HALTE","TIPE_3":"-","TELEPON":null,"ALAMAT":"TLOGOSARI KULON, KEC. PEDURUNGAN, KOTA SEMARANG, JAWA TENGAH","ID_PROV":"33","PROVINSI":"JAWA TENGAH","ID_KABKOT":"33.74","KABKOT":"KOTA SEMARANG","ID_KEC":"33.74.06","KECAMATAN":"PEDURUNGAN","ID_DESA":"33.74.06.1004","DESA":"TLOGOSARI KULON","LONGITUDE":110.4525845,"LATITUDE":-6.9812595,"STATUS":null,"TANGGAL PENGUMPULAN":"Q2 2024","TANGGAL UPDATE":"27/07/2025"},"geometry":{"type":"Point","coordinates":[110.4525845,-6.9812595]}},{"type":"Feature","properties":{"NAMA":"HALTE BUS KAMPUS UNDIP RUSUNAWA","TIPE_1":"TRANSPORTASI","TIPE_2":"HALTE","TIPE_3":"-","TELEPON":null,"ALAMAT":"BULUSAN, KEC. TEMBALANG, KOTA SEMARANG, JAWA TENGAH","ID_PROV":"33","PROVINSI":"JAWA TENGAH","ID_KABKOT":"33.74","KABKOT":"KOTA SEMARANG","ID_KEC":"33.74.10","KECAMATAN":"TEMBALANG","ID_DESA":"33.74.10.1004","DESA":"BULUSAN","LONGITUDE":110.4440982,"LATITUDE":-7.0545439,"STATUS":null,"TANGGAL PENGUMPULAN":"Q2 2024","TANGGAL UPDATE":"27/07/2025"},"geometry":{"type":"Point","coordinates":[110.4440982,-7.0545439]}},{"type":"Feature","properties":{"NAMA":"HALTE FEEDER BRT SURATMO (SD MANYARAN 01)","TIPE_1":"TRANSPORTASI","TIPE_2":"HALTE","TIPE_3":"-","TELEPON":null,"ALAMAT":"JL. SURATMO, GISIKDRONO, KEC. SEMARANG BARAT, KOTA SEMARANG, JAWA TENGAH 50147","ID_PROV":"33","PROVINSI":"JAWA TENGAH","ID_KABKOT":"33.74","KABKOT":"KOTA SEMARANG","ID_KEC":"33.74.13","KECAMATAN":"SEMARANG BARAT","ID_DESA":"33.74.13.1002","DESA":"MANYARAN","LONGITUDE":110.3888407,"LATITUDE":-6.9990965,"STATUS":null,"TANGGAL PENGUMPULAN":"Q2 2024","TANGGAL UPDATE":"27/07/2025"},"geometry":{"type":"Point","coordinates":[110.3888407,-6.9990965]}},{"type":"Feature","properties":{"NAMA":"HALTE KESATRIAN","TIPE_1":"TRANSPORTASI","TIPE_2":"HALTE","TIPE_3":"-","TELEPON":null,"ALAMAT":"JL. TANAH PUTIH II, JATINGALEH, KEC. CANDISARI, KOTA SEMARANG, JAWA TENGAH 50254","ID_PROV":"33","PROVINSI":"JAWA TENGAH","ID_KABKOT":"33.74","KABKOT":"KOTA SEMARANG","ID_KEC":"33.74.08","KECAMATAN":"CANDISARI","ID_DESA":"33.74.08.1002","DESA":"JATINGALEH","LONGITUDE":110.4184276,"LATITUDE":-7.030038,"STATUS":null,"TANGGAL PENGUMPULAN":"Q2 2024","TANGGAL UPDATE":"27/07/2025"},"geometry":{"type":"Point","coordinates":[110.4184276,-7.030038]}},{"type":"Feature","properties":{"NAMA":"HALTE TRANS JATENG","TIPE_1":"TRANSPORTASI","TIPE_2":"HALTE","TIPE_3":"-","TELEPON":null,"ALAMAT":"WONOTINGAL, KEC. CANDISARI, KOTA SEMARANG, JAWA TENGAH 50232","ID_PROV":"33","PROVINSI":"JAWA TENGAH","ID_KABKOT":"33.74","KABKOT":"KOTA SEMARANG","ID_KEC":"33.74.08","KECAMATAN":"CANDISARI","ID_DESA":"33.74.08.1007","DESA":"WONOTINGAL","LONGITUDE":110.4166977,"LATITUDE":-7.0080132,"STATUS":null,"TANGGAL PENGUMPULAN":"Q2 2024","TANGGAL UPDATE":"27/07/2025"},"geometry":{"type":"Point","coordinates":[110.4166977,-7.0080132]}},{"type":"Feature","properties":{"NAMA":"HALTE TRANS SEMARANG","TIPE_1":"TRANSPORTASI","TIPE_2":"HALTE","TIPE_3":"-","TELEPON":null,"ALAMAT":"JL. KOLONEL HR HADIJANTO, SEKARAN, KEC. GN. PATI, KOTA SEMARANG, JAWA TENGAH 50229","ID_PROV":"33","PROVINSI":"JAWA TENGAH","ID_KABKOT":"33.74","KABKOT":"KOTA SEMARANG","ID_KEC":"33.74.12","KECAMATAN":"GUNUNGPATI","ID_DESA":"33.74.12.1009","DESA":"SEKARAN","LONGITUDE":110.3911772,"LATITUDE":-7.0389313,"STATUS":null,"TANGGAL PENGUMPULAN":"Q2 2024","TANGGAL UPDATE":"27/07/2025"},"geometry":{"type":"Point","coordinates":[110.3911772,-7.0389313]}},{"type":"Feature","properties":{"NAMA":"PELABUHAN TANJUNG EMAS","TIPE_1":"TRANSPORTASI","TIPE_2":"PELABUHAN","TIPE_3":"PELABUHAN UMUM","TELEPON":null,"ALAMAT":"JL. YOS SUDARSO NO. 30 KEL. TANJUNG EMAS KEC. SEMARANG JATENG 50174","ID_PROV":"33","PROVINSI":"JAWA TENGAH","ID_KABKOT":"33.74","KABKOT":"KOTA SEMARANG","ID_KEC":"33.74.02","KECAMATAN":"SEMARANG UTARA","ID_DESA":"33.74.02.1008","DESA":"TANJUNG MAS","LONGITUDE":110.4240112,"LATITUDE":-6.9403076,"STATUS":null,"TANGGAL PENGUMPULAN":"Q2 2024","TANGGAL UPDATE":"28/07/2025"},"geometry":{"type":"Point","coordinates":[110.4240112,-6.9403076]}},{"type":"Feature","properties":{"NAMA":"PELABUHAN TAMBAK LOROK","TIPE_1":"TRANSPORTASI","TIPE_2":"PELABUHAN","TIPE_3":"PELABUHAN PERIKANAN","TELEPON":null,"ALAMAT":"TJ. MAS, KEC. SEMARANG UTARA, KOTA SEMARANG, JAWA TENGAH 50174","ID_PROV":"33","PROVINSI":"JAWA TENGAH","ID_KABKOT":"33.74","KABKOT":"KOTA SEMARANG","ID_KEC":"33.74.02","KECAMATAN":"SEMARANG UTARA","ID_DESA":"33.74.02.1008","DESA":"TANJUNG MAS","LONGITUDE":110.43743,"LATITUDE":-6.94521,"STATUS":null,"TANGGAL PENGUMPULAN":"Q2 2024","TANGGAL UPDATE":"28/07/2025"},"geometry":{"type":"Point","coordinates":[110.43743,-6.94521]}},{"type":"Feature","properties":{"NAMA":"PELABUHAN MANGUNHARJO","TIPE_1":"TRANSPORTASI","TIPE_2":"PELABUHAN","TIPE_3":"PELABUHAN PERIKANAN","TELEPON":null,"ALAMAT":"MANGUNHARJO, KEC. TUGU, KOTA SEMARANG, JAWA TENGAH 50154","ID_PROV":"33","PROVINSI":"JAWA TENGAH","ID_KABKOT":"33.74","KABKOT":"KOTA SEMARANG","ID_KEC":"33.74.16","KECAMATAN":"TUGU","ID_DESA":"33.74.16.1006","DESA":"MANGKANG KULON","LONGITUDE":110.3115,"LATITUDE":-6.94126,"STATUS":null,"TANGGAL PENGUMPULAN":"Q2 2024","TANGGAL UPDATE":"28/07/2025"},"geometry":{"type":"Point","coordinates":[110.3115,-6.94126]}},{"type":"Feature","properties":{"NAMA":"SPBU PERTAMINA 44.501.35 KALIGAWE","TIPE_1":"TRANSPORTASI","TIPE_2":"PENGISIAN BAHAN BAKAR","TIPE_3":"SPBU PERTAMINA","TELEPON":"(024) 6590712","ALAMAT":"JL. KALIGAWE RAYA NO.25, KALIGAWE, KEC. GAYAMSARI, KOTA SEMARANG, JAWA TENGAH 50164","ID_PROV":"33","PROVINSI":"JAWA TENGAH","ID_KABKOT":"33.74","KABKOT":"KOTA SEMARANG","ID_KEC":"33.74.04","KECAMATAN":"GAYAMSARI","ID_DESA":"33.74.04.1002","DESA":"KALIGAWE","LONGITUDE":110.4440616,"LATITUDE":-6.9596537,"STATUS":"","TANGGAL PENGUMPULAN":"Q2 2024","TANGGAL UPDATE":"27/07/2025"},"geometry":{"type":"Point","coordinates":[110.44406159999998,-6.9596537]}},{"type":"Feature","properties":{"NAMA":"SPBU PERTAMINA 44.501.43 SEMBUNGHARJO","TIPE_1":"TRANSPORTASI","TIPE_2":"PENGISIAN BAHAN BAKAR","TIPE_3":"SPBU PERTAMINA","TELEPON":null,"ALAMAT":"JL. KUDU RAYA, SEMBUNGHARJO, KEC. GENUK, KOTA SEMARANG, JAWA TENGAH 50116","ID_PROV":"33","PROVINSI":"JAWA TENGAH","ID_KABKOT":"33.74","KABKOT":"KOTA SEMARANG","ID_KEC":"33.74.05","KECAMATAN":"GENUK","ID_DESA":"33.74.05.1001","DESA":"SEMBUNGHARJO","LONGITUDE":110.4866243,"LATITUDE":-6.9713247,"STATUS":"","TANGGAL PENGUMPULAN":"Q2 2024","TANGGAL UPDATE":"27/07/2025"},"geometry":{"type":"Point","coordinates":[110.48662429999999,-6.9713247]}},{"type":"Feature","properties":{"NAMA":"SPBU PERTAMINA BANJARDOWO SEMARANG","TIPE_1":"TRANSPORTASI","TIPE_2":"PENGISIAN BAHAN BAKAR","TIPE_3":"SPBU PERTAMINA","TELEPON":null,"ALAMAT":"JL. KALIGAWE/SEMARANG-DEMAK, BANJARDOWO, KEC. GENUK, KOTA SEMARANG, JAWA TENGAH 50117","ID_PROV":"33","PROVINSI":"JAWA TENGAH","ID_KABKOT":"33.74","KABKOT":"KOTA SEMARANG","ID_KEC":"33.74.05","KECAMATAN":"GENUK","ID_DESA":"33.74.05.1005","DESA":"BANJARDOWO","LONGITUDE":110.4838432,"LATITUDE":-6.9505685,"STATUS":"","TANGGAL PENGUMPULAN":"Q2 2024","TANGGAL UPDATE":"27/07/2025"},"geometry":{"type":"Point","coordinates":[110.48384319999998,-6.9505685]}},{"type":"Feature","properties":{"NAMA":"SPBU PERTAMINA 44.501.09 KALIBANTENG","TIPE_1":"TRANSPORTASI","TIPE_2":"PENGISIAN BAHAN BAKAR","TIPE_3":"SPBU PERTAMINA","TELEPON":"(024) 7606567","ALAMAT":"JL. SILIWANGI NO.440, KALIBANTENG KULON, KEC. SEMARANG BARAT, KOTA SEMARANG, JAWA TENGAH 50145","ID_PROV":"33","PROVINSI":"JAWA TENGAH","ID_KABKOT":"33.74","KABKOT":"KOTA SEMARANG","ID_KEC":"33.74.13","KECAMATAN":"SEMARANG BARAT","ID_DESA":"33.74.13.1005","DESA":"KALIBANTENG KULON","LONGITUDE":110.381197,"LATITUDE":-6.9856758,"STATUS":"","TANGGAL PENGUMPULAN":"Q2 2024","TANGGAL UPDATE":"27/07/2025"},"geometry":{"type":"Point","coordinates":[110.381197,-6.9856758]}},{"type":"Feature","properties":{"NAMA":"SPBU PERTAMINA 44.502.17 MIJEN","TIPE_1":"TRANSPORTASI","TIPE_2":"PENGISIAN BAHAN BAKAR","TIPE_3":"SPBU PERTAMINA","TELEPON":null,"ALAMAT":"JL. SEMARANG-BOJA, MIJEN, KEC. MIJEN, KOTA SEMARANG, JAWA TENGAH 50275","ID_PROV":"33","PROVINSI":"JAWA TENGAH","ID_KABKOT":"33.74","KABKOT":"KOTA SEMARANG","ID_KEC":"33.74.14","KECAMATAN":"MIJEN","ID_DESA":"33.74.14.1013","DESA":"JATISARI","LONGITUDE":110.3109346,"LATITUDE":-7.0627329,"STATUS":"","TANGGAL PENGUMPULAN":"Q2 2024","TANGGAL UPDATE":"27/07/2025"},"geometry":{"type":"Point","coordinates":[110.31093459999998,-7.0627329]}},{"type":"Feature","properties":{"NAMA":"SPBU PERTAMINA 44.502.32 CITRA GRAND SEMARANG","TIPE_1":"TRANSPORTASI","TIPE_2":"PENGISIAN BAHAN BAKAR","TIPE_3":"SPBU PERTAMINA","TELEPON":null,"ALAMAT":"SAMBIROTO, KEC. TEMBALANG, KOTA SEMARANG, JAWA TENGAH","ID_PROV":"33","PROVINSI":"JAWA TENGAH","ID_KABKOT":"33.74","KABKOT":"KOTA SEMARANG","ID_KEC":"33.74.10","KECAMATAN":"TEMBALANG","ID_DESA":"33.74.10.1012","DESA":"SAMBIROTO","LONGITUDE":110.4586002,"LATITUDE":-7.0365571,"STATUS":"","TANGGAL PENGUMPULAN":"Q2 2024","TANGGAL UPDATE":"27/07/2025"},"geometry":{"type":"Point","coordinates":[110.4586002,-7.0365571]}},{"type":"Feature","properties":{"NAMA":"HYUNDAI EV CHARGING STATION HOTEL NOVOTEL","TIPE_1":"TRANSPORTASI","TIPE_2":"PENGISIAN BAHAN BAKAR","TIPE_3":"ELECTRIC VEHICLE CHARGING STATION","TELEPON":"0800 1878878","ALAMAT":"JL. PEMUDA NO.123, SEKAYU, SEMARANG TENGAH, SEMARANG CITY, CENTRAL JAVA 50132","ID_PROV":"33","PROVINSI":"JAWA TENGAH","ID_KABKOT":"33.74","KABKOT":"KOTA SEMARANG","ID_KEC":"33.74.01","KECAMATAN":"SEMARANG TENGAH","ID_DESA":"33.74.01.1007","DESA":"SEKAYU","LONGITUDE":110.41453,"LATITUDE":-6.97893,"STATUS":"","TANGGAL PENGUMPULAN":"Q2 2024","TANGGAL UPDATE":"27/07/2025"},"geometry":{"type":"Point","coordinates":[110.41453,-6.97893]}},{"type":"Feature","properties":{"NAMA":"SPKLU STASIUN PENGISIAN","TIPE_1":"TRANSPORTASI","TIPE_2":"PENGISIAN BAHAN BAKAR","TIPE_3":"ELECTRIC VEHICLE CHARGING STATION","TELEPON":null,"ALAMAT":"BENDAN DUWUR, KEC. GAJAHMUNGKUR, KOTA SEMARANG, JAWA TENGAH 50235","ID_PROV":"33","PROVINSI":"JAWA TENGAH","ID_KABKOT":"33.74","KABKOT":"KOTA SEMARANG","ID_KEC":"33.74.09","KECAMATAN":"GAJAHMUNGKUR","ID_DESA":"33.74.09.1002","DESA":"BENDAN DHUWUR","LONGITUDE":110.3962695,"LATITUDE":-7.0178397,"STATUS":"","TANGGAL PENGUMPULAN":"Q2 2024","TANGGAL UPDATE":"27/07/2025"},"geometry":{"type":"Point","coordinates":[110.3962695,-7.0178397]}},{"type":"Feature","properties":{"NAMA":"SPBU PERTAMINA 44.501.14 TAMBAKAJI","TIPE_1":"TRANSPORTASI","TIPE_2":"PENGISIAN BAHAN BAKAR","TIPE_3":"SPBU PERTAMINA","TELEPON":"(024) 8661292","ALAMAT":"JL. WALISONGO NO.442, TAMBAKAJI, KEC. NGALIYAN, KOTA SEMARANG, JAWA TENGAH 50185","ID_PROV":"33","PROVINSI":"JAWA TENGAH","ID_KABKOT":"33.74","KABKOT":"KOTA SEMARANG","ID_KEC":"33.74.15","KECAMATAN":"NGALIYAN","ID_DESA":"33.74.15.1008","DESA":"TAMBAKAJI","LONGITUDE":110.3378596,"LATITUDE":-6.9848773,"STATUS":"","TANGGAL PENGUMPULAN":"Q2 2024","TANGGAL UPDATE":"27/07/2025"},"geometry":{"type":"Point","coordinates":[110.3378596,-6.9848773]}},{"type":"Feature","properties":{"NAMA":"SPKLU STASIUN PENGISIAN","TIPE_1":"TRANSPORTASI","TIPE_2":"PENGISIAN BAHAN BAKAR","TIPE_3":"ELECTRIC VEHICLE CHARGING STATION","TELEPON":null,"ALAMAT":"JL. SULTAN AGUNG NO.145, KALIWIRU, KEC. GAJAHMUNGKUR, KOTA SEMARANG, JAWA TENGAH","ID_PROV":"33","PROVINSI":"JAWA TENGAH","ID_KABKOT":"33.74","KABKOT":"KOTA SEMARANG","ID_KEC":"33.74.09","KECAMATAN":"GAJAHMUNGKUR","ID_DESA":"33.74.09.1001","DESA":"KARANGREJO","LONGITUDE":110.4200182,"LATITUDE":-7.0229083,"STATUS":"","TANGGAL PENGUMPULAN":"Q2 2024","TANGGAL UPDATE":"27/07/2025"},"geometry":{"type":"Point","coordinates":[110.4200182,-7.0229083]}},{"type":"Feature","properties":{"NAMA":"REST AREA KM 424 B SEMARANG","TIPE_1":"TRANSPORTASI","TIPE_2":"REST AREA","TIPE_3":"-","TELEPON":null,"ALAMAT":"BENDAN DUWUR, GAJAH MUNGKUR, KOTA SEMARANG, JAWA TENGAH, JAWA, 50221, INDONESIA","ID_PROV":"33","PROVINSI":"JAWA TENGAH","ID_KABKOT":"33.74","KABKOT":"KOTA SEMARANG","ID_KEC":"33.74.09","KECAMATAN":"GAJAHMUNGKUR","ID_DESA":"33.74.09.1002","DESA":"BENDAN DHUWUR","LONGITUDE":110.3962469,"LATITUDE":-7.0177403,"STATUS":"","TANGGAL PENGUMPULAN":"Q2 2025","TANGGAL UPDATE":"29/04/2025"},"geometry":{"type":"Point","coordinates":[110.3962469,-7.0177403]}},{"type":"Feature","properties":{"NAMA":"REST AREA TERMINAL TIPE A MANGKANG","TIPE_1":"TRANSPORTASI","TIPE_2":"REST AREA","TIPE_3":"-","TELEPON":null,"ALAMAT":"JALAN IRIGASI KAUMAN, RW 05, MANGKANG KULON, TUGU, KOTA SEMARANG, JAWA TENGAH, JAWA, 51372, INDONESIA","ID_PROV":"33","PROVINSI":"JAWA TENGAH","ID_KABKOT":"33.74","KABKOT":"KOTA SEMARANG","ID_KEC":"33.74.16","KECAMATAN":"TUGU","ID_DESA":"33.74.16.1006","DESA":"MANGKANG KULON","LONGITUDE":110.288817,"LATITUDE":-6.9685174,"STATUS":"","TANGGAL PENGUMPULAN":"Q2 2025","TANGGAL UPDATE":"29/04/2025"},"geometry":{"type":"Point","coordinates":[110.288817,-6.9685174]}},{"type":"Feature","properties":{"NAMA":"STASIUN JERAKAH","TIPE_1":"TRANSPORTASI","TIPE_2":"STASIUN","TIPE_3":"KERETA API","TELEPON":null,"ALAMAT":"JRAKAH, KEC. TUGU, KOTA SEMARANG, JAWA TENGAH 50151","ID_PROV":"33","PROVINSI":"JAWA TENGAH","ID_KABKOT":"33.74","KABKOT":"KOTA SEMARANG","ID_KEC":"33.74.16","KECAMATAN":"TUGU","ID_DESA":"33.74.16.1001","DESA":"JERAKAH","LONGITUDE":110.3626,"LATITUDE":-6.98047,"STATUS":null,"TANGGAL PENGUMPULAN":"Q2 2024","TANGGAL UPDATE":"28/07/2025"},"geometry":{"type":"Point","coordinates":[110.3626,-6.98047]}},{"type":"Feature","properties":{"NAMA":"STASIUN SEMARANG PONCOL","TIPE_1":"TRANSPORTASI","TIPE_2":"STASIUN","TIPE_3":"KERETA API","TELEPON":null,"ALAMAT":"PURWOSARI, KEC. SEMARANG UTARA, KOTA SEMARANG, JAWA TENGAH","ID_PROV":"33","PROVINSI":"JAWA TENGAH","ID_KABKOT":"33.74","KABKOT":"KOTA SEMARANG","ID_KEC":"33.74.02","KECAMATAN":"SEMARANG UTARA","ID_DESA":"33.74.02.1004","DESA":"PURWOSARI","LONGITUDE":110.4148,"LATITUDE":-6.9729,"STATUS":null,"TANGGAL PENGUMPULAN":"Q2 2024","TANGGAL UPDATE":"28/07/2025"},"geometry":{"type":"Point","coordinates":[110.4148,-6.9729]}},{"type":"Feature","properties":{"NAMA":"STASIUN JURNATAN","TIPE_1":"TRANSPORTASI","TIPE_2":"STASIUN","TIPE_3":"KERETA API","TELEPON":null,"ALAMAT":"PURWODINATAN, KEC. SEMARANG TENGAH, KOTA SEMARANG, JAWA TENGAH 50137","ID_PROV":"33","PROVINSI":"JAWA TENGAH","ID_KABKOT":"33.74","KABKOT":"KOTA SEMARANG","ID_KEC":"33.74.01","KECAMATAN":"SEMARANG TENGAH","ID_DESA":"33.74.01.1011","DESA":"PURWODINATAN","LONGITUDE":110.4304,"LATITUDE":-6.96948,"STATUS":null,"TANGGAL PENGUMPULAN":"Q2 2024","TANGGAL UPDATE":"28/07/2025"},"geometry":{"type":"Point","coordinates":[110.4304,-6.96948]}},{"type":"Feature","properties":{"NAMA":"STASIUN KEMIJEN","TIPE_1":"TRANSPORTASI","TIPE_2":"STASIUN","TIPE_3":"KERETA API","TELEPON":null,"ALAMAT":"JL. RONGGOWARSITO, TJ. MAS, KEC. SEMARANG TIM., KOTA SEMARANG, JAWA TENGAH 50174","ID_PROV":"33","PROVINSI":"JAWA TENGAH","ID_KABKOT":"33.74","KABKOT":"KOTA SEMARANG","ID_KEC":"33.74.03","KECAMATAN":"SEMARANG TIMUR","ID_DESA":"33.74.03.1001","DESA":"KEMIJEN","LONGITUDE":110.4388,"LATITUDE":-6.95587,"STATUS":null,"TANGGAL PENGUMPULAN":"Q2 2024","TANGGAL UPDATE":"28/07/2025"},"geometry":{"type":"Point","coordinates":[110.4388,-6.95587]}},{"type":"Feature","properties":{"NAMA":"STASIUN ALASTUA","TIPE_1":"TRANSPORTASI","TIPE_2":"STASIUN","TIPE_3":"KERETA API","TELEPON":null,"ALAMAT":"TLOGOMULYO, PEDURUNGAN, KOTA SEMARANG, JAWA TENGAH 50113","ID_PROV":"33","PROVINSI":"JAWA TENGAH","ID_KABKOT":"33.74","KABKOT":"KOTA SEMARANG","ID_KEC":"33.74.06","KECAMATAN":"PEDURUNGAN","ID_DESA":"33.74.06.1002","DESA":"TLOGOMULYO","LONGITUDE":110.4758,"LATITUDE":-6.98438,"STATUS":null,"TANGGAL PENGUMPULAN":"Q2 2024","TANGGAL UPDATE":"28/07/2025"},"geometry":{"type":"Point","coordinates":[110.4758,-6.98438]}},{"type":"Feature","properties":{"NAMA":"STASIUN GENUK","TIPE_1":"TRANSPORTASI","TIPE_2":"STASIUN","TIPE_3":"KERETA API","TELEPON":null,"ALAMAT":"JL. KALIGAWE RAYA NO.225, TRIMULYO, SAYUNG, KEC. SAYUNG, KABUPATEN DEMAK, JAWA TENGAH 50118","ID_PROV":"33","PROVINSI":"JAWA TENGAH","ID_KABKOT":"33.74","KABKOT":"KOTA SEMARANG","ID_KEC":"33.74.05","KECAMATAN":"GENUK","ID_DESA":"33.74.05.1004","DESA":"GENUKSARI","LONGITUDE":110.4788,"LATITUDE":-6.95227,"STATUS":null,"TANGGAL PENGUMPULAN":"Q2 2024","TANGGAL UPDATE":"28/07/2025"},"geometry":{"type":"Point","coordinates":[110.4788,-6.95227]}},{"type":"Feature","properties":{"NAMA":"STASIUN SEMARANG TAWANG","TIPE_1":"TRANSPORTASI","TIPE_2":"STASIUN","TIPE_3":"KERETA API","TELEPON":null,"ALAMAT":"JL. TAMAN TAWANG NO.1, TJ. MAS, KEC. SEMARANG UTARA, KOTA SEMARANG, JAWA TENGAH 50211","ID_PROV":"33","PROVINSI":"JAWA TENGAH","ID_KABKOT":"33.74","KABKOT":"KOTA SEMARANG","ID_KEC":"33.74.02","KECAMATAN":"SEMARANG UTARA","ID_DESA":"33.74.02.1008","DESA":"TANJUNG MAS","LONGITUDE":110.4282,"LATITUDE":-6.96448,"STATUS":null,"TANGGAL PENGUMPULAN":"Q2 2024","TANGGAL UPDATE":"28/07/2025"},"geometry":{"type":"Point","coordinates":[110.4282,-6.96448]}},{"type":"Feature","properties":{"NAMA":"STASIUN MANGKANG","TIPE_1":"TRANSPORTASI","TIPE_2":"STASIUN","TIPE_3":"KERETA API","TELEPON":null,"ALAMAT":"JALAN MANGKANG STASIUN, JAWA TENGAH 50154","ID_PROV":"33","PROVINSI":"JAWA TENGAH","ID_KABKOT":"33.74","KABKOT":"KOTA SEMARANG","ID_KEC":"33.74.16","KECAMATAN":"TUGU","ID_DESA":"33.74.16.1007","DESA":"MANGUNHARJO","LONGITUDE":110.303,"LATITUDE":-6.97107,"STATUS":null,"TANGGAL PENGUMPULAN":"Q2 2024","TANGGAL UPDATE":"28/07/2025"},"geometry":{"type":"Point","coordinates":[110.303,-6.97107]}},{"type":"Feature","properties":{"NAMA":"TERMINAL SUKUN","TIPE_1":"TRANSPORTASI","TIPE_2":"TERMINAL","TIPE_3":"TERMINAL KENDARAAN UMUM","TELEPON":null,"ALAMAT":"JL. SETIA BUDI NO.170, SRONDOL KULON, KEC. BANYUMANIK, KOTA SEMARANG, JAWA TENGAH 50263","ID_PROV":"33","PROVINSI":"JAWA TENGAH","ID_KABKOT":"33.74","KABKOT":"KOTA SEMARANG","ID_KEC":"33.74.11","KECAMATAN":"BANYUMANIK","ID_DESA":"33.74.11.1007","DESA":"SRONDOL WETAN","LONGITUDE":110.4132491,"LATITUDE":-7.0625306,"STATUS":"","TANGGAL PENGUMPULAN":"Q2 2024","TANGGAL UPDATE":"27/07/2025"},"geometry":{"type":"Point","coordinates":[110.4132491,-7.0625306]}},{"type":"Feature","properties":{"NAMA":"TERMINAL PENGGARON","TIPE_1":"TRANSPORTASI","TIPE_2":"TERMINAL","TIPE_3":"TERMINAL BUS","TELEPON":null,"ALAMAT":"BANDUNGREJO, KEC. MRANGGEN, KABUPATEN DEMAK, JAWA TENGAH 50194","ID_PROV":"33","PROVINSI":"JAWA TENGAH","ID_KABKOT":"33.74","KABKOT":"KOTA SEMARANG","ID_KEC":"33.74.06","KECAMATAN":"PEDURUNGAN","ID_DESA":"33.74.06.1001","DESA":"PENGGARON KIDUL","LONGITUDE":110.4933842,"LATITUDE":-7.0177692,"STATUS":"","TANGGAL PENGUMPULAN":"Q2 2024","TANGGAL UPDATE":"27/07/2025"},"geometry":{"type":"Point","coordinates":[110.4933842,-7.0177692]}},{"type":"Feature","properties":{"NAMA":"TERMINAL BUS TERBOYO","TIPE_1":"TRANSPORTASI","TIPE_2":"TERMINAL","TIPE_3":"TERMINAL BUS","TELEPON":null,"ALAMAT":"TERBOYO WETAN, KEC. GENUK, KOTA SEMARANG, JAWA TENGAH","ID_PROV":"33","PROVINSI":"JAWA TENGAH","ID_KABKOT":"33.74","KABKOT":"KOTA SEMARANG","ID_KEC":"33.74.05","KECAMATAN":"GENUK","ID_DESA":"33.74.05.1013","DESA":"TERBOYO WETAN","LONGITUDE":110.463002,"LATITUDE":-6.951745,"STATUS":"","TANGGAL PENGUMPULAN":"Q2 2024","TANGGAL UPDATE":"27/07/2025"},"geometry":{"type":"Point","coordinates":[110.463002,-6.951745]}},{"type":"Feature","properties":{"NAMA":"TERMINAL BANYUMANIK","TIPE_1":"TRANSPORTASI","TIPE_2":"TERMINAL","TIPE_3":"TERMINAL BUS","TELEPON":"0812-2444-3528","ALAMAT":"JALAN TERMINAL, BANYUMANIK, KEC. BANYUMANIK, KOTA SEMARANG, JAWA TENGAH 50264","ID_PROV":"33","PROVINSI":"JAWA TENGAH","ID_KABKOT":"33.74","KABKOT":"KOTA SEMARANG","ID_KEC":"33.74.11","KECAMATAN":"BANYUMANIK","ID_DESA":"33.74.11.1005","DESA":"BANYUMANIK","LONGITUDE":110.4108281,"LATITUDE":-7.0735988,"STATUS":"","TANGGAL PENGUMPULAN":"Q2 2024","TANGGAL UPDATE":"27/07/2025"},"geometry":{"type":"Point","coordinates":[110.4108281,-7.0735988]}},{"type":"Feature","properties":{"NAMA":"TERMINAL GUNUNGPATI","TIPE_1":"TRANSPORTASI","TIPE_2":"TERMINAL","TIPE_3":"TERMINAL KENDARAAN UMUM","TELEPON":null,"ALAMAT":"GUNUNGPATI, GUNUNG PATI, KOTA SEMARANG, JAWA TENGAH 50229","ID_PROV":"33","PROVINSI":"JAWA TENGAH","ID_KABKOT":"33.74","KABKOT":"KOTA SEMARANG","ID_KEC":"33.74.12","KECAMATAN":"GUNUNGPATI","ID_DESA":"33.74.12.1004","DESA":"GUNUNGPATI","LONGITUDE":110.360678,"LATITUDE":-7.0827986,"STATUS":"","TANGGAL PENGUMPULAN":"Q2 2024","TANGGAL UPDATE":"27/07/2025"},"geometry":{"type":"Point","coordinates":[110.360678,-7.0827986]}},{"type":"Feature","properties":{"NAMA":"TERMINAL MANGKANG","TIPE_1":"TRANSPORTASI","TIPE_2":"TERMINAL","TIPE_3":"TERMINAL BUS","TELEPON":null,"ALAMAT":"MANGKANG KULON, TUGU, KOTA SEMARANG, JAWA TENGAH 50155","ID_PROV":"33","PROVINSI":"JAWA TENGAH","ID_KABKOT":"33.74","KABKOT":"KOTA SEMARANG","ID_KEC":"33.74.15","KECAMATAN":"NGALIYAN","ID_DESA":"33.74.15.1009","DESA":"WONOSARI","LONGITUDE":110.3024424,"LATITUDE":-6.9734745,"STATUS":"","TANGGAL PENGUMPULAN":"Q2 2024","TANGGAL UPDATE":"27/07/2025"},"geometry":{"type":"Point","coordinates":[110.3024424,-6.9734745]}}],"__v":0}