{"_id":"689d5bed7791c12ed769fd02","type":"FeatureCollection","features":[{"type":"Feature","properties":{"NAMA":"HALTE BIS TRANS PINTU KELUAR STASIUN TAWANG, SEMARANG","TIPE_1":"TRANSPORTASI","TIPE_2":"HALTE","TIPE_3":"-","TELEPON":null,"ALAMAT":"JL. PENGAPON, TJ. MAS, KEC. SEMARANG UTARA, KOTA SEMARANG, JAWA TENGAH 50174","ID_PROV":"33","PROVINSI":"JAWA TENGAH","ID_KABKOT":"33.74","KABKOT":"KOTA SEMARANG","ID_KEC":"33.74.02","KECAMATAN":"SEMARANG UTARA","ID_DESA":"33.74.02.1008","DESA":"TANJUNG MAS","LONGITUDE":110.42978,"LATITUDE":-6.964787,"STATUS":null,"TANGGAL PENGUMPULAN":"Q2 2024","TANGGAL UPDATE":"27/07/2025"},"geometry":{"type":"Point","coordinates":[110.42978,-6.964787]},"_id":"689d5bed7791c12ed769fd03"},{"type":"Feature","properties":{"NAMA":"HALTE BRT SRONDOL","TIPE_1":"TRANSPORTASI","TIPE_2":"HALTE","TIPE_3":"-","TELEPON":null,"ALAMAT":"JL. SETIA BUDI, SRONDOL KULON, KEC. BANYUMANIK, KOTA SEMARANG, JAWA TENGAH 50263","ID_PROV":"33","PROVINSI":"JAWA TENGAH","ID_KABKOT":"33.74","KABKOT":"KOTA SEMARANG","ID_KEC":"33.74.11","KECAMATAN":"BANYUMANIK","ID_DESA":"33.74.11.1006","DESA":"SRONDOL KULON","LONGITUDE":110.4175078,"LATITUDE":-7.0515686,"STATUS":null,"TANGGAL PENGUMPULAN":"Q2 2024","TANGGAL UPDATE":"27/07/2025"},"geometry":{"type":"Point","coordinates":[110.4175078,-7.0515686]},"_id":"689d5bed7791c12ed769fd04"},{"type":"Feature","properties":{"NAMA":"HALTE BRT SUKUN 1","TIPE_1":"TRANSPORTASI","TIPE_2":"HALTE","TIPE_3":"-","TELEPON":null,"ALAMAT":"JL. PERINTIS KEMERDEKAAN, SRONDOL WETAN, KEC. BANYUMANIK, KOTA SEMARANG, JAWA TENGAH 50263","ID_PROV":"33","PROVINSI":"JAWA TENGAH","ID_KABKOT":"33.74","KABKOT":"KOTA SEMARANG","ID_KEC":"33.74.11","KECAMATAN":"BANYUMANIK","ID_DESA":"33.74.11.1007","DESA":"SRONDOL WETAN","LONGITUDE":110.4127532,"LATITUDE":-7.0636725,"STATUS":null,"TANGGAL PENGUMPULAN":"Q2 2024","TANGGAL UPDATE":"27/07/2025"},"geometry":{"type":"Point","coordinates":[110.4127532,-7.0636725]},"_id":"689d5bed7791c12ed769fd05"},{"type":"Feature","properties":{"NAMA":"HALTE 1 P","TIPE_1":"TRANSPORTASI","TIPE_2":"HALTE","TIPE_3":"-","TELEPON":null,"ALAMAT":"JL. BRIGJEN SUDIARTO NO.705, PLAMONGAN SARI, KEC. PEDURUNGAN, KOTA SEMARANG, JAWA TENGAH 50192","ID_PROV":"33","PROVINSI":"JAWA TENGAH","ID_KABKOT":"33.74","KABKOT":"KOTA SEMARANG","ID_KEC":"33.74.06","KECAMATAN":"PEDURUNGAN","ID_DESA":"33.74.06.1006","DESA":"PLAMONGANSARI","LONGITUDE":110.4905256,"LATITUDE":-7.0184275,"STATUS":null,"TANGGAL PENGUMPULAN":"Q2 2024","TANGGAL UPDATE":"27/07/2025"},"geometry":{"type":"Point","coordinates":[110.4905256,-7.0184275]},"_id":"689d5bed7791c12ed769fd06"},{"type":"Feature","properties":{"NAMA":"HALTE BRT USM","TIPE_1":"TRANSPORTASI","TIPE_2":"HALTE","TIPE_3":"-","TELEPON":null,"ALAMAT":"TLOGOSARI KULON, KEC. PEDURUNGAN, KOTA SEMARANG, JAWA TENGAH","ID_PROV":"33","PROVINSI":"JAWA TENGAH","ID_KABKOT":"33.74","KABKOT":"KOTA SEMARANG","ID_KEC":"33.74.06","KECAMATAN":"PEDURUNGAN","ID_DESA":"33.74.06.1004","DESA":"TLOGOSARI KULON","LONGITUDE":110.4525845,"LATITUDE":-6.9812595,"STATUS":null,"TANGGAL PENGUMPULAN":"Q2 2024","TANGGAL UPDATE":"27/07/2025"},"geometry":{"type":"Point","coordinates":[110.4525845,-6.9812595]},"_id":"689d5bed7791c12ed769fd07"},{"type":"Feature","properties":{"NAMA":"HALTE BUS KAMPUS UNDIP RUSUNAWA","TIPE_1":"TRANSPORTASI","TIPE_2":"HALTE","TIPE_3":"-","TELEPON":null,"ALAMAT":"BULUSAN, KEC. TEMBALANG, KOTA SEMARANG, JAWA TENGAH","ID_PROV":"33","PROVINSI":"JAWA TENGAH","ID_KABKOT":"33.74","KABKOT":"KOTA SEMARANG","ID_KEC":"33.74.10","KECAMATAN":"TEMBALANG","ID_DESA":"33.74.10.1004","DESA":"BULUSAN","LONGITUDE":110.4440982,"LATITUDE":-7.0545439,"STATUS":null,"TANGGAL PENGUMPULAN":"Q2 2024","TANGGAL UPDATE":"27/07/2025"},"geometry":{"type":"Point","coordinates":[110.4440982,-7.0545439]},"_id":"689d5bed7791c12ed769fd08"},{"type":"Feature","properties":{"NAMA":"HALTE FEEDER BRT SURATMO (SD MANYARAN 01)","TIPE_1":"TRANSPORTASI","TIPE_2":"HALTE","TIPE_3":"-","TELEPON":null,"ALAMAT":"JL. SURATMO, GISIKDRONO, KEC. SEMARANG BARAT, KOTA SEMARANG, JAWA TENGAH 50147","ID_PROV":"33","PROVINSI":"JAWA TENGAH","ID_KABKOT":"33.74","KABKOT":"KOTA SEMARANG","ID_KEC":"33.74.13","KECAMATAN":"SEMARANG BARAT","ID_DESA":"33.74.13.1002","DESA":"MANYARAN","LONGITUDE":110.3888407,"LATITUDE":-6.9990965,"STATUS":null,"TANGGAL PENGUMPULAN":"Q2 2024","TANGGAL UPDATE":"27/07/2025"},"geometry":{"type":"Point","coordinates":[110.3888407,-6.9990965]},"_id":"689d5bed7791c12ed769fd09"},{"type":"Feature","properties":{"NAMA":"HALTE KESATRIAN","TIPE_1":"TRANSPORTASI","TIPE_2":"HALTE","TIPE_3":"-","TELEPON":null,"ALAMAT":"JL. TANAH PUTIH II, JATINGALEH, KEC. CANDISARI, KOTA SEMARANG, JAWA TENGAH 50254","ID_PROV":"33","PROVINSI":"JAWA TENGAH","ID_KABKOT":"33.74","KABKOT":"KOTA SEMARANG","ID_KEC":"33.74.08","KECAMATAN":"CANDISARI","ID_DESA":"33.74.08.1002","DESA":"JATINGALEH","LONGITUDE":110.4184276,"LATITUDE":-7.030038,"STATUS":null,"TANGGAL PENGUMPULAN":"Q2 2024","TANGGAL UPDATE":"27/07/2025"},"geometry":{"type":"Point","coordinates":[110.4184276,-7.030038]},"_id":"689d5bed7791c12ed769fd0a"},{"type":"Feature","properties":{"NAMA":"HALTE TRANS JATENG","TIPE_1":"TRANSPORTASI","TIPE_2":"HALTE","TIPE_3":"-","TELEPON":null,"ALAMAT":"WONOTINGAL, KEC. CANDISARI, KOTA SEMARANG, JAWA TENGAH 50232","ID_PROV":"33","PROVINSI":"JAWA TENGAH","ID_KABKOT":"33.74","KABKOT":"KOTA SEMARANG","ID_KEC":"33.74.08","KECAMATAN":"CANDISARI","ID_DESA":"33.74.08.1007","DESA":"WONOTINGAL","LONGITUDE":110.4166977,"LATITUDE":-7.0080132,"STATUS":null,"TANGGAL PENGUMPULAN":"Q2 2024","TANGGAL UPDATE":"27/07/2025"},"geometry":{"type":"Point","coordinates":[110.4166977,-7.0080132]},"_id":"689d5bed7791c12ed769fd0b"},{"type":"Feature","properties":{"NAMA":"HALTE TRANS SEMARANG","TIPE_1":"TRANSPORTASI","TIPE_2":"HALTE","TIPE_3":"-","TELEPON":null,"ALAMAT":"JL. KOLONEL HR HADIJANTO, SEKARAN, KEC. GN. PATI, KOTA SEMARANG, JAWA TENGAH 50229","ID_PROV":"33","PROVINSI":"JAWA TENGAH","ID_KABKOT":"33.74","KABKOT":"KOTA SEMARANG","ID_KEC":"33.74.12","KECAMATAN":"GUNUNGPATI","ID_DESA":"33.74.12.1009","DESA":"SEKARAN","LONGITUDE":110.3911772,"LATITUDE":-7.0389313,"STATUS":null,"TANGGAL PENGUMPULAN":"Q2 2024","TANGGAL UPDATE":"27/07/2025"},"geometry":{"type":"Point","coordinates":[110.3911772,-7.0389313]},"_id":"689d5bed7791c12ed769fd0c"}],"__v":0}