{"_id":"689d5dc4f666afe93787d792","type":"FeatureCollection","features":[{"type":"Feature","properties":{"NAMA":"GERBANG TOL TEMBALANG","TIPE_1":"TRANSPORTASI","TIPE_2":"PINTU TOL","TIPE_3":"-","TELEPON":null,"ALAMAT":"SUMURBOTO, KEC. BANYUMANIK, KOTA SEMARANG, JAWA TENGAH 50269","ID_PROV":"33","PROVINSI":"JAWA TENGAH","ID_KABKOT":"33.74","KABKOT":"KOTA SEMARANG","ID_KEC":"33.74.11","KECAMATAN":"BANYUMANIK","ID_DESA":"33.74.11.1008","DESA":"NGESREP","LATITUDE":-7.049732,"LONGITUDE":110.433509,"STATUS":null,"TANGGAL PENGUMPULAN":"Q3 2025","TANGGAL UPDATE":"29/07/2025"},"geometry":{"type":"Point","coordinates":[110.433509,-7.049732]},"_id":"689d5dc4f666afe93787d793"},{"type":"Feature","properties":{"NAMA":"GERBANG TOL GAYAMSARI","TIPE_1":"TRANSPORTASI","TIPE_2":"PINTU TOL","TIPE_3":"-","TELEPON":null,"ALAMAT":"GAYAMSARI, KOTA SEMARANG, JAWA TENGAH 50248","ID_PROV":"33","PROVINSI":"JAWA TENGAH","ID_KABKOT":"33.74","KABKOT":"KOTA SEMARANG","ID_KEC":"33.74.04","KECAMATAN":"GAYAMSARI","ID_DESA":"33.74.04.1007","DESA":"GAYAMSARI","LATITUDE":-6.999349,"LONGITUDE":110.450807,"STATUS":null,"TANGGAL PENGUMPULAN":"Q3 2025","TANGGAL UPDATE":"29/07/2025"},"geometry":{"type":"Point","coordinates":[110.450807,-6.999349]},"_id":"689d5dc4f666afe93787d794"},{"type":"Feature","properties":{"NAMA":"GERBANG TOL BANYUMANIK","TIPE_1":"TRANSPORTASI","TIPE_2":"PINTU TOL","TIPE_3":"-","TELEPON":null,"ALAMAT":"PEDALANGAN, KEC. BANYUMANIK, KOTA SEMARANG, JAWA TENGAH 50268","ID_PROV":"33","PROVINSI":"JAWA TENGAH","ID_KABKOT":"33.74","KABKOT":"KOTA SEMARANG","ID_KEC":"33.74.11","KECAMATAN":"BANYUMANIK","ID_DESA":"33.74.11.1004","DESA":"PEDALANGAN","LATITUDE":-7.065745,"LONGITUDE":110.431745,"STATUS":null,"TANGGAL PENGUMPULAN":"Q3 2025","TANGGAL UPDATE":"29/07/2025"},"geometry":{"type":"Point","coordinates":[110.431745,-7.065745]},"_id":"689d5dc4f666afe93787d795"},{"type":"Feature","properties":{"NAMA":"GERBANG TOL JATINGALEH 1 ","TIPE_1":"TRANSPORTASI","TIPE_2":"PINTU TOL","TIPE_3":"-","TELEPON":null,"ALAMAT":"JATINGALEH, CANDISARI, KOTA SEMARANG, JAWA TENGAH 50261","ID_PROV":"33","PROVINSI":"JAWA TENGAH","ID_KABKOT":"33.74","KABKOT":"KOTA SEMARANG","ID_KEC":"33.74.08","KECAMATAN":"CANDISARI","ID_DESA":"33.74.08.1002","DESA":"JATINGALEH","LATITUDE":-7.031343,"LONGITUDE":110.421162,"STATUS":null,"TANGGAL PENGUMPULAN":"Q3 2025","TANGGAL UPDATE":"29/07/2025"},"geometry":{"type":"Point","coordinates":[110.421162,-7.031343]},"_id":"689d5dc4f666afe93787d796"},{"type":"Feature","properties":{"NAMA":"GERBANG TOL SRONDOL","TIPE_1":"TRANSPORTASI","TIPE_2":"PINTU TOL","TIPE_3":"-","TELEPON":null,"ALAMAT":"JL. TOL TEMBALANG-BANYUMANIK, PEDALANGAN, KEC. BANYUMANIK, KOTA SEMARANG, JAWA TENGAH 50269","ID_PROV":"33","PROVINSI":"JAWA TENGAH","ID_KABKOT":"33.74","KABKOT":"KOTA SEMARANG","ID_KEC":"33.74.11","KECAMATAN":"BANYUMANIK","ID_DESA":"33.74.11.1004","DESA":"PEDALANGAN","LATITUDE":-7.056435,"LONGITUDE":110.423569,"STATUS":null,"TANGGAL PENGUMPULAN":"Q3 2025","TANGGAL UPDATE":"29/07/2025"},"geometry":{"type":"Point","coordinates":[110.423569,-7.056435]},"_id":"689d5dc4f666afe93787d797"},{"type":"Feature","properties":{"NAMA":"GERBANG TOL MUKTIHARJO","TIPE_1":"TRANSPORTASI","TIPE_2":"PINTU TOL","TIPE_3":"-","TELEPON":null,"ALAMAT":"JL. TOL TANJUNGMAS - SRONDOL, SAWAH BESAR, KEC. GAYAMSARI, KOTA SEMARANG, JAWA TENGAH 50163","ID_PROV":"33","PROVINSI":"JAWA TENGAH","ID_KABKOT":"33.74","KABKOT":"KOTA SEMARANG","ID_KEC":"33.74.06","KECAMATAN":"PEDURUNGAN","ID_DESA":"33.74.06.1005","DESA":"MUKTIHARJO KIDUL","LATITUDE":-6.973147,"LONGITUDE":110.450082,"STATUS":null,"TANGGAL PENGUMPULAN":"Q3 2025","TANGGAL UPDATE":"29/07/2025"},"geometry":{"type":"Point","coordinates":[110.450082,-6.973147]},"_id":"689d5dc4f666afe93787d798"},{"type":"Feature","properties":{"NAMA":"GERBANG TOL KRAPYAK I ","TIPE_1":"TRANSPORTASI","TIPE_2":"PINTU TOL","TIPE_3":"-","TELEPON":null,"ALAMAT":"JL. TOL JATINGALEH-KRAPYAK, KEMBANGARUM, SEMARANG BARAT, KOTA SEMARANG, JAWA TENGAH 50183","ID_PROV":"33","PROVINSI":"JAWA TENGAH","ID_KABKOT":"33.74","KABKOT":"KOTA SEMARANG","ID_KEC":"33.74.13","KECAMATAN":"SEMARANG BARAT","ID_DESA":"33.74.13.1016","DESA":"KEMBANGARUM","LATITUDE":-6.994984,"LONGITUDE":110.368796,"STATUS":null,"TANGGAL PENGUMPULAN":"Q3 2025","TANGGAL UPDATE":"29/07/2025"},"geometry":{"type":"Point","coordinates":[110.368796,-6.994984]},"_id":"689d5dc4f666afe93787d799"},{"type":"Feature","properties":{"NAMA":"GERBANG TOL MANYARAN","TIPE_1":"TRANSPORTASI","TIPE_2":"PINTU TOL","TIPE_3":"-","TELEPON":null,"ALAMAT":"KEMBANGARUM, KEC. SEMARANG BARAT, KOTA SEMARANG, JAWA TENGAH 50183","ID_PROV":"33","PROVINSI":"JAWA TENGAH","ID_KABKOT":"33.74","KABKOT":"KOTA SEMARANG","ID_KEC":"33.74.13","KECAMATAN":"SEMARANG BARAT","ID_DESA":"33.74.13.1016","DESA":"KEMBANGARUM","LATITUDE":-7.005558,"LONGITUDE":110.377403,"STATUS":null,"TANGGAL PENGUMPULAN":"Q3 2025","TANGGAL UPDATE":"29/07/2025"},"geometry":{"type":"Point","coordinates":[110.377403,-7.005558]},"_id":"689d5dc4f666afe93787d79a"},{"type":"Feature","properties":{"NAMA":"GERBANG TOL JATINGALEH 2","TIPE_1":"TRANSPORTASI","TIPE_2":"PINTU TOL","TIPE_3":"-","TELEPON":null,"ALAMAT":"TINJOMOYO, BANYUMANIK, KOTA SEMARANG, JAWA TENGAH 50262","ID_PROV":"33","PROVINSI":"JAWA TENGAH","ID_KABKOT":"33.74","KABKOT":"KOTA SEMARANG","ID_KEC":"33.74.11","KECAMATAN":"BANYUMANIK","ID_DESA":"33.74.11.1009","DESA":"TINJOMOYO","LATITUDE":-7.03121,"LONGITUDE":110.414946,"STATUS":null,"TANGGAL PENGUMPULAN":"Q3 2025","TANGGAL UPDATE":"29/07/2025"},"geometry":{"type":"Point","coordinates":[110.414946,-7.03121]},"_id":"689d5dc4f666afe93787d79b"},{"type":"Feature","properties":{"NAMA":"GERBANG TOL KALIKANGKUNG ","TIPE_1":"TRANSPORTASI","TIPE_2":"PINTU TOL","TIPE_3":"-","TELEPON":null,"ALAMAT":"JL. TOL SEMARANG - BATANG, GONDORIYO, NGALIYAN, KOTA SEMARANG, JAWA TENGAH 50187","ID_PROV":"33","PROVINSI":"JAWA TENGAH","ID_KABKOT":"33.74","KABKOT":"KOTA SEMARANG","ID_KEC":"33.74.15","KECAMATAN":"NGALIYAN","ID_DESA":"33.74.15.1009","DESA":"WONOSARI","LATITUDE":-6.987556,"LONGITUDE":110.316996,"STATUS":null,"TANGGAL PENGUMPULAN":"Q3 2025","TANGGAL UPDATE":"29/07/2025"},"geometry":{"type":"Point","coordinates":[110.316996,-6.987556]},"_id":"689d5dc4f666afe93787d79c"}],"__v":0}